{
"type": "FeatureCollection",
"name": "areas_protegidas_snaspe_la_campana_conaf",
"crs": { "type": "name", "properties": { "name": "urn:ogc:def:crs:OGC:1.3:CRS84" } },
"xy_coordinate_resolution": 1e-06,
"features": [
{ "type": "Feature", "properties": { "objectid": 371, "st_area_sh": 138663278.697, "st_length_": 60633.298372999998, "Nombre": "R.N.Lago Peñuelas", "Tipo_Snasp": "Reserva", "Region": "Región de Valparaíso", "Cod_Region": 5 }, "geometry": { "type": "MultiPolygon", "coordinates": [ [ [ [ -71.40155, -33.202229 ], [ -71.402717, -33.202227 ], [ -71.402776, -33.202221 ], [ -71.402131, -33.202075 ], [ -71.40155, -33.202229 ] ] ], [ [ [ -71.403128, -33.202188 ], [ -71.404399, -33.202017 ], [ -71.405391, -33.202074 ], [ -71.40575, -33.202217 ], [ -71.405994, -33.202424 ], [ -71.405814, -33.202125 ], [ -71.404855, -33.201706 ], [ -71.404351, -33.201806 ], [ -71.403128, -33.202188 ] ] ], [ [ [ -71.406985, -33.204686 ], [ -71.407557, -33.20568 ], [ -71.407618, -33.205772 ], [ -71.407573, -33.205423 ], [ -71.407438, -33.205015 ], [ -71.406795, -33.204208 ], [ -71.406985, -33.204686 ] ] ], [ [ [ -71.407902, -33.209937 ], [ -71.409105, -33.210866 ], [ -71.410711, -33.211706 ], [ -71.411435, -33.211855 ], [ -71.41265, -33.21127 ], [ -71.41289, -33.211073 ], [ -71.413245, -33.210534 ], [ -71.41379, -33.2094 ], [ -71.41282, -33.210528 ], [ -71.412265, -33.210855 ], [ -71.411895, -33.211011 ], [ -71.411208, -33.21115 ], [ -71.410792, -33.211091 ], [ -71.410084, -33.210789 ], [ -71.409356, -33.210551 ], [ -71.408452, -33.210126 ], [ -71.407902, -33.209937 ] ] ], [ [ [ -71.415125, -33.207956 ], [ -71.415488, -33.207713 ], [ -71.418417, -33.206222 ], [ -71.419411, -33.205937 ], [ -71.420817, -33.205925 ], [ -71.424138, -33.206525 ], [ -71.425025, -33.206523 ], [ -71.424297, -33.206275 ], [ -71.423243, -33.206052 ], [ -71.421764, -33.205869 ], [ -71.421248, -33.205888 ], [ -71.419199, -33.205725 ], [ -71.418385, -33.205898 ], [ -71.417746, -33.206244 ], [ -71.41746, -33.206444 ], [ -71.417142, -33.206739 ], [ -71.416374, -33.207159 ], [ -71.416022, -33.207279 ], [ -71.415751, -33.207446 ], [ -71.414611, -33.208348 ], [ -71.414442, -33.208572 ], [ -71.415125, -33.207956 ] ] ], [ [ [ -71.428995, -33.205588 ], [ -71.43069, -33.205587 ], [ -71.43009, -33.205463 ], [ -71.429045, -33.205528 ], [ -71.4285, -33.205607 ], [ -71.428008, -33.205743 ], [ -71.427917, -33.205798 ], [ -71.428995, -33.205588 ] ] ], [ [ [ -71.431341, -33.205746 ], [ -71.431207, -33.205671 ], [ -71.431156, -33.205663 ], [ -71.431341, -33.205746 ] ] ], [ [ [ -71.433308, -33.206916 ], [ -71.433271, -33.206866 ], [ -71.432829, -33.206616 ], [ -71.433308, -33.206916 ] ] ], [ [ [ -71.436785, -33.208446 ], [ -71.437683, -33.208431 ], [ -71.437969, -33.208377 ], [ -71.438136, -33.208321 ], [ -71.439189, -33.207665 ], [ -71.441321, -33.207207 ], [ -71.441914, -33.207005 ], [ -71.442749, -33.206624 ], [ -71.443804, -33.205979 ], [ -71.444472, -33.205533 ], [ -71.445826, -33.2045 ], [ -71.446625, -33.204311 ], [ -71.447408, -33.204261 ], [ -71.448237, -33.204401 ], [ -71.448759, -33.204651 ], [ -71.450398, -33.205794 ], [ -71.451041, -33.205967 ], [ -71.453073, -33.205467 ], [ -71.454351, -33.205442 ], [ -71.45515, -33.205282 ], [ -71.454347, -33.204987 ], [ -71.452742, -33.205059 ], [ -71.451751, -33.205205 ], [ -71.450676, -33.205248 ], [ -71.45024, -33.205149 ], [ -71.44988, -33.204917 ], [ -71.449454, -33.204484 ], [ -71.448589, -33.204005 ], [ -71.448114, -33.203861 ], [ -71.447085, -33.203791 ], [ -71.446066, -33.203892 ], [ -71.444894, -33.204654 ], [ -71.444547, -33.204954 ], [ -71.444251, -33.205303 ], [ -71.443409, -33.205693 ], [ -71.442401, -33.206254 ], [ -71.441492, -33.206619 ], [ -71.439595, -33.207292 ], [ -71.439023, -33.207592 ], [ -71.438542, -33.207786 ], [ -71.436325, -33.208408 ], [ -71.436785, -33.208446 ] ] ], [ [ [ -71.457297, -33.205721 ], [ -71.457804, -33.205701 ], [ -71.458528, -33.205531 ], [ -71.458268, -33.205482 ], [ -71.457818, -33.205292 ], [ -71.457347, -33.205189 ], [ -71.456426, -33.205159 ], [ -71.457297, -33.205721 ] ] ], [ [ [ -71.459561, -33.205339 ], [ -71.45954, -33.205339 ], [ -71.459532, -33.205344 ], [ -71.459561, -33.205339 ] ] ], [ [ [ -71.459893, -33.20534 ], [ -71.460253, -33.20543 ], [ -71.46096, -33.205939 ], [ -71.461457, -33.206414 ], [ -71.462256, -33.206524 ], [ -71.462358, -33.206474 ], [ -71.462681, -33.20606 ], [ -71.462772, -33.20578 ], [ -71.462238, -33.205886 ], [ -71.461726, -33.205819 ], [ -71.46117, -33.205519 ], [ -71.46084, -33.205408 ], [ -71.460245, -33.20533 ], [ -71.459893, -33.20534 ] ] ], [ [ [ -71.46446, -33.205317 ], [ -71.464824, -33.205136 ], [ -71.465354, -33.204718 ], [ -71.46572, -33.204187 ], [ -71.46567, -33.203729 ], [ -71.465279, -33.204392 ], [ -71.464946, -33.204813 ], [ -71.46456, -33.205199 ], [ -71.463978, -33.205294 ], [ -71.46446, -33.205317 ] ] ], [ [ [ -71.466704, -33.202703 ], [ -71.467681, -33.202558 ], [ -71.468366, -33.202331 ], [ -71.469378, -33.201409 ], [ -71.470063, -33.200642 ], [ -71.469354, -33.20065 ], [ -71.468854, -33.200827 ], [ -71.468516, -33.201154 ], [ -71.468135, -33.201418 ], [ -71.467827, -33.201785 ], [ -71.467464, -33.20209 ], [ -71.467078, -33.202377 ], [ -71.466647, -33.202602 ], [ -71.46644, -33.202782 ], [ -71.466704, -33.202703 ] ] ], [ [ [ -71.471447, -33.201491 ], [ -71.471724, -33.201906 ], [ -71.471801, -33.202045 ], [ -71.471802, -33.2019 ], [ -71.471712, -33.201514 ], [ -71.471328, -33.201139 ], [ -71.471447, -33.201491 ] ] ], [ [ [ -71.472474, -33.203194 ], [ -71.473263, -33.204324 ], [ -71.473655, -33.204687 ], [ -71.474498, -33.205363 ], [ -71.474882, -33.205405 ], [ -71.473956, -33.204774 ], [ -71.473756, -33.204485 ], [ -71.473617, -33.204023 ], [ -71.473386, -33.203631 ], [ -71.473095, -33.203434 ], [ -71.472474, -33.203194 ] ] ], [ [ [ -71.47771, -33.204514 ], [ -71.478701, -33.204167 ], [ -71.479379, -33.204203 ], [ -71.479914, -33.204414 ], [ -71.480179, -33.204409 ], [ -71.480769, -33.204662 ], [ -71.479822, -33.20417 ], [ -71.479239, -33.203785 ], [ -71.478852, -33.203802 ], [ -71.478259, -33.20408 ], [ -71.47771, -33.204514 ] ] ], [ [ [ -71.483059, -33.207008 ], [ -71.483622, -33.208619 ], [ -71.484337, -33.208926 ], [ -71.484833, -33.209832 ], [ -71.485429, -33.210067 ], [ -71.48722, -33.209957 ], [ -71.488197, -33.21016 ], [ -71.489342, -33.210088 ], [ -71.489702, -33.209916 ], [ -71.48938, -33.209935 ], [ -71.488779, -33.20987 ], [ -71.488175, -33.209855 ], [ -71.486869, -33.209588 ], [ -71.486129, -33.209545 ], [ -71.48553, -33.209435 ], [ -71.4848, -33.209161 ], [ -71.484214, -33.208704 ], [ -71.483982, -33.20833 ], [ -71.483889, -33.207912 ], [ -71.483059, -33.207008 ] ] ], [ [ [ -71.493504, -33.206897 ], [ -71.496074, -33.20474 ], [ -71.496817, -33.204223 ], [ -71.497398, -33.203951 ], [ -71.497895, -33.203852 ], [ -71.498312, -33.203863 ], [ -71.499448, -33.20427 ], [ -71.500832, -33.205115 ], [ -71.501264, -33.205441 ], [ -71.501655, -33.205856 ], [ -71.502601, -33.206426 ], [ -71.503458, -33.206236 ], [ -71.505821, -33.204885 ], [ -71.505745, -33.204782 ], [ -71.505258, -33.204589 ], [ -71.504847, -33.204742 ], [ -71.50396, -33.204972 ], [ -71.503037, -33.205405 ], [ -71.502621, -33.205508 ], [ -71.501459, -33.205062 ], [ -71.500793, -33.204535 ], [ -71.500147, -33.204214 ], [ -71.499775, -33.203929 ], [ -71.499312, -33.203726 ], [ -71.49795, -33.203578 ], [ -71.497426, -33.203633 ], [ -71.497142, -33.203878 ], [ -71.496351, -33.20443 ], [ -71.496017, -33.204563 ], [ -71.495054, -33.205295 ], [ -71.494685, -33.205609 ], [ -71.494341, -33.20599 ], [ -71.493684, -33.206616 ], [ -71.493504, -33.206897 ] ] ], [ [ [ -71.492411, -33.105024 ], [ -71.491881, -33.105655 ], [ -71.49123, -33.106197 ], [ -71.490528, -33.106579 ], [ -71.489509, -33.107221 ], [ -71.490189, -33.106985 ], [ -71.490825, -33.106972 ], [ -71.491228, -33.106888 ], [ -71.491705, -33.106241 ], [ -71.491907, -33.10588 ], [ -71.492056, -33.10552 ], [ -71.492411, -33.105024 ] ] ], [ [ [ -71.489506, -33.107222 ], [ -71.488661, -33.10763 ], [ -71.488408, -33.107827 ], [ -71.487828, -33.10835 ], [ -71.487204, -33.109106 ], [ -71.488219, -33.108541 ], [ -71.488997, -33.107946 ], [ -71.489305, -33.107583 ], [ -71.489506, -33.107222 ] ] ], [ [ [ -71.485133, -33.110909 ], [ -71.484448, -33.111679 ], [ -71.483914, -33.112485 ], [ -71.483141, -33.113451 ], [ -71.48342, -33.113187 ], [ -71.485133, -33.110909 ] ] ], [ [ [ -71.480075, -33.116002 ], [ -71.478852, -33.116604 ], [ -71.478393, -33.116943 ], [ -71.478085, -33.117241 ], [ -71.477925, -33.117473 ], [ -71.477844, -33.117805 ], [ -71.477955, -33.118006 ], [ -71.478205, -33.118293 ], [ -71.478952, -33.118545 ], [ -71.479347, -33.118639 ], [ -71.480255, -33.11871 ], [ -71.480946, -33.11862 ], [ -71.481159, -33.118654 ], [ -71.482029, -33.118992 ], [ -71.482363, -33.119211 ], [ -71.482581, -33.119405 ], [ -71.48289, -33.119726 ], [ -71.483346, -33.120293 ], [ -71.483868, -33.120812 ], [ -71.483518, -33.120412 ], [ -71.483239, -33.119927 ], [ -71.483122, -33.119527 ], [ -71.482737, -33.119044 ], [ -71.481711, -33.118396 ], [ -71.481177, -33.118228 ], [ -71.480541, -33.118241 ], [ -71.480169, -33.118203 ], [ -71.479522, -33.117815 ], [ -71.479361, -33.117773 ], [ -71.479028, -33.117245 ], [ -71.479124, -33.116886 ], [ -71.47954, -33.116565 ], [ -71.480075, -33.116002 ] ] ], [ [ [ -71.484139, -33.121028 ], [ -71.486707, -33.123166 ], [ -71.487743, -33.124111 ], [ -71.487446, -33.123617 ], [ -71.48697, -33.12312 ], [ -71.486638, -33.122816 ], [ -71.485741, -33.122172 ], [ -71.485465, -33.1218 ], [ -71.484713, -33.121458 ], [ -71.484139, -33.121028 ] ] ], [ [ [ -71.488501, -33.125408 ], [ -71.48863, -33.126514 ], [ -71.488817, -33.127049 ], [ -71.488867, -33.127461 ], [ -71.488809, -33.127699 ], [ -71.487293, -33.129097 ], [ -71.488413, -33.128383 ], [ -71.488915, -33.12814 ], [ -71.489133, -33.127669 ], [ -71.489121, -33.127241 ], [ -71.489014, -33.126737 ], [ -71.488563, -33.125501 ], [ -71.488501, -33.125408 ] ] ], [ [ [ -71.486484, -33.129548 ], [ -71.485797, -33.129644 ], [ -71.485028, -33.130323 ], [ -71.484559, -33.131162 ], [ -71.484223, -33.1315 ], [ -71.483345, -33.131808 ], [ -71.482637, -33.131805 ], [ -71.482006, -33.131687 ], [ -71.480037, -33.131008 ], [ -71.479464, -33.13089 ], [ -71.479844, -33.131161 ], [ -71.480218, -33.131309 ], [ -71.480544, -33.131381 ], [ -71.480867, -33.131374 ], [ -71.4811, -33.131447 ], [ -71.481475, -33.131596 ], [ -71.4826, -33.132157 ], [ -71.483295, -33.132182 ], [ -71.483617, -33.132136 ], [ -71.483888, -33.131898 ], [ -71.484341, -33.131577 ], [ -71.48524, -33.130664 ], [ -71.485786, -33.130342 ], [ -71.486963, -33.129353 ], [ -71.486484, -33.129548 ] ] ], [ [ [ -71.478187, -33.131497 ], [ -71.478219, -33.131815 ], [ -71.478246, -33.131887 ], [ -71.478232, -33.131409 ], [ -71.478187, -33.131497 ] ] ], [ [ [ -71.479464, -33.134 ], [ -71.479734, -33.134824 ], [ -71.479957, -33.135731 ], [ -71.479926, -33.136395 ], [ -71.479582, -33.13805 ], [ -71.479575, -33.138711 ], [ -71.479841, -33.140565 ], [ -71.479795, -33.141061 ], [ -71.479712, -33.141234 ], [ -71.47873, -33.141658 ], [ -71.478434, -33.141824 ], [ -71.478042, -33.142317 ], [ -71.477759, -33.143423 ], [ -71.477724, -33.143414 ], [ -71.477704, -33.143488 ], [ -71.477583, -33.144701 ], [ -71.477329, -33.145361 ], [ -71.47645, -33.145902 ], [ -71.476069, -33.146204 ], [ -71.475202, -33.14717 ], [ -71.474794, -33.147898 ], [ -71.47438, -33.148364 ], [ -71.47216, -33.149652 ], [ -71.470863, -33.150561 ], [ -71.469733, -33.151892 ], [ -71.46924, -33.152327 ], [ -71.468714, -33.152992 ], [ -71.467914, -33.153597 ], [ -71.466751, -33.153751 ], [ -71.465718, -33.154361 ], [ -71.464614, -33.155233 ], [ -71.462988, -33.155527 ], [ -71.462039, -33.154957 ], [ -71.461649, -33.154932 ], [ -71.460801, -33.15521 ], [ -71.46023, -33.155647 ], [ -71.459616, -33.155954 ], [ -71.458764, -33.156101 ], [ -71.456965, -33.155744 ], [ -71.455818, -33.15508 ], [ -71.455103, -33.154538 ], [ -71.454279, -33.154292 ], [ -71.453699, -33.154434 ], [ -71.453132, -33.155002 ], [ -71.452477, -33.156651 ], [ -71.451984, -33.157508 ], [ -71.451136, -33.158494 ], [ -71.450684, -33.158833 ], [ -71.449904, -33.159123 ], [ -71.449207, -33.159243 ], [ -71.448281, -33.159483 ], [ -71.44749, -33.159768 ], [ -71.447061, -33.160114 ], [ -71.445474, -33.162157 ], [ -71.444869, -33.162752 ], [ -71.44433, -33.162972 ], [ -71.445096, -33.162995 ], [ -71.445654, -33.163101 ], [ -71.446394, -33.163086 ], [ -71.447174, -33.162876 ], [ -71.447761, -33.162359 ], [ -71.447841, -33.161891 ], [ -71.447678, -33.161038 ], [ -71.447709, -33.160492 ], [ -71.447842, -33.160256 ], [ -71.448759, -33.159966 ], [ -71.449683, -33.159948 ], [ -71.450191, -33.159899 ], [ -71.451155, -33.159646 ], [ -71.451524, -33.1596 ], [ -71.45278, -33.159011 ], [ -71.453143, -33.158771 ], [ -71.453594, -33.158334 ], [ -71.453855, -33.157745 ], [ -71.453825, -33.156656 ], [ -71.454118, -33.155561 ], [ -71.454755, -33.155198 ], [ -71.455357, -33.155225 ], [ -71.455547, -33.155377 ], [ -71.455741, -33.155723 ], [ -71.455945, -33.156381 ], [ -71.456459, -33.156565 ], [ -71.45725, -33.156744 ], [ -71.457945, -33.156769 ], [ -71.458822, -33.156713 ], [ -71.459286, -33.156782 ], [ -71.459569, -33.156971 ], [ -71.459894, -33.157003 ], [ -71.460262, -33.156918 ], [ -71.460441, -33.15672 ], [ -71.46121, -33.156082 ], [ -71.46148, -33.155805 ], [ -71.461844, -33.155603 ], [ -71.462216, -33.155673 ], [ -71.462407, -33.155903 ], [ -71.462644, -33.156093 ], [ -71.46302, -33.156319 ], [ -71.46344, -33.156427 ], [ -71.463901, -33.156379 ], [ -71.464217, -33.156101 ], [ -71.465173, -33.155537 ], [ -71.46563, -33.155333 ], [ -71.466043, -33.155247 ], [ -71.466406, -33.154968 ], [ -71.466629, -33.154691 ], [ -71.466905, -33.154647 ], [ -71.467599, -33.154633 ], [ -71.468149, -33.154466 ], [ -71.468742, -33.154143 ], [ -71.46924, -33.153783 ], [ -71.469894, -33.153167 ], [ -71.470528, -33.152688 ], [ -71.470748, -33.152294 ], [ -71.4712, -33.151896 ], [ -71.47151, -33.151423 ], [ -71.471823, -33.151028 ], [ -71.472322, -33.150707 ], [ -71.47278, -33.150542 ], [ -71.473191, -33.150339 ], [ -71.473823, -33.149782 ], [ -71.475316, -33.148585 ], [ -71.47572, -33.148149 ], [ -71.475987, -33.147794 ], [ -71.476351, -33.147553 ], [ -71.476716, -33.14739 ], [ -71.477639, -33.147333 ], [ -71.477912, -33.147172 ], [ -71.47813, -33.1467 ], [ -71.478111, -33.146 ], [ -71.478191, -33.145571 ], [ -71.478414, -33.145255 ], [ -71.478497, -33.144942 ], [ -71.478486, -33.144553 ], [ -71.47838, -33.14405 ], [ -71.478134, -33.143549 ], [ -71.477956, -33.142949 ], [ -71.478083, -33.142558 ], [ -71.478445, -33.142278 ], [ -71.478856, -33.142075 ], [ -71.479822, -33.1419 ], [ -71.480187, -33.141699 ], [ -71.480412, -33.1415 ], [ -71.480435, -33.140682 ], [ -71.480332, -33.140295 ], [ -71.480304, -33.139284 ], [ -71.480369, -33.13831 ], [ -71.480342, -33.135704 ], [ -71.480325, -33.13512 ], [ -71.480267, -33.134693 ], [ -71.479979, -33.13431 ], [ -71.479315, -33.13374 ], [ -71.478953, -33.133353 ], [ -71.479464, -33.134 ] ] ], [ [ [ -71.439626, -33.16244 ], [ -71.438867, -33.162396 ], [ -71.437735, -33.162403 ], [ -71.434798, -33.162519 ], [ -71.433666, -33.162502 ], [ -71.433188, -33.1624 ], [ -71.43168, -33.16233 ], [ -71.432659, -33.162441 ], [ -71.433172, -33.162587 ], [ -71.433822, -33.162652 ], [ -71.434427, -33.162796 ], [ -71.435454, -33.163126 ], [ -71.436007, -33.163037 ], [ -71.436374, -33.162952 ], [ -71.436649, -33.16283 ], [ -71.437155, -33.162742 ], [ -71.438886, -33.162611 ], [ -71.439441, -33.1626 ], [ -71.439929, -33.162508 ], [ -71.439626, -33.16244 ] ] ], [ [ [ -71.429292, -33.162898 ], [ -71.428014, -33.163433 ], [ -71.427262, -33.163648 ], [ -71.426587, -33.163925 ], [ -71.42573, -33.164498 ], [ -71.424742, -33.165251 ], [ -71.424115, -33.165896 ], [ -71.423631, -33.166183 ], [ -71.423095, -33.166397 ], [ -71.422499, -33.166544 ], [ -71.420815, -33.166626 ], [ -71.420186, -33.166748 ], [ -71.419572, -33.166976 ], [ -71.420987, -33.166949 ], [ -71.422238, -33.167041 ], [ -71.423116, -33.166985 ], [ -71.423805, -33.166816 ], [ -71.42435, -33.166455 ], [ -71.424757, -33.166097 ], [ -71.426604, -33.16431 ], [ -71.427744, -33.163704 ], [ -71.428934, -33.163214 ], [ -71.429292, -33.162898 ] ] ], [ [ [ -71.418298, -33.167575 ], [ -71.416868, -33.168489 ], [ -71.415183, -33.16984 ], [ -71.415627, -33.169718 ], [ -71.415949, -33.169673 ], [ -71.416407, -33.169509 ], [ -71.416773, -33.169346 ], [ -71.417137, -33.169105 ], [ -71.417542, -33.168708 ], [ -71.417628, -33.168473 ], [ -71.417871, -33.16806 ], [ -71.418184, -33.167665 ], [ -71.418298, -33.167575 ] ] ], [ [ [ -71.41413, -33.170836 ], [ -71.414028, -33.170984 ], [ -71.413944, -33.171291 ], [ -71.413842, -33.171498 ], [ -71.413745, -33.172133 ], [ -71.414017, -33.171773 ], [ -71.414193, -33.171419 ], [ -71.414364, -33.17061 ], [ -71.41413, -33.170836 ] ] ], [ [ [ -71.412655, -33.172793 ], [ -71.41201, -33.172733 ], [ -71.410483, -33.172435 ], [ -71.411128, -33.172685 ], [ -71.412197, -33.172859 ], [ -71.412655, -33.172793 ] ] ], [ [ [ -71.406405, -33.17234 ], [ -71.405899, -33.172431 ], [ -71.404633, -33.172859 ], [ -71.403073, -33.173606 ], [ -71.401805, -33.173966 ], [ -71.40124, -33.17393 ], [ -71.400425, -33.173761 ], [ -71.400054, -33.173757 ], [ -71.399575, -33.173859 ], [ -71.398229, -33.173873 ], [ -71.397812, -33.173819 ], [ -71.398, -33.17397 ], [ -71.398097, -33.174162 ], [ -71.398519, -33.174349 ], [ -71.398798, -33.174421 ], [ -71.399121, -33.174376 ], [ -71.399207, -33.174141 ], [ -71.39953, -33.174096 ], [ -71.399719, -33.174248 ], [ -71.400022, -33.174339 ], [ -71.401038, -33.174242 ], [ -71.402014, -33.174417 ], [ -71.402384, -33.17441 ], [ -71.402891, -33.174323 ], [ -71.403165, -33.174201 ], [ -71.404435, -33.173281 ], [ -71.404757, -33.173197 ], [ -71.405488, -33.172872 ], [ -71.405993, -33.172706 ], [ -71.406265, -33.172507 ], [ -71.406405, -33.17234 ] ] ], [ [ [ -71.396748, -33.173711 ], [ -71.395203, -33.173708 ], [ -71.394586, -33.173816 ], [ -71.394082, -33.17395 ], [ -71.393984, -33.174007 ], [ -71.394853, -33.173952 ], [ -71.395135, -33.174103 ], [ -71.395921, -33.174087 ], [ -71.39647, -33.173882 ], [ -71.396748, -33.173711 ] ] ], [ [ [ -71.392826, -33.175001 ], [ -71.392559, -33.175296 ], [ -71.391989, -33.176242 ], [ -71.391843, -33.176632 ], [ -71.391531, -33.177157 ], [ -71.391194, -33.178375 ], [ -71.391725, -33.17802 ], [ -71.392281, -33.176336 ], [ -71.392591, -33.175825 ], [ -71.392625, -33.175396 ], [ -71.392826, -33.175001 ] ] ], [ [ [ -71.390988, -33.179292 ], [ -71.390765, -33.179949 ], [ -71.390777, -33.179996 ], [ -71.390404, -33.180334 ], [ -71.390117, -33.18049 ], [ -71.38911, -33.180642 ], [ -71.388592, -33.180644 ], [ -71.388697, -33.180685 ], [ -71.388851, -33.181227 ], [ -71.389224, -33.181337 ], [ -71.389686, -33.181328 ], [ -71.390008, -33.181244 ], [ -71.390326, -33.181043 ], [ -71.390507, -33.180884 ], [ -71.39082, -33.180489 ], [ -71.390986, -33.179785 ], [ -71.390988, -33.179292 ] ] ], [ [ [ -71.386672, -33.180611 ], [ -71.386075, -33.180908 ], [ -71.385237, -33.181739 ], [ -71.38475, -33.18236 ], [ -71.384186, -33.183207 ], [ -71.383876, -33.183819 ], [ -71.384099, -33.183458 ], [ -71.384371, -33.183258 ], [ -71.384689, -33.183058 ], [ -71.385103, -33.182933 ], [ -71.38528, -33.182657 ], [ -71.385363, -33.182306 ], [ -71.385495, -33.182031 ], [ -71.385984, -33.181321 ], [ -71.386525, -33.180805 ], [ -71.386672, -33.180611 ] ] ], [ [ [ -71.383652, -33.184181 ], [ -71.383679, -33.184186 ], [ -71.383691, -33.184128 ], [ -71.383652, -33.184181 ] ] ], [ [ [ -71.383756, -33.185199 ], [ -71.383974, -33.185605 ], [ -71.385442, -33.187395 ], [ -71.386168, -33.188191 ], [ -71.386835, -33.189156 ], [ -71.388057, -33.191214 ], [ -71.38892, -33.191893 ], [ -71.388795, -33.191489 ], [ -71.388657, -33.191194 ], [ -71.387763, -33.190562 ], [ -71.387434, -33.190099 ], [ -71.386911, -33.188928 ], [ -71.386398, -33.188113 ], [ -71.38575, -33.187503 ], [ -71.384948, -33.186396 ], [ -71.384868, -33.186046 ], [ -71.384651, -33.185815 ], [ -71.38419, -33.185644 ], [ -71.383863, -33.185208 ], [ -71.383537, -33.184526 ], [ -71.383756, -33.185199 ] ] ], [ [ [ -71.390812, -33.19305 ], [ -71.391872, -33.193523 ], [ -71.392949, -33.194222 ], [ -71.393198, -33.194457 ], [ -71.392788, -33.193824 ], [ -71.392488, -33.193469 ], [ -71.39225, -33.193027 ], [ -71.39165, -33.192953 ], [ -71.391097, -33.192991 ], [ -71.390544, -33.192892 ], [ -71.390812, -33.19305 ] ] ], [ [ [ -71.394795, -33.197944 ], [ -71.395051, -33.198336 ], [ -71.395331, -33.198755 ], [ -71.395341, -33.198527 ], [ -71.394795, -33.197944 ] ] ], [ [ [ -71.396359, -33.201537 ], [ -71.396586, -33.202055 ], [ -71.396926, -33.202421 ], [ -71.397503, -33.2028 ], [ -71.397712, -33.2029 ], [ -71.398478, -33.203006 ], [ -71.399262, -33.203026 ], [ -71.400028, -33.202593 ], [ -71.399763, -33.202625 ], [ -71.398202, -33.202268 ], [ -71.397817, -33.201865 ], [ -71.39741, -33.201575 ], [ -71.396861, -33.2015 ], [ -71.396358, -33.201514 ], [ -71.396342, -33.201476 ], [ -71.396359, -33.201537 ] ] ] ] } },
{ "type": "Feature", "properties": { "objectid": 390, "st_area_sh": 108503722.546, "st_length_": 48751.7513932, "Nombre": "P.N.La Campana", "Tipo_Snasp": "Parque", "Region": "Región de Valparaíso", "Cod_Region": 5 }, "geometry": { "type": "Polygon", "coordinates": [ [ [ -71.118154, -32.951498 ], [ -71.111427, -32.948448 ], [ -71.111541, -32.943658 ], [ -71.114208, -32.9379 ], [ -71.116641, -32.93468 ], [ -71.117793, -32.929403 ], [ -71.11512, -32.926446 ], [ -71.110452, -32.92413 ], [ -71.108346, -32.92234 ], [ -71.105204, -32.91921 ], [ -71.101462, -32.915801 ], [ -71.09668, -32.912928 ], [ -71.080268, -32.928041 ], [ -71.053943, -32.925275 ], [ -71.034418, -32.936317 ], [ -71.017517, -32.946181 ], [ -71.007218, -32.951992 ], [ -71.008195, -32.952264 ], [ -71.010388, -32.953355 ], [ -71.011784, -32.954182 ], [ -71.012383, -32.954701 ], [ -71.012934, -32.955609 ], [ -71.012964, -32.956624 ], [ -71.012591, -32.958218 ], [ -71.01241, -32.958782 ], [ -71.012123, -32.960619 ], [ -71.012113, -32.961088 ], [ -71.01181, -32.961992 ], [ -71.011736, -32.963419 ], [ -71.011822, -32.964214 ], [ -71.012324, -32.965549 ], [ -71.013115, -32.966827 ], [ -71.014023, -32.968959 ], [ -71.01429, -32.969996 ], [ -71.014454, -32.970977 ], [ -71.014523, -32.971925 ], [ -71.014509, -32.972208 ], [ -71.01443, -32.972777 ], [ -71.01425, -32.973466 ], [ -71.013965, -32.973855 ], [ -71.014855, -32.973943 ], [ -71.016461, -32.974672 ], [ -71.017226, -32.975049 ], [ -71.017384, -32.97519 ], [ -71.017873, -32.975676 ], [ -71.018338, -32.976436 ], [ -71.018732, -32.976807 ], [ -71.018718, -32.976846 ], [ -71.019328, -32.97724 ], [ -71.019789, -32.977831 ], [ -71.02036, -32.978472 ], [ -71.020601, -32.97891 ], [ -71.020798, -32.97944 ], [ -71.021531, -32.97978 ], [ -71.022157, -32.980134 ], [ -71.0226, -32.980621 ], [ -71.022812, -32.981112 ], [ -71.022896, -32.981423 ], [ -71.023546, -32.982483 ], [ -71.023848, -32.983043 ], [ -71.024467, -32.983751 ], [ -71.026127, -32.98544 ], [ -71.026852, -32.98626 ], [ -71.026997, -32.986536 ], [ -71.028252, -32.986879 ], [ -71.029485, -32.986857 ], [ -71.030579, -32.986767 ], [ -71.033325, -32.986702 ], [ -71.034351, -32.986774 ], [ -71.035158, -32.987003 ], [ -71.035818, -32.987298 ], [ -71.036536, -32.98734 ], [ -71.037807, -32.987707 ], [ -71.038604, -32.987784 ], [ -71.039678, -32.987789 ], [ -71.041103, -32.98794 ], [ -71.043216, -32.988098 ], [ -71.043814, -32.988195 ], [ -71.045006, -32.988202 ], [ -71.045268, -32.988175 ], [ -71.046112, -32.987982 ], [ -71.047076, -32.987623 ], [ -71.04768, -32.987311 ], [ -71.049216, -32.986358 ], [ -71.050829, -32.985185 ], [ -71.051245, -32.985136 ], [ -71.051839, -32.984878 ], [ -71.05315, -32.984178 ], [ -71.053563, -32.983997 ], [ -71.05984, -32.985326 ], [ -71.065327, -32.989366 ], [ -71.070904, -32.992858 ], [ -71.078504, -32.995049 ], [ -71.084182, -32.997714 ], [ -71.084643, -33.003396 ], [ -71.087622, -33.007292 ], [ -71.092991, -33.010944 ], [ -71.095783, -33.01087 ], [ -71.100466, -33.007567 ], [ -71.104348, -33.005631 ], [ -71.108601, -33.004693 ], [ -71.11256, -33.006065 ], [ -71.117615, -33.007287 ], [ -71.122123, -33.008558 ], [ -71.125266, -32.999226 ], [ -71.123804, -32.994742 ], [ -71.124416, -32.991165 ], [ -71.126036, -32.986115 ], [ -71.125681, -32.982915 ], [ -71.1252, -32.975907 ], [ -71.134131, -32.97883 ], [ -71.142602, -32.981363 ], [ -71.132979, -32.962379 ], [ -71.132061, -32.961701 ], [ -71.131215, -32.961386 ], [ -71.12965, -32.961075 ], [ -71.128634, -32.960529 ], [ -71.128302, -32.960253 ], [ -71.127685, -32.959428 ], [ -71.12736, -32.958673 ], [ -71.126873, -32.956828 ], [ -71.126839, -32.9564 ], [ -71.126381, -32.955594 ], [ -71.125146, -32.954906 ], [ -71.124108, -32.954526 ], [ -71.123319, -32.95434 ], [ -71.120994, -32.953448 ], [ -71.120199, -32.953008 ], [ -71.118154, -32.951498 ] ] ] } }
]
}
