{
"type": "FeatureCollection",
"name": "barrios_limite_zona_urbana",
"crs": { "type": "name", "properties": { "name": "urn:ogc:def:crs:OGC:1.3:CRS84" } },
"xy_coordinate_resolution": 1e-06,
"features": [
{ "type": "Feature", "properties": { "Name": null, "descriptio": null, "timestamp": null, "begin": null, "end": null, "altitudeMo": null, "tessellate": -1, "extrude": 0, "visibility": -1, "drawOrder": null, "icon": null, "id": "0", "nombre": "LAS GRANJAS", "localidad": "Metropolitana", "pieza_urba": "Suroccidental 1" }, "geometry": { "type": "Polygon", "coordinates": [ [ [ -74.827612, 10.927939 ], [ -74.822489, 10.92554 ], [ -74.822548, 10.923163 ], [ -74.822528, 10.922449 ], [ -74.822745, 10.921863 ], [ -74.823093, 10.921252 ], [ -74.823548, 10.920416 ], [ -74.826039, 10.921108 ], [ -74.826736, 10.921252 ], [ -74.827426, 10.92138 ], [ -74.827643, 10.921431 ], [ -74.827875, 10.921486 ], [ -74.828778, 10.92175 ], [ -74.829031, 10.921799 ], [ -74.829345, 10.921831 ], [ -74.829271, 10.92219 ], [ -74.829116, 10.922652 ], [ -74.828966, 10.923203 ], [ -74.82879, 10.923551 ], [ -74.828593, 10.923874 ], [ -74.828456, 10.924129 ], [ -74.828416, 10.924224 ], [ -74.828392, 10.924321 ], [ -74.828248, 10.925262 ], [ -74.828439, 10.925331 ], [ -74.82852, 10.925383 ], [ -74.828593, 10.925457 ], [ -74.828707, 10.925632 ], [ -74.828459, 10.926077 ], [ -74.828282, 10.926298 ], [ -74.828099, 10.926487 ], [ -74.828007, 10.926631 ], [ -74.827968, 10.926797 ], [ -74.827974, 10.926911 ], [ -74.827612, 10.927939 ] ] ] } },
{ "type": "Feature", "properties": { "Name": null, "descriptio": null, "timestamp": null, "begin": null, "end": null, "altitudeMo": null, "tessellate": -1, "extrude": 0, "visibility": -1, "drawOrder": null, "icon": null, "id": "0", "nombre": "7 DE ABRIL", "localidad": "Metropolitana", "pieza_urba": "Suroccidental 1" }, "geometry": { "type": "Polygon", "coordinates": [ [ [ -74.818355, 10.932734 ], [ -74.81656, 10.932271 ], [ -74.815589, 10.932127 ], [ -74.814852, 10.931972 ], [ -74.814594, 10.931897 ], [ -74.814237, 10.931827 ], [ -74.813714, 10.931674 ], [ -74.813416, 10.931516 ], [ -74.813186, 10.931446 ], [ -74.813122, 10.931468 ], [ -74.812993, 10.931545 ], [ -74.812921, 10.93156 ], [ -74.81269, 10.931485 ], [ -74.81261, 10.931473 ], [ -74.81207, 10.931433 ], [ -74.811984, 10.931419 ], [ -74.81138, 10.931259 ], [ -74.810844, 10.931221 ], [ -74.810303, 10.931206 ], [ -74.809687, 10.9311 ], [ -74.809746, 10.931028 ], [ -74.810196, 10.929945 ], [ -74.810645, 10.928819 ], [ -74.810671, 10.92873 ], [ -74.81075, 10.928282 ], [ -74.810855, 10.927845 ], [ -74.811285, 10.926387 ], [ -74.811485, 10.925648 ], [ -74.811495, 10.925483 ], [ -74.811488, 10.925056 ], [ -74.811501, 10.924907 ], [ -74.811532, 10.924768 ], [ -74.811669, 10.9244 ], [ -74.811976, 10.923438 ], [ -74.812134, 10.922997 ], [ -74.81226, 10.922525 ], [ -74.814504, 10.922431 ], [ -74.815264, 10.922452 ], [ -74.816005, 10.922592 ], [ -74.816875, 10.922826 ], [ -74.817651, 10.923153 ], [ -74.818708, 10.923743 ], [ -74.819563, 10.924162 ], [ -74.823734, 10.926123 ], [ -74.823419, 10.926709 ], [ -74.822632, 10.928523 ], [ -74.822622, 10.928589 ], [ -74.822634, 10.929145 ], [ -74.822628, 10.929345 ], [ -74.822713, 10.930365 ], [ -74.822706, 10.930592 ], [ -74.822649, 10.930903 ], [ -74.822602, 10.931057 ], [ -74.822479, 10.93133 ], [ -74.822365, 10.931485 ], [ -74.820508, 10.930334 ], [ -74.819931, 10.930183 ], [ -74.819422, 10.929838 ], [ -74.818649, 10.930713 ], [ -74.818404, 10.930824 ], [ -74.81832, 10.930827 ], [ -74.818238, 10.931497 ], [ -74.818271, 10.931808 ], [ -74.818383, 10.931823 ], [ -74.818406, 10.932329 ], [ -74.818355, 10.932734 ] ] ] } },
{ "type": "Feature", "properties": { "Name": null, "descriptio": null, "timestamp": null, "begin": null, "end": null, "altitudeMo": null, "tessellate": -1, "extrude": 0, "visibility": -1, "drawOrder": null, "icon": null, "id": "0", "nombre": "20 DE JULIO", "localidad": "Metropolitana", "pieza_urba": "Suroccidental 1" }, "geometry": { "type": "Polygon", "coordinates": [ [ [ -74.827804, 10.933268 ], [ -74.827789, 10.932832 ], [ -74.827205, 10.932832 ], [ -74.827205, 10.931823 ], [ -74.827059, 10.93063 ], [ -74.827056, 10.930524 ], [ -74.826962, 10.930201 ], [ -74.826912, 10.930073 ], [ -74.826817, 10.929533 ], [ -74.826866, 10.929292 ], [ -74.826996, 10.928909 ], [ -74.827162, 10.928555 ], [ -74.827354, 10.928204 ], [ -74.827479, 10.928048 ], [ -74.827604, 10.92796 ], [ -74.827612, 10.927939 ], [ -74.829584, 10.928858 ], [ -74.831028, 10.929561 ], [ -74.831819, 10.93013 ], [ -74.832344, 10.930613 ], [ -74.832825, 10.931145 ], [ -74.83317, 10.931621 ], [ -74.833424, 10.932016 ], [ -74.833725, 10.932573 ], [ -74.833904, 10.932985 ], [ -74.834052, 10.933391 ], [ -74.834143, 10.933677 ], [ -74.834241, 10.934039 ], [ -74.834366, 10.934679 ], [ -74.83438, 10.934841 ], [ -74.833393, 10.934405 ], [ -74.832726, 10.933979 ], [ -74.83184, 10.933598 ], [ -74.830311, 10.933119 ], [ -74.830153, 10.933089 ], [ -74.829635, 10.933074 ], [ -74.828612, 10.933132 ], [ -74.82822, 10.933237 ], [ -74.827804, 10.933268 ] ] ] } },
{ "type": "Feature", "properties": { "Name": null, "descriptio": null, "timestamp": null, "begin": null, "end": null, "altitudeMo": null, "tessellate": -1, "extrude": 0, "visibility": -1, "drawOrder": null, "icon": null, "id": "0", "nombre": "VILLA SAN CARLOS", "localidad": "Metropolitana", "pieza_urba": "Suroccidental 1" }, "geometry": { "type": "Polygon", "coordinates": [ [ [ -74.827851, 10.934587 ], [ -74.827804, 10.933268 ], [ -74.82822, 10.933237 ], [ -74.828612, 10.933132 ], [ -74.829635, 10.933074 ], [ -74.830153, 10.933089 ], [ -74.830311, 10.933119 ], [ -74.83184, 10.933598 ], [ -74.832726, 10.933979 ], [ -74.833393, 10.934405 ], [ -74.83438, 10.934841 ], [ -74.834402, 10.935093 ], [ -74.834422, 10.935715 ], [ -74.834375, 10.93575 ], [ -74.834356, 10.935973 ], [ -74.833287, 10.935729 ], [ -74.833132, 10.93568 ], [ -74.831335, 10.935365 ], [ -74.831301, 10.935557 ], [ -74.830761, 10.93548 ], [ -74.830623, 10.936417 ], [ -74.8303, 10.93534 ], [ -74.829396, 10.935132 ], [ -74.829315, 10.934753 ], [ -74.82864, 10.93452 ], [ -74.828595, 10.934797 ], [ -74.827851, 10.934587 ] ] ] } },
{ "type": "Feature", "properties": { "Name": null, "descriptio": null, "timestamp": null, "begin": null, "end": null, "altitudeMo": null, "tessellate": -1, "extrude": 0, "visibility": -1, "drawOrder": null, "icon": null, "id": "0", "nombre": "SANTA MARIA", "localidad": "Metropolitana", "pieza_urba": "Suroccidental 1" }, "geometry": { "type": "Polygon", "coordinates": [ [ [ -74.825716, 10.936382 ], [ -74.824151, 10.936312 ], [ -74.824162, 10.935838 ], [ -74.824172, 10.935779 ], [ -74.823172, 10.935613 ], [ -74.822554, 10.935529 ], [ -74.822538, 10.935766 ], [ -74.821717, 10.935779 ], [ -74.821613, 10.935713 ], [ -74.820923, 10.93568 ], [ -74.820923, 10.935737 ], [ -74.819377, 10.935762 ], [ -74.819354, 10.933847 ], [ -74.819371, 10.933635 ], [ -74.818943, 10.933618 ], [ -74.818905, 10.932849 ], [ -74.818639, 10.932806 ], [ -74.818355, 10.932734 ], [ -74.818406, 10.932329 ], [ -74.818383, 10.931823 ], [ -74.818271, 10.931808 ], [ -74.818238, 10.931497 ], [ -74.81832, 10.930827 ], [ -74.818404, 10.930824 ], [ -74.818649, 10.930713 ], [ -74.819422, 10.929838 ], [ -74.819931, 10.930183 ], [ -74.820508, 10.930334 ], [ -74.822365, 10.931485 ], [ -74.822479, 10.93133 ], [ -74.822602, 10.931057 ], [ -74.822649, 10.930903 ], [ -74.822706, 10.930592 ], [ -74.822713, 10.930365 ], [ -74.822628, 10.929345 ], [ -74.822634, 10.929145 ], [ -74.822622, 10.928589 ], [ -74.822632, 10.928523 ], [ -74.823419, 10.926709 ], [ -74.823734, 10.926123 ], [ -74.827612, 10.927939 ], [ -74.827604, 10.92796 ], [ -74.827479, 10.928048 ], [ -74.827354, 10.928204 ], [ -74.827162, 10.928555 ], [ -74.826996, 10.928909 ], [ -74.826866, 10.929292 ], [ -74.826817, 10.929533 ], [ -74.826912, 10.930073 ], [ -74.826962, 10.930201 ], [ -74.827056, 10.930524 ], [ -74.827059, 10.93063 ], [ -74.827205, 10.931823 ], [ -74.827205, 10.932832 ], [ -74.827789, 10.932832 ], [ -74.827864, 10.934957 ], [ -74.827915, 10.93692 ], [ -74.827657, 10.93692 ], [ -74.82757, 10.936899 ], [ -74.827484, 10.936899 ], [ -74.827406, 10.936883 ], [ -74.826983, 10.936866 ], [ -74.82693, 10.93621 ], [ -74.826757, 10.936248 ], [ -74.826391, 10.93635 ], [ -74.826199, 10.936363 ], [ -74.825716, 10.936382 ] ] ] } },
{ "type": "Feature", "properties": { "Name": null, "descriptio": null, "timestamp": null, "begin": null, "end": null, "altitudeMo": null, "tessellate": -1, "extrude": 0, "visibility": -1, "drawOrder": null, "icon": null, "id": "0", "nombre": "VILLA SAN PEDRO II", "localidad": "Metropolitana", "pieza_urba": "Suroccidental 1" }, "geometry": { "type": "Polygon", "coordinates": [ [ [ -74.829568, 10.943598 ], [ -74.829694, 10.942948 ], [ -74.829899, 10.94229 ], [ -74.829963, 10.941983 ], [ -74.829708, 10.941949 ], [ -74.829798, 10.941187 ], [ -74.829982, 10.939826 ], [ -74.830336, 10.938045 ], [ -74.830623, 10.936417 ], [ -74.830761, 10.93548 ], [ -74.831301, 10.935557 ], [ -74.831335, 10.935365 ], [ -74.833132, 10.93568 ], [ -74.833287, 10.935729 ], [ -74.834356, 10.935973 ], [ -74.833913, 10.94012 ], [ -74.8339, 10.940159 ], [ -74.83385, 10.942083 ], [ -74.833726, 10.943318 ], [ -74.832316, 10.943197 ], [ -74.832027, 10.943191 ], [ -74.831661, 10.943205 ], [ -74.831343, 10.943244 ], [ -74.831041, 10.943317 ], [ -74.829568, 10.943598 ] ] ] } },
{ "type": "Feature", "properties": { "Name": null, "descriptio": null, "timestamp": null, "begin": null, "end": null, "altitudeMo": null, "tessellate": -1, "extrude": 0, "visibility": -1, "drawOrder": null, "icon": null, "id": "0", "nombre": "CORDIALIDAD", "localidad": "Suroccidente", "pieza_urba": "Suroccidental 2" }, "geometry": { "type": "Polygon", "coordinates": [ [ [ -74.82964, 10.947919 ], [ -74.829134, 10.947644 ], [ -74.828841, 10.9475 ], [ -74.828384, 10.947465 ], [ -74.828413, 10.945442 ], [ -74.829393, 10.945441 ], [ -74.829392, 10.94463 ], [ -74.829367, 10.944547 ], [ -74.829152, 10.944154 ], [ -74.828999, 10.94372 ], [ -74.829679, 10.943574 ], [ -74.831041, 10.943317 ], [ -74.831343, 10.943244 ], [ -74.831661, 10.943205 ], [ -74.832027, 10.943191 ], [ -74.832316, 10.943197 ], [ -74.833726, 10.943318 ], [ -74.833469, 10.945714 ], [ -74.833362, 10.945705 ], [ -74.833254, 10.945716 ], [ -74.832839, 10.945863 ], [ -74.83278, 10.94607 ], [ -74.832578, 10.946612 ], [ -74.832438, 10.947136 ], [ -74.832221, 10.947694 ], [ -74.831967, 10.948176 ], [ -74.831754, 10.948663 ], [ -74.831657, 10.948949 ], [ -74.831602, 10.949261 ], [ -74.830311, 10.948506 ], [ -74.829907, 10.948173 ], [ -74.82964, 10.947919 ] ] ] } },
{ "type": "Feature", "properties": { "Name": null, "descriptio": null, "timestamp": null, "begin": null, "end": null, "altitudeMo": null, "tessellate": -1, "extrude": 0, "visibility": -1, "drawOrder": null, "icon": null, "id": "0", "nombre": "LA GLORIA", "localidad": "Suroccidente", "pieza_urba": "Suroccidental 2" }, "geometry": { "type": "Polygon", "coordinates": [ [ [ -74.826545, 10.949054 ], [ -74.826699, 10.948971 ], [ -74.826863, 10.948913 ], [ -74.827158, 10.948858 ], [ -74.82749, 10.94877 ], [ -74.827752, 10.948597 ], [ -74.828342, 10.948545 ], [ -74.829508, 10.947847 ], [ -74.82964, 10.947919 ], [ -74.829907, 10.948173 ], [ -74.830311, 10.948506 ], [ -74.831602, 10.949261 ], [ -74.831442, 10.950441 ], [ -74.831451, 10.950508 ], [ -74.83148, 10.950574 ], [ -74.831521, 10.950638 ], [ -74.831583, 10.950705 ], [ -74.831317, 10.950994 ], [ -74.831256, 10.951015 ], [ -74.831198, 10.950941 ], [ -74.83112, 10.950897 ], [ -74.830871, 10.950878 ], [ -74.830782, 10.950861 ], [ -74.83064, 10.950793 ], [ -74.830528, 10.950703 ], [ -74.830429, 10.950592 ], [ -74.82976, 10.949592 ], [ -74.829664, 10.949513 ], [ -74.829552, 10.949458 ], [ -74.829434, 10.94943 ], [ -74.829307, 10.949429 ], [ -74.828462, 10.949657 ], [ -74.828327, 10.949675 ], [ -74.828189, 10.949669 ], [ -74.827989, 10.949611 ], [ -74.827131, 10.949196 ], [ -74.826967, 10.94914 ], [ -74.826748, 10.949083 ], [ -74.826545, 10.949054 ] ] ] } },
{ "type": "Feature", "properties": { "Name": null, "descriptio": null, "timestamp": null, "begin": null, "end": null, "altitudeMo": null, "tessellate": -1, "extrude": 0, "visibility": -1, "drawOrder": null, "icon": null, "id": "0", "nombre": "INDUSTRIAL NORTE", "localidad": "Riomar", "pieza_urba": "Ribera Occidental" }, "geometry": { "type": "Polygon", "coordinates": [ [ [ -74.824098, 11.041478 ], [ -74.823704, 11.042352 ], [ -74.823618, 11.042233 ], [ -74.823531, 11.042199 ], [ -74.823439, 11.04219 ], [ -74.823192, 11.042051 ], [ -74.823124, 11.041989 ], [ -74.822756, 11.041903 ], [ -74.822621, 11.041774 ], [ -74.822587, 11.041769 ], [ -74.822538, 11.041731 ], [ -74.822354, 11.041678 ], [ -74.82218, 11.041606 ], [ -74.822088, 11.041582 ], [ -74.821914, 11.041506 ], [ -74.821822, 11.041496 ], [ -74.82173, 11.041472 ], [ -74.821463, 11.041377 ], [ -74.821371, 11.041367 ], [ -74.821284, 11.041338 ], [ -74.821216, 11.041271 ], [ -74.820945, 11.041199 ], [ -74.820848, 11.041214 ], [ -74.820684, 11.041118 ], [ -74.820592, 11.041113 ], [ -74.820509, 11.041156 ], [ -74.820417, 11.041176 ], [ -74.82033, 11.041008 ], [ -74.820272, 11.040936 ], [ -74.820132, 11.040812 ], [ -74.820035, 11.040817 ], [ -74.819948, 11.040845 ], [ -74.819807, 11.040721 ], [ -74.81972, 11.04075 ], [ -74.819638, 11.040702 ], [ -74.819584, 11.040621 ], [ -74.819589, 11.04053 ], [ -74.819662, 11.040472 ], [ -74.819705, 11.040391 ], [ -74.819589, 11.040133 ], [ -74.81957, 11.040042 ], [ -74.819333, 11.039879 ], [ -74.819163, 11.039788 ], [ -74.818926, 11.03963 ], [ -74.818853, 11.039568 ], [ -74.81881, 11.039487 ], [ -74.818684, 11.039348 ], [ -74.818567, 11.0392 ], [ -74.81835, 11.039018 ], [ -74.8183, 11.0391 ], [ -74.817397, 11.038569 ], [ -74.817451, 11.038468 ], [ -74.817412, 11.038373 ], [ -74.817257, 11.038468 ], [ -74.817053, 11.038325 ], [ -74.817082, 11.038263 ], [ -74.816918, 11.038177 ], [ -74.816845, 11.038258 ], [ -74.81654, 11.038019 ], [ -74.816463, 11.038105 ], [ -74.815722, 11.037579 ], [ -74.815112, 11.037052 ], [ -74.81439, 11.036502 ], [ -74.814255, 11.036349 ], [ -74.814182, 11.036249 ], [ -74.813993, 11.036177 ], [ -74.813916, 11.036119 ], [ -74.813654, 11.036 ], [ -74.813567, 11.035971 ], [ -74.813247, 11.035775 ], [ -74.812981, 11.035679 ], [ -74.812812, 11.035593 ], [ -74.812376, 11.035421 ], [ -74.812211, 11.03533 ], [ -74.812061, 11.035205 ], [ -74.811892, 11.035124 ], [ -74.811659, 11.034966 ], [ -74.811407, 11.034837 ], [ -74.811359, 11.034756 ], [ -74.811267, 11.034746 ], [ -74.811185, 11.034703 ], [ -74.811034, 11.034588 ], [ -74.810947, 11.03456 ], [ -74.810941, 11.034573 ], [ -74.810909, 11.034536 ], [ -74.810831, 11.034483 ], [ -74.810565, 11.034354 ], [ -74.810473, 11.034296 ], [ -74.810298, 11.034225 ], [ -74.810129, 11.034134 ], [ -74.809872, 11.034024 ], [ -74.809703, 11.033938 ], [ -74.80965, 11.033861 ], [ -74.809635, 11.03377 ], [ -74.809543, 11.033751 ], [ -74.809475, 11.033689 ], [ -74.809291, 11.033636 ], [ -74.809223, 11.033569 ], [ -74.809049, 11.033507 ], [ -74.808957, 11.033507 ], [ -74.808793, 11.033416 ], [ -74.808725, 11.033354 ], [ -74.808633, 11.033335 ], [ -74.808376, 11.033215 ], [ -74.808289, 11.033186 ], [ -74.808207, 11.033143 ], [ -74.808144, 11.033076 ], [ -74.807897, 11.032942 ], [ -74.807805, 11.032914 ], [ -74.807645, 11.032804 ], [ -74.807553, 11.032785 ], [ -74.807519, 11.032811 ], [ -74.80749, 11.032775 ], [ -74.807466, 11.032684 ], [ -74.807374, 11.032665 ], [ -74.807204, 11.032579 ], [ -74.80704, 11.032478 ], [ -74.806817, 11.032311 ], [ -74.806773, 11.032225 ], [ -74.806618, 11.032119 ], [ -74.80643, 11.032105 ], [ -74.806338, 11.032076 ], [ -74.805752, 11.03178 ], [ -74.805519, 11.031622 ], [ -74.805263, 11.031502 ], [ -74.805175, 11.031474 ], [ -74.805103, 11.031416 ], [ -74.804938, 11.03132 ], [ -74.804754, 11.031253 ], [ -74.804681, 11.031191 ], [ -74.804522, 11.031091 ], [ -74.804352, 11.031005 ], [ -74.804207, 11.03089 ], [ -74.804037, 11.030804 ], [ -74.80397, 11.030742 ], [ -74.803863, 11.030679 ], [ -74.803771, 11.030646 ], [ -74.803694, 11.030593 ], [ -74.803636, 11.030521 ], [ -74.80336, 11.03044 ], [ -74.803277, 11.030397 ], [ -74.803209, 11.03033 ], [ -74.803132, 11.030277 ], [ -74.802885, 11.030139 ], [ -74.802745, 11.030014 ], [ -74.802691, 11.029938 ], [ -74.802619, 11.02988 ], [ -74.802444, 11.029823 ], [ -74.802362, 11.029775 ], [ -74.802275, 11.029742 ], [ -74.802149, 11.029608 ], [ -74.802346, 11.02939 ], [ -74.802598, 11.029135 ], [ -74.80284, 11.028918 ], [ -74.80216, 11.028319 ], [ -74.803326, 11.027401 ], [ -74.804129, 11.026684 ], [ -74.803925, 11.026456 ], [ -74.804072, 11.026327 ], [ -74.804541, 11.026158 ], [ -74.804789, 11.026091 ], [ -74.805038, 11.02604 ], [ -74.805421, 11.025996 ], [ -74.80581, 11.025911 ], [ -74.806334, 11.02573 ], [ -74.806789, 11.025496 ], [ -74.807179, 11.02536 ], [ -74.807627, 11.025253 ], [ -74.807883, 11.025238 ], [ -74.808267, 11.025262 ], [ -74.809075, 11.025427 ], [ -74.8093, 11.024274 ], [ -74.810797, 11.025902 ], [ -74.810898, 11.024509 ], [ -74.811433, 11.024584 ], [ -74.811928, 11.02487 ], [ -74.812731, 11.024648 ], [ -74.813283, 11.024523 ], [ -74.814655, 11.026291 ], [ -74.815107, 11.026809 ], [ -74.816186, 11.028179 ], [ -74.81788, 11.02898 ], [ -74.818267, 11.029139 ], [ -74.818678, 11.02929 ], [ -74.819041, 11.0294 ], [ -74.820108, 11.029635 ], [ -74.822991, 11.030128 ], [ -74.827423, 11.030655 ], [ -74.827762, 11.030709 ], [ -74.827875, 11.030743 ], [ -74.828057, 11.030822 ], [ -74.828619, 11.031173 ], [ -74.829015, 11.031441 ], [ -74.829786, 11.031916 ], [ -74.831164, 11.032673 ], [ -74.830387, 11.033816 ], [ -74.82974, 11.034591 ], [ -74.829347, 11.035028 ], [ -74.828975, 11.03542 ], [ -74.827461, 11.036906 ], [ -74.827271, 11.037103 ], [ -74.82718, 11.03723 ], [ -74.827108, 11.037368 ], [ -74.827036, 11.037606 ], [ -74.826946, 11.038252 ], [ -74.82692, 11.038561 ], [ -74.826928, 11.038646 ], [ -74.826987, 11.038755 ], [ -74.827086, 11.038832 ], [ -74.827125, 11.038848 ], [ -74.827181, 11.038846 ], [ -74.826654, 11.039019 ], [ -74.826365, 11.038534 ], [ -74.826279, 11.038314 ], [ -74.825761, 11.037363 ], [ -74.825477, 11.037 ], [ -74.825409, 11.036948 ], [ -74.823837, 11.038973 ], [ -74.823808, 11.039121 ], [ -74.82404, 11.039172 ], [ -74.824066, 11.039199 ], [ -74.823881, 11.039246 ], [ -74.823853, 11.03932 ], [ -74.824082, 11.040209 ], [ -74.824039, 11.040289 ], [ -74.824128, 11.040623 ], [ -74.82412, 11.040684 ], [ -74.824249, 11.04109 ], [ -74.824162, 11.04115 ], [ -74.82414, 11.041177 ], [ -74.824236, 11.041457 ], [ -74.824098, 11.041478 ] ] ] } },
{ "type": "Feature", "properties": { "Name": null, "descriptio": null, "timestamp": null, "begin": null, "end": null, "altitudeMo": null, "tessellate": -1, "extrude": 0, "visibility": -1, "drawOrder": null, "icon": null, "id": "0", "nombre": "SAN PEDRO ALEJANDRINO", "localidad": "Suroccidente", "pieza_urba": "Suroccidental 2" }, "geometry": { "type": "Polygon", "coordinates": [ [ [ -74.831583, 10.950705 ], [ -74.831521, 10.950638 ], [ -74.83148, 10.950574 ], [ -74.831451, 10.950508 ], [ -74.831442, 10.950441 ], [ -74.831602, 10.949261 ], [ -74.831657, 10.948949 ], [ -74.831754, 10.948663 ], [ -74.831967, 10.948176 ], [ -74.832221, 10.947694 ], [ -74.832438, 10.947136 ], [ -74.832578, 10.946612 ], [ -74.83278, 10.94607 ], [ -74.832839, 10.945863 ], [ -74.833254, 10.945716 ], [ -74.833362, 10.945705 ], [ -74.833469, 10.945714 ], [ -74.833415, 10.9466 ], [ -74.833423, 10.946875 ], [ -74.833454, 10.947181 ], [ -74.833609, 10.947998 ], [ -74.834007, 10.949431 ], [ -74.83471, 10.951829 ], [ -74.834449, 10.951795 ], [ -74.833534, 10.951482 ], [ -74.831694, 10.950771 ], [ -74.831583, 10.950705 ] ] ] } },
{ "type": "Feature", "properties": { "Name": null, "descriptio": null, "timestamp": null, "begin": null, "end": null, "altitudeMo": null, "tessellate": -1, "extrude": 0, "visibility": -1, "drawOrder": null, "icon": null, "id": "0", "nombre": "LAS MALVINAS", "localidad": "Suroccidente", "pieza_urba": "Suroccidental 2" }, "geometry": { "type": "Polygon", "coordinates": [ [ [ -74.829563, 10.956803 ], [ -74.829483, 10.95612 ], [ -74.829155, 10.956121 ], [ -74.829006, 10.956102 ], [ -74.828235, 10.955937 ], [ -74.82806, 10.955911 ], [ -74.827802, 10.95592 ], [ -74.827275, 10.956012 ], [ -74.827042, 10.95602 ], [ -74.826795, 10.956 ], [ -74.82679, 10.955637 ], [ -74.826776, 10.955597 ], [ -74.826774, 10.955396 ], [ -74.826797, 10.955128 ], [ -74.826812, 10.954623 ], [ -74.826814, 10.953991 ], [ -74.826797, 10.953825 ], [ -74.826806, 10.953575 ], [ -74.826849, 10.95319 ], [ -74.826908, 10.952815 ], [ -74.825964, 10.952749 ], [ -74.82507, 10.952602 ], [ -74.824979, 10.952596 ], [ -74.824149, 10.952316 ], [ -74.824154, 10.952217 ], [ -74.824178, 10.952211 ], [ -74.824141, 10.951863 ], [ -74.824148, 10.951585 ], [ -74.824095, 10.949999 ], [ -74.824054, 10.949542 ], [ -74.823982, 10.94902 ], [ -74.823909, 10.948598 ], [ -74.82391, 10.948521 ], [ -74.824242, 10.94842 ], [ -74.82428, 10.948493 ], [ -74.824324, 10.948515 ], [ -74.824536, 10.948457 ], [ -74.824652, 10.948452 ], [ -74.824769, 10.948469 ], [ -74.825153, 10.948614 ], [ -74.825273, 10.948674 ], [ -74.825655, 10.948916 ], [ -74.825784, 10.94898 ], [ -74.825994, 10.949032 ], [ -74.826302, 10.949057 ], [ -74.826545, 10.949054 ], [ -74.826744, 10.949083 ], [ -74.826964, 10.949139 ], [ -74.827136, 10.949199 ], [ -74.82799, 10.949612 ], [ -74.828187, 10.949669 ], [ -74.828327, 10.949675 ], [ -74.828462, 10.949657 ], [ -74.829307, 10.949429 ], [ -74.829434, 10.94943 ], [ -74.829551, 10.949457 ], [ -74.829664, 10.949513 ], [ -74.829757, 10.94959 ], [ -74.830429, 10.950592 ], [ -74.83058, 10.950747 ], [ -74.83071, 10.950831 ], [ -74.830782, 10.950861 ], [ -74.830871, 10.950878 ], [ -74.83112, 10.950897 ], [ -74.831198, 10.950941 ], [ -74.831256, 10.951015 ], [ -74.831317, 10.950994 ], [ -74.831583, 10.950705 ], [ -74.831694, 10.950771 ], [ -74.833534, 10.951482 ], [ -74.834449, 10.951795 ], [ -74.83471, 10.951829 ], [ -74.83497, 10.952735 ], [ -74.835094, 10.952962 ], [ -74.835421, 10.954065 ], [ -74.836068, 10.956334 ], [ -74.835577, 10.956493 ], [ -74.834733, 10.956732 ], [ -74.834078, 10.956978 ], [ -74.833258, 10.957318 ], [ -74.833048, 10.957368 ], [ -74.83283, 10.957381 ], [ -74.832453, 10.957428 ], [ -74.83219, 10.957446 ], [ -74.831986, 10.957079 ], [ -74.831872, 10.957001 ], [ -74.831761, 10.956965 ], [ -74.830874, 10.956887 ], [ -74.829563, 10.956803 ] ] ] } },
{ "type": "Feature", "properties": { "Name": null, "descriptio": null, "timestamp": null, "begin": null, "end": null, "altitudeMo": null, "tessellate": -1, "extrude": 0, "visibility": -1, "drawOrder": null, "icon": null, "id": "0", "nombre": "LOS ROSALES", "localidad": "Suroccidente", "pieza_urba": "Suroccidental 2" }, "geometry": { "type": "Polygon", "coordinates": [ [ [ -74.833273, 10.962183 ], [ -74.833081, 10.962123 ], [ -74.833491, 10.961088 ], [ -74.833574, 10.960793 ], [ -74.833049, 10.960328 ], [ -74.833019, 10.960282 ], [ -74.832913, 10.960231 ], [ -74.832173, 10.960011 ], [ -74.831512, 10.959821 ], [ -74.831345, 10.959788 ], [ -74.831181, 10.959798 ], [ -74.830254, 10.959981 ], [ -74.830172, 10.960024 ], [ -74.829827, 10.960308 ], [ -74.829593, 10.960067 ], [ -74.829557, 10.959946 ], [ -74.829487, 10.959782 ], [ -74.82945, 10.959797 ], [ -74.829255, 10.959275 ], [ -74.829192, 10.95906 ], [ -74.829128, 10.958747 ], [ -74.829185, 10.958739 ], [ -74.829201, 10.958613 ], [ -74.82929, 10.958396 ], [ -74.8294, 10.958268 ], [ -74.82943, 10.958211 ], [ -74.829471, 10.958062 ], [ -74.829469, 10.958015 ], [ -74.829438, 10.957894 ], [ -74.829638, 10.957833 ], [ -74.8296, 10.957513 ], [ -74.829607, 10.95745 ], [ -74.829563, 10.956803 ], [ -74.830874, 10.956887 ], [ -74.831761, 10.956965 ], [ -74.831872, 10.957001 ], [ -74.831986, 10.957079 ], [ -74.83219, 10.957446 ], [ -74.832453, 10.957428 ], [ -74.83283, 10.957381 ], [ -74.833048, 10.957368 ], [ -74.833258, 10.957318 ], [ -74.834078, 10.956978 ], [ -74.834733, 10.956732 ], [ -74.835577, 10.956493 ], [ -74.836068, 10.956334 ], [ -74.83652, 10.957884 ], [ -74.838043, 10.963346 ], [ -74.83823, 10.964301 ], [ -74.838255, 10.964501 ], [ -74.838074, 10.964514 ], [ -74.837915, 10.964454 ], [ -74.837635, 10.964292 ], [ -74.837331, 10.964083 ], [ -74.836976, 10.963881 ], [ -74.836462, 10.963546 ], [ -74.836284, 10.963408 ], [ -74.836011, 10.963252 ], [ -74.835299, 10.962884 ], [ -74.834903, 10.962626 ], [ -74.834492, 10.962402 ], [ -74.833273, 10.962183 ] ] ] } },
{ "type": "Feature", "properties": { "Name": null, "descriptio": null, "timestamp": null, "begin": null, "end": null, "altitudeMo": null, "tessellate": -1, "extrude": 0, "visibility": -1, "drawOrder": null, "icon": null, "id": "0", "nombre": "EL PUEBLO", "localidad": "Suroccidente", "pieza_urba": "Suroccidental 2" }, "geometry": { "type": "Polygon", "coordinates": [ [ [ -74.838287, 10.964682 ], [ -74.83823, 10.964301 ], [ -74.838043, 10.963346 ], [ -74.836848, 10.959053 ], [ -74.843055, 10.95798 ], [ -74.843728, 10.962318 ], [ -74.843139, 10.962415 ], [ -74.842935, 10.962373 ], [ -74.842762, 10.962297 ], [ -74.842581, 10.962238 ], [ -74.842365, 10.962193 ], [ -74.842145, 10.962173 ], [ -74.841924, 10.96218 ], [ -74.841705, 10.962211 ], [ -74.841387, 10.962306 ], [ -74.840338, 10.962805 ], [ -74.839736, 10.963215 ], [ -74.839208, 10.963716 ], [ -74.838287, 10.964682 ] ] ] } },
{ "type": "Feature", "properties": { "Name": null, "descriptio": null, "timestamp": null, "begin": null, "end": null, "altitudeMo": null, "tessellate": -1, "extrude": 0, "visibility": -1, "drawOrder": null, "icon": null, "id": "0", "nombre": "LOS ANGELES II", "localidad": "Suroccidente", "pieza_urba": "Suroccidental 2" }, "geometry": { "type": "Polygon", "coordinates": [ [ [ -74.841123, 10.969408 ], [ -74.841078, 10.969366 ], [ -74.840631, 10.968763 ], [ -74.839769, 10.967896 ], [ -74.839298, 10.967454 ], [ -74.838506, 10.966663 ], [ -74.838308, 10.966685 ], [ -74.838333, 10.965982 ], [ -74.838287, 10.964682 ], [ -74.838717, 10.964236 ], [ -74.838838, 10.964339 ], [ -74.838907, 10.964371 ], [ -74.839028, 10.964395 ], [ -74.839359, 10.964378 ], [ -74.839558, 10.96441 ], [ -74.840257, 10.964703 ], [ -74.840663, 10.964824 ], [ -74.841325, 10.964962 ], [ -74.841504, 10.964968 ], [ -74.841566, 10.964949 ], [ -74.841662, 10.964892 ], [ -74.841722, 10.964874 ], [ -74.841819, 10.964865 ], [ -74.841959, 10.964877 ], [ -74.842086, 10.964914 ], [ -74.842242, 10.965002 ], [ -74.842814, 10.965431 ], [ -74.842852, 10.965484 ], [ -74.843052, 10.965914 ], [ -74.843079, 10.965946 ], [ -74.843116, 10.965969 ], [ -74.843162, 10.965981 ], [ -74.843201, 10.965978 ], [ -74.84318, 10.966454 ], [ -74.843161, 10.96664 ], [ -74.843198, 10.967008 ], [ -74.84321, 10.967431 ], [ -74.843109, 10.967949 ], [ -74.843254, 10.968084 ], [ -74.843176, 10.96837 ], [ -74.843077, 10.96886 ], [ -74.843081, 10.969165 ], [ -74.843125, 10.969418 ], [ -74.842259, 10.969395 ], [ -74.841809, 10.96941 ], [ -74.841123, 10.969408 ] ] ] } },
{ "type": "Feature", "properties": { "Name": null, "descriptio": null, "timestamp": null, "begin": null, "end": null, "altitudeMo": null, "tessellate": -1, "extrude": 0, "visibility": -1, "drawOrder": null, "icon": null, "id": "0", "nombre": "LA PAZ", "localidad": "Suroccidente", "pieza_urba": "Suroccidental 2" }, "geometry": { "type": "Polygon", "coordinates": [ [ [ -74.830094, 10.970696 ], [ -74.830011, 10.970245 ], [ -74.829963, 10.969849 ], [ -74.829892, 10.969421 ], [ -74.829637, 10.968171 ], [ -74.829443, 10.967427 ], [ -74.829254, 10.966882 ], [ -74.829294, 10.966842 ], [ -74.829455, 10.966787 ], [ -74.829624, 10.966679 ], [ -74.829792, 10.966615 ], [ -74.829837, 10.96658 ], [ -74.830168, 10.965922 ], [ -74.830402, 10.965416 ], [ -74.830603, 10.965103 ], [ -74.830931, 10.964626 ], [ -74.831199, 10.964203 ], [ -74.831391, 10.963973 ], [ -74.832215, 10.963335 ], [ -74.83259, 10.963497 ], [ -74.832935, 10.962848 ], [ -74.833273, 10.962183 ], [ -74.834492, 10.962402 ], [ -74.834903, 10.962626 ], [ -74.835299, 10.962884 ], [ -74.836011, 10.963252 ], [ -74.836284, 10.963408 ], [ -74.836462, 10.963546 ], [ -74.836976, 10.963881 ], [ -74.837331, 10.964083 ], [ -74.837635, 10.964292 ], [ -74.837915, 10.964454 ], [ -74.838074, 10.964514 ], [ -74.838255, 10.964501 ], [ -74.838287, 10.964682 ], [ -74.838333, 10.965982 ], [ -74.838307, 10.966704 ], [ -74.838264, 10.96713 ], [ -74.838163, 10.967764 ], [ -74.838025, 10.968286 ], [ -74.836878, 10.967663 ], [ -74.836054, 10.968306 ], [ -74.835694, 10.968539 ], [ -74.835201, 10.9689 ], [ -74.834778, 10.969241 ], [ -74.834219, 10.969736 ], [ -74.833998, 10.969964 ], [ -74.833431, 10.970366 ], [ -74.832838, 10.970812 ], [ -74.832313, 10.971182 ], [ -74.831951, 10.971401 ], [ -74.831762, 10.97161 ], [ -74.83151, 10.971781 ], [ -74.831271, 10.971907 ], [ -74.830849, 10.972228 ], [ -74.830548, 10.972424 ], [ -74.830423, 10.972136 ], [ -74.830341, 10.971775 ], [ -74.830304, 10.971553 ], [ -74.830094, 10.970696 ] ] ] } },
{ "type": "Feature", "properties": { "Name": null, "descriptio": null, "timestamp": null, "begin": null, "end": null, "altitudeMo": null, "tessellate": -1, "extrude": 0, "visibility": -1, "drawOrder": null, "icon": null, "id": "0", "nombre": "LOS ANGELES I", "localidad": "Suroccidente", "pieza_urba": "Suroccidental 2" }, "geometry": { "type": "Polygon", "coordinates": [ [ [ -74.842559, 10.972871 ], [ -74.842334, 10.972668 ], [ -74.842252, 10.972556 ], [ -74.841724, 10.972034 ], [ -74.841545, 10.971879 ], [ -74.842658, 10.970863 ], [ -74.841123, 10.969408 ], [ -74.841809, 10.96941 ], [ -74.842259, 10.969395 ], [ -74.843125, 10.969418 ], [ -74.84317, 10.969551 ], [ -74.843288, 10.969773 ], [ -74.843468, 10.96999 ], [ -74.843735, 10.970277 ], [ -74.843932, 10.970466 ], [ -74.843754, 10.970621 ], [ -74.844106, 10.971059 ], [ -74.844293, 10.973479 ], [ -74.84447, 10.973604 ], [ -74.844017, 10.974095 ], [ -74.842559, 10.972871 ] ] ] } },
{ "type": "Feature", "properties": { "Name": null, "descriptio": null, "timestamp": null, "begin": null, "end": null, "altitudeMo": null, "tessellate": -1, "extrude": 0, "visibility": -1, "drawOrder": null, "icon": null, "id": "0", "nombre": "LOS OLIVOS I", "localidad": "Suroccidente", "pieza_urba": "Suroccidental 2" }, "geometry": { "type": "Polygon", "coordinates": [ [ [ -74.830548, 10.972424 ], [ -74.830849, 10.972228 ], [ -74.831271, 10.971907 ], [ -74.83151, 10.971781 ], [ -74.831762, 10.97161 ], [ -74.831951, 10.971401 ], [ -74.832313, 10.971182 ], [ -74.832838, 10.970812 ], [ -74.833431, 10.970366 ], [ -74.833998, 10.969964 ], [ -74.834219, 10.969736 ], [ -74.834778, 10.969241 ], [ -74.835201, 10.9689 ], [ -74.835694, 10.968539 ], [ -74.836054, 10.968306 ], [ -74.836878, 10.967663 ], [ -74.838025, 10.968286 ], [ -74.837276, 10.971135 ], [ -74.836307, 10.974523 ], [ -74.836257, 10.974562 ], [ -74.83535, 10.974868 ], [ -74.834096, 10.975314 ], [ -74.83336, 10.975548 ], [ -74.832199, 10.975951 ], [ -74.83196, 10.97532 ], [ -74.831742, 10.974853 ], [ -74.831462, 10.974291 ], [ -74.831374, 10.97407 ], [ -74.831134, 10.973647 ], [ -74.830909, 10.97317 ], [ -74.830865, 10.973043 ], [ -74.830678, 10.972693 ], [ -74.830548, 10.972424 ] ] ] } },
{ "type": "Feature", "properties": { "Name": null, "descriptio": null, "timestamp": null, "begin": null, "end": null, "altitudeMo": null, "tessellate": -1, "extrude": 0, "visibility": -1, "drawOrder": null, "icon": null, "id": "0", "nombre": "COLINA CAMPESTRE", "localidad": "Suroccidente", "pieza_urba": "Suroccidental 2" }, "geometry": { "type": "Polygon", "coordinates": [ [ [ -74.82907, 10.980015 ], [ -74.828632, 10.979586 ], [ -74.828376, 10.979367 ], [ -74.827809, 10.97884 ], [ -74.827751, 10.978867 ], [ -74.827827, 10.97883 ], [ -74.829209, 10.97822 ], [ -74.829524, 10.978118 ], [ -74.830258, 10.977944 ], [ -74.831306, 10.977744 ], [ -74.83201, 10.977634 ], [ -74.832979, 10.977505 ], [ -74.83312, 10.977475 ], [ -74.833237, 10.977427 ], [ -74.833398, 10.977328 ], [ -74.834467, 10.976531 ], [ -74.835143, 10.975984 ], [ -74.835305, 10.975883 ], [ -74.835474, 10.975806 ], [ -74.835741, 10.975735 ], [ -74.835936, 10.975719 ], [ -74.836171, 10.975742 ], [ -74.836109, 10.976406 ], [ -74.836047, 10.977431 ], [ -74.836032, 10.97844 ], [ -74.834213, 10.978401 ], [ -74.834225, 10.980008 ], [ -74.83374, 10.980004 ], [ -74.83222, 10.980449 ], [ -74.832268, 10.981052 ], [ -74.831391, 10.981217 ], [ -74.829542, 10.981433 ], [ -74.829208, 10.980288 ], [ -74.82907, 10.980015 ] ] ] } },
{ "type": "Feature", "properties": { "Name": null, "descriptio": null, "timestamp": null, "begin": null, "end": null, "altitudeMo": null, "tessellate": -1, "extrude": 0, "visibility": -1, "drawOrder": null, "icon": null, "id": "0", "nombre": "LA PRADERA", "localidad": "Suroccidente", "pieza_urba": "Suroccidental 2" }, "geometry": { "type": "Polygon", "coordinates": [ [ [ -74.836024, 10.979987 ], [ -74.836047, 10.977431 ], [ -74.836109, 10.976406 ], [ -74.836171, 10.975742 ], [ -74.836319, 10.975759 ], [ -74.836522, 10.975804 ], [ -74.836591, 10.975803 ], [ -74.836783, 10.975773 ], [ -74.837502, 10.975613 ], [ -74.837619, 10.97561 ], [ -74.837647, 10.975614 ], [ -74.837969, 10.975973 ], [ -74.838805, 10.975334 ], [ -74.83914, 10.975736 ], [ -74.840368, 10.975042 ], [ -74.840888, 10.975635 ], [ -74.841137, 10.975494 ], [ -74.841262, 10.975436 ], [ -74.841316, 10.975425 ], [ -74.841364, 10.975422 ], [ -74.841409, 10.975435 ], [ -74.841523, 10.97552 ], [ -74.841626, 10.975543 ], [ -74.841839, 10.975528 ], [ -74.842312, 10.975416 ], [ -74.8425, 10.975411 ], [ -74.842585, 10.975415 ], [ -74.843708, 10.97562 ], [ -74.844741, 10.975795 ], [ -74.844792, 10.975795 ], [ -74.84489, 10.975781 ], [ -74.845031, 10.975724 ], [ -74.845746, 10.975338 ], [ -74.846487, 10.975018 ], [ -74.847241, 10.975546 ], [ -74.84865, 10.976485 ], [ -74.850335, 10.975678 ], [ -74.8506, 10.975755 ], [ -74.850678, 10.975792 ], [ -74.850767, 10.975869 ], [ -74.850792, 10.975902 ], [ -74.850802, 10.975944 ], [ -74.850799, 10.975979 ], [ -74.850756, 10.976049 ], [ -74.850597, 10.976131 ], [ -74.850542, 10.97619 ], [ -74.850506, 10.976396 ], [ -74.8505, 10.976574 ], [ -74.850401, 10.976982 ], [ -74.850392, 10.977079 ], [ -74.850436, 10.97726 ], [ -74.850442, 10.977352 ], [ -74.850364, 10.977686 ], [ -74.850351, 10.977843 ], [ -74.850427, 10.978075 ], [ -74.85046, 10.978136 ], [ -74.846965, 10.979822 ], [ -74.846292, 10.980125 ], [ -74.837236, 10.982414 ], [ -74.836087, 10.982665 ], [ -74.836069, 10.980542 ], [ -74.836024, 10.979987 ] ] ] } },
{ "type": "Feature", "properties": { "Name": null, "descriptio": null, "timestamp": null, "begin": null, "end": null, "altitudeMo": null, "tessellate": -1, "extrude": 0, "visibility": -1, "drawOrder": null, "icon": null, "id": "0", "nombre": "LAS ESTRELLAS", "localidad": "Suroccidente", "pieza_urba": "Suroccidental 2" }, "geometry": { "type": "Polygon", "coordinates": [ [ [ -74.831336, 10.981224 ], [ -74.832268, 10.981052 ], [ -74.83222, 10.980449 ], [ -74.83374, 10.980004 ], [ -74.834225, 10.980008 ], [ -74.834213, 10.978401 ], [ -74.836032, 10.97844 ], [ -74.836024, 10.979987 ], [ -74.836069, 10.980542 ], [ -74.836087, 10.982665 ], [ -74.83295, 10.982929 ], [ -74.832717, 10.982974 ], [ -74.832549, 10.983035 ], [ -74.83246, 10.983079 ], [ -74.832347, 10.983155 ], [ -74.832253, 10.983234 ], [ -74.832131, 10.983363 ], [ -74.831908, 10.983678 ], [ -74.830673, 10.985256 ], [ -74.830585, 10.985218 ], [ -74.830548, 10.985177 ], [ -74.830365, 10.984502 ], [ -74.831126, 10.98364 ], [ -74.83141, 10.982483 ], [ -74.831334, 10.982334 ], [ -74.831306, 10.982255 ], [ -74.83127, 10.982092 ], [ -74.831263, 10.982008 ], [ -74.831264, 10.981925 ], [ -74.831336, 10.981224 ] ] ] } },
{ "type": "Feature", "properties": { "Name": null, "descriptio": null, "timestamp": null, "begin": null, "end": null, "altitudeMo": null, "tessellate": -1, "extrude": 0, "visibility": -1, "drawOrder": null, "icon": null, "id": "0", "nombre": "BERNARDO HOYOS", "localidad": "Suroccidente", "pieza_urba": "Suroccidental 2" }, "geometry": { "type": "Polygon", "coordinates": [ [ [ -74.840148, 10.9704 ], [ -74.840921, 10.96976 ], [ -74.841207, 10.969488 ], [ -74.842658, 10.970863 ], [ -74.841545, 10.971879 ], [ -74.840674, 10.97101 ], [ -74.840148, 10.9704 ] ] ] } },
{ "type": "Feature", "properties": { "Name": null, "descriptio": null, "timestamp": null, "begin": null, "end": null, "altitudeMo": null, "tessellate": -1, "extrude": 0, "visibility": -1, "drawOrder": null, "icon": null, "id": "0", "nombre": "VILLA SAN CARLOS II", "localidad": "Suroccidente", "pieza_urba": "Suroccidental 2" }, "geometry": { "type": "Polygon", "coordinates": [ [ [ -74.840631, 10.968763 ], [ -74.841078, 10.969366 ], [ -74.841207, 10.969488 ], [ -74.840921, 10.96976 ], [ -74.840148, 10.9704 ], [ -74.839479, 10.969626 ], [ -74.840631, 10.968763 ] ] ] } },
{ "type": "Feature", "properties": { "Name": null, "descriptio": null, "timestamp": null, "begin": null, "end": null, "altitudeMo": null, "tessellate": -1, "extrude": 0, "visibility": -1, "drawOrder": null, "icon": null, "id": "0", "nombre": "CAMPO ALEGRE", "localidad": "Norte - Centro Historico", "pieza_urba": "Riomar" }, "geometry": { "type": "Polygon", "coordinates": [ [ [ -74.829954, 10.992264 ], [ -74.829642, 10.991986 ], [ -74.829414, 10.991826 ], [ -74.829019, 10.991611 ], [ -74.828687, 10.991455 ], [ -74.828282, 10.991324 ], [ -74.827503, 10.991109 ], [ -74.826914, 10.990934 ], [ -74.826963, 10.990904 ], [ -74.827295, 10.990199 ], [ -74.826483, 10.989927 ], [ -74.826592, 10.989708 ], [ -74.826676, 10.989479 ], [ -74.826707, 10.989361 ], [ -74.82675, 10.989122 ], [ -74.826764, 10.988878 ], [ -74.826761, 10.988757 ], [ -74.826733, 10.988515 ], [ -74.826677, 10.988277 ], [ -74.826595, 10.988048 ], [ -74.82671, 10.988021 ], [ -74.826653, 10.987806 ], [ -74.826572, 10.987832 ], [ -74.826466, 10.987566 ], [ -74.826295, 10.987235 ], [ -74.825959, 10.98696 ], [ -74.826067, 10.986664 ], [ -74.826487, 10.986678 ], [ -74.826514, 10.986376 ], [ -74.825508, 10.98635 ], [ -74.824979, 10.986516 ], [ -74.824593, 10.984833 ], [ -74.826375, 10.98471 ], [ -74.826586, 10.984727 ], [ -74.826806, 10.984771 ], [ -74.826901, 10.984806 ], [ -74.827083, 10.984897 ], [ -74.827249, 10.985012 ], [ -74.827398, 10.985149 ], [ -74.827464, 10.985226 ], [ -74.82762, 10.985476 ], [ -74.827689, 10.985606 ], [ -74.827752, 10.98574 ], [ -74.827857, 10.986015 ], [ -74.827942, 10.986181 ], [ -74.828054, 10.986334 ], [ -74.828187, 10.986467 ], [ -74.828335, 10.986576 ], [ -74.828421, 10.986625 ], [ -74.828534, 10.986677 ], [ -74.828674, 10.986721 ], [ -74.82892, 10.98675 ], [ -74.829165, 10.986724 ], [ -74.829323, 10.986678 ], [ -74.829552, 10.986561 ], [ -74.829701, 10.986452 ], [ -74.829832, 10.986322 ], [ -74.831908, 10.983678 ], [ -74.832131, 10.983363 ], [ -74.832253, 10.983234 ], [ -74.832347, 10.983155 ], [ -74.83246, 10.983079 ], [ -74.832549, 10.983035 ], [ -74.832717, 10.982974 ], [ -74.83295, 10.982929 ], [ -74.836087, 10.982665 ], [ -74.836074, 10.984879 ], [ -74.836127, 10.985744 ], [ -74.836163, 10.986142 ], [ -74.836216, 10.986575 ], [ -74.836386, 10.987649 ], [ -74.836471, 10.988016 ], [ -74.836663, 10.98871 ], [ -74.836851, 10.989335 ], [ -74.836698, 10.989362 ], [ -74.8366, 10.989352 ], [ -74.836546, 10.989326 ], [ -74.836108, 10.989005 ], [ -74.83603, 10.988969 ], [ -74.835968, 10.988949 ], [ -74.835841, 10.988931 ], [ -74.835591, 10.988948 ], [ -74.835384, 10.988921 ], [ -74.835261, 10.988881 ], [ -74.835143, 10.988821 ], [ -74.834906, 10.988656 ], [ -74.834786, 10.988582 ], [ -74.834701, 10.988542 ], [ -74.834433, 10.988461 ], [ -74.834088, 10.988408 ], [ -74.833883, 10.988415 ], [ -74.833687, 10.988473 ], [ -74.833511, 10.988574 ], [ -74.833266, 10.988786 ], [ -74.833117, 10.988884 ], [ -74.832954, 10.988957 ], [ -74.832781, 10.989005 ], [ -74.832693, 10.989019 ], [ -74.832514, 10.989026 ], [ -74.832336, 10.989005 ], [ -74.832248, 10.988984 ], [ -74.83208, 10.988923 ], [ -74.831778, 10.988766 ], [ -74.831683, 10.990057 ], [ -74.831415, 10.991062 ], [ -74.831409, 10.991247 ], [ -74.831377, 10.991429 ], [ -74.831321, 10.991605 ], [ -74.83124, 10.991771 ], [ -74.831077, 10.991997 ], [ -74.830871, 10.992184 ], [ -74.830714, 10.992284 ], [ -74.830209, 10.992556 ], [ -74.830102, 10.992419 ], [ -74.829954, 10.992264 ] ] ] } },
{ "type": "Feature", "properties": { "Name": null, "descriptio": null, "timestamp": null, "begin": null, "end": null, "altitudeMo": null, "tessellate": -1, "extrude": 0, "visibility": -1, "drawOrder": null, "icon": null, "id": "0", "nombre": "VILLA SANTOS", "localidad": "Riomar", "pieza_urba": "Riomar" }, "geometry": { "type": "Polygon", "coordinates": [ [ [ -74.832046, 11.011908 ], [ -74.831661, 11.011757 ], [ -74.831152, 11.011601 ], [ -74.830717, 11.011517 ], [ -74.830001, 11.011438 ], [ -74.82936, 11.011324 ], [ -74.82892, 11.011188 ], [ -74.828634, 11.011066 ], [ -74.827506, 11.010525 ], [ -74.828181, 11.009389 ], [ -74.828552, 11.008723 ], [ -74.829971, 11.006041 ], [ -74.830207, 11.006146 ], [ -74.831088, 11.006594 ], [ -74.831731, 11.006934 ], [ -74.837207, 11.009861 ], [ -74.840228, 11.011489 ], [ -74.839491, 11.013325 ], [ -74.839263, 11.013985 ], [ -74.838551, 11.015715 ], [ -74.837365, 11.015218 ], [ -74.83694, 11.015017 ], [ -74.832927, 11.012375 ], [ -74.83258, 11.012169 ], [ -74.832046, 11.011908 ] ] ] } },
{ "type": "Feature", "properties": { "Name": null, "descriptio": null, "timestamp": null, "begin": null, "end": null, "altitudeMo": null, "tessellate": -1, "extrude": 0, "visibility": -1, "drawOrder": null, "icon": null, "id": "0", "nombre": "LAS FLORES", "localidad": "Riomar", "pieza_urba": "Ribera Occidental" }, "geometry": { "type": "Polygon", "coordinates": [ [ [ -74.823704, 11.042352 ], [ -74.824098, 11.041478 ], [ -74.824236, 11.041457 ], [ -74.82414, 11.041177 ], [ -74.824162, 11.04115 ], [ -74.824249, 11.04109 ], [ -74.82412, 11.040684 ], [ -74.824128, 11.040623 ], [ -74.824039, 11.040289 ], [ -74.824082, 11.040209 ], [ -74.823853, 11.03932 ], [ -74.823881, 11.039246 ], [ -74.824066, 11.039199 ], [ -74.82404, 11.039172 ], [ -74.823808, 11.039121 ], [ -74.823837, 11.038973 ], [ -74.825409, 11.036948 ], [ -74.825477, 11.037 ], [ -74.825761, 11.037363 ], [ -74.826279, 11.038314 ], [ -74.826365, 11.038534 ], [ -74.826654, 11.039019 ], [ -74.827219, 11.038834 ], [ -74.827531, 11.038699 ], [ -74.827705, 11.038621 ], [ -74.828404, 11.038254 ], [ -74.828569, 11.038565 ], [ -74.828747, 11.038854 ], [ -74.828972, 11.039308 ], [ -74.829071, 11.039414 ], [ -74.829367, 11.039682 ], [ -74.829732, 11.040206 ], [ -74.830034, 11.040451 ], [ -74.830152, 11.040527 ], [ -74.830197, 11.040542 ], [ -74.830823, 11.040634 ], [ -74.830882, 11.040773 ], [ -74.830874, 11.040917 ], [ -74.830922, 11.041061 ], [ -74.830904, 11.041243 ], [ -74.830938, 11.041358 ], [ -74.83089, 11.041406 ], [ -74.830759, 11.041497 ], [ -74.830707, 11.041503 ], [ -74.830598, 11.041423 ], [ -74.830598, 11.041281 ], [ -74.830499, 11.04119 ], [ -74.830415, 11.041149 ], [ -74.830274, 11.04114 ], [ -74.830165, 11.0412 ], [ -74.83004, 11.041169 ], [ -74.829971, 11.041182 ], [ -74.829878, 11.041312 ], [ -74.829807, 11.041474 ], [ -74.829796, 11.041553 ], [ -74.830079, 11.04191 ], [ -74.83035, 11.042021 ], [ -74.8306, 11.042316 ], [ -74.831293, 11.042948 ], [ -74.831527, 11.043042 ], [ -74.831581, 11.043243 ], [ -74.831761, 11.043465 ], [ -74.831675, 11.043617 ], [ -74.831954, 11.043768 ], [ -74.83211, 11.04392 ], [ -74.832171, 11.044134 ], [ -74.832155, 11.044248 ], [ -74.832028, 11.044347 ], [ -74.831831, 11.044347 ], [ -74.831716, 11.04433 ], [ -74.831675, 11.044371 ], [ -74.8317, 11.044462 ], [ -74.83156, 11.044572 ], [ -74.831556, 11.044646 ], [ -74.831409, 11.044669 ], [ -74.831326, 11.044749 ], [ -74.831162, 11.044675 ], [ -74.831002, 11.044544 ], [ -74.830719, 11.044474 ], [ -74.8306, 11.04433 ], [ -74.830469, 11.044285 ], [ -74.830403, 11.044384 ], [ -74.830457, 11.044523 ], [ -74.830637, 11.044581 ], [ -74.830793, 11.044655 ], [ -74.830752, 11.044913 ], [ -74.830819, 11.045192 ], [ -74.830831, 11.045286 ], [ -74.830757, 11.045344 ], [ -74.830636, 11.045413 ], [ -74.830652, 11.045443 ], [ -74.83071, 11.045451 ], [ -74.83079, 11.045513 ], [ -74.830812, 11.045584 ], [ -74.830789, 11.045683 ], [ -74.830741, 11.045787 ], [ -74.830598, 11.045835 ], [ -74.830366, 11.046072 ], [ -74.82995, 11.046357 ], [ -74.829823, 11.046472 ], [ -74.830783, 11.047466 ], [ -74.831054, 11.047717 ], [ -74.83091, 11.047872 ], [ -74.830594, 11.047655 ], [ -74.830311, 11.047417 ], [ -74.830081, 11.047183 ], [ -74.829683, 11.046724 ], [ -74.829437, 11.046457 ], [ -74.827642, 11.044964 ], [ -74.827613, 11.044907 ], [ -74.827473, 11.044807 ], [ -74.826591, 11.04424 ], [ -74.825454, 11.043658 ], [ -74.825104, 11.043481 ], [ -74.824337, 11.04317 ], [ -74.823494, 11.042794 ], [ -74.823704, 11.042352 ] ] ] } },
{ "type": "Feature", "properties": { "Name": null, "descriptio": null, "timestamp": null, "begin": null, "end": null, "altitudeMo": null, "tessellate": -1, "extrude": 0, "visibility": -1, "drawOrder": null, "icon": null, "id": "0", "nombre": "LOS OLIVOS II", "localidad": "Suroccidente", "pieza_urba": "Suroccidental 2" }, "geometry": { "type": "Polygon", "coordinates": [ [ [ -74.836171, 10.975742 ], [ -74.836307, 10.974523 ], [ -74.837276, 10.971135 ], [ -74.838163, 10.967764 ], [ -74.838264, 10.96713 ], [ -74.838308, 10.966685 ], [ -74.838506, 10.966663 ], [ -74.839298, 10.967454 ], [ -74.839769, 10.967896 ], [ -74.840631, 10.968763 ], [ -74.839479, 10.969626 ], [ -74.840674, 10.97101 ], [ -74.841544, 10.971878 ], [ -74.841724, 10.972034 ], [ -74.842252, 10.972556 ], [ -74.842334, 10.972668 ], [ -74.842559, 10.972871 ], [ -74.841476, 10.974094 ], [ -74.840368, 10.975042 ], [ -74.83914, 10.975736 ], [ -74.838805, 10.975334 ], [ -74.837969, 10.975973 ], [ -74.837647, 10.975614 ], [ -74.837619, 10.97561 ], [ -74.837502, 10.975613 ], [ -74.836783, 10.975773 ], [ -74.836591, 10.975803 ], [ -74.836522, 10.975804 ], [ -74.836319, 10.975759 ], [ -74.836171, 10.975742 ] ] ] } },
{ "type": "Feature", "properties": { "Name": null, "descriptio": null, "timestamp": null, "begin": null, "end": null, "altitudeMo": null, "tessellate": -1, "extrude": 0, "visibility": -1, "drawOrder": null, "icon": null, "id": "0", "nombre": null, "localidad": "Riomar", "pieza_urba": "Riomar" }, "geometry": { "type": "Polygon", "coordinates": [ [ [ -74.820011, 11.022245 ], [ -74.820188, 11.021918 ], [ -74.820981, 11.020553 ], [ -74.821321, 11.020121 ], [ -74.821484, 11.019966 ], [ -74.822234, 11.020125 ], [ -74.822888, 11.020278 ], [ -74.823661, 11.020641 ], [ -74.826209, 11.021983 ], [ -74.826492, 11.021799 ], [ -74.82667, 11.021661 ], [ -74.826917, 11.021432 ], [ -74.827069, 11.021266 ], [ -74.827208, 11.021091 ], [ -74.827393, 11.02081 ], [ -74.827549, 11.020513 ], [ -74.827672, 11.020201 ], [ -74.828026, 11.01978 ], [ -74.828394, 11.019371 ], [ -74.828777, 11.018976 ], [ -74.829174, 11.018594 ], [ -74.829576, 11.018247 ], [ -74.829862, 11.018038 ], [ -74.830021, 11.017862 ], [ -74.830203, 11.017605 ], [ -74.830315, 11.017398 ], [ -74.830378, 11.017254 ], [ -74.830432, 11.017106 ], [ -74.830492, 11.016878 ], [ -74.830544, 11.016524 ], [ -74.830593, 11.016528 ], [ -74.830655, 11.016512 ], [ -74.836639, 11.020486 ], [ -74.836227, 11.021421 ], [ -74.835881, 11.022318 ], [ -74.834965, 11.024514 ], [ -74.834584, 11.025497 ], [ -74.834008, 11.026916 ], [ -74.833567, 11.028037 ], [ -74.833054, 11.029266 ], [ -74.832693, 11.03002 ], [ -74.832256, 11.030847 ], [ -74.831913, 11.031534 ], [ -74.831641, 11.031973 ], [ -74.831164, 11.032673 ], [ -74.829786, 11.031916 ], [ -74.829015, 11.031441 ], [ -74.828619, 11.031173 ], [ -74.828057, 11.030822 ], [ -74.827875, 11.030743 ], [ -74.827762, 11.030709 ], [ -74.827423, 11.030655 ], [ -74.822991, 11.030128 ], [ -74.820108, 11.029635 ], [ -74.819411, 11.029487 ], [ -74.819041, 11.0294 ], [ -74.818678, 11.02929 ], [ -74.818267, 11.029139 ], [ -74.81788, 11.02898 ], [ -74.816186, 11.028179 ], [ -74.815892, 11.027806 ], [ -74.816025, 11.027716 ], [ -74.816239, 11.027622 ], [ -74.816998, 11.027424 ], [ -74.817161, 11.027334 ], [ -74.81725, 11.027249 ], [ -74.818279, 11.025428 ], [ -74.818514, 11.024978 ], [ -74.818905, 11.024289 ], [ -74.819197, 11.023747 ], [ -74.819826, 11.02255 ], [ -74.820011, 11.022245 ] ] ] } },
{ "type": "Feature", "properties": { "Name": null, "descriptio": null, "timestamp": null, "begin": null, "end": null, "altitudeMo": null, "tessellate": -1, "extrude": 0, "visibility": -1, "drawOrder": null, "icon": null, "id": "0", "nombre": "EL GOLFO", "localidad": "Suroccidente", "pieza_urba": "Suroccidental 2" }, "geometry": { "type": "Polygon", "coordinates": [ [ [ -74.840368, 10.975042 ], [ -74.841476, 10.974094 ], [ -74.842559, 10.972871 ], [ -74.844017, 10.974095 ], [ -74.84447, 10.973604 ], [ -74.846487, 10.975018 ], [ -74.845746, 10.975338 ], [ -74.845031, 10.975724 ], [ -74.84489, 10.975781 ], [ -74.844792, 10.975795 ], [ -74.844741, 10.975795 ], [ -74.843708, 10.97562 ], [ -74.842585, 10.975415 ], [ -74.8425, 10.975411 ], [ -74.842312, 10.975416 ], [ -74.841839, 10.975528 ], [ -74.841626, 10.975543 ], [ -74.841523, 10.97552 ], [ -74.841409, 10.975435 ], [ -74.841364, 10.975422 ], [ -74.841316, 10.975425 ], [ -74.841262, 10.975436 ], [ -74.841137, 10.975494 ], [ -74.840888, 10.975635 ], [ -74.840368, 10.975042 ] ] ] } },
{ "type": "Feature", "properties": { "Name": null, "descriptio": null, "timestamp": null, "begin": null, "end": null, "altitudeMo": null, "tessellate": -1, "extrude": 0, "visibility": -1, "drawOrder": null, "icon": null, "id": "0", "nombre": "LOS ANGELES III", "localidad": "Suroccidente", "pieza_urba": "Suroccidental 2" }, "geometry": { "type": "Polygon", "coordinates": [ [ [ -74.838717, 10.964236 ], [ -74.839208, 10.963716 ], [ -74.839736, 10.963215 ], [ -74.840338, 10.962805 ], [ -74.841387, 10.962306 ], [ -74.841705, 10.962211 ], [ -74.841924, 10.96218 ], [ -74.842145, 10.962173 ], [ -74.842365, 10.962193 ], [ -74.842581, 10.962238 ], [ -74.842762, 10.962297 ], [ -74.842935, 10.962373 ], [ -74.843139, 10.962415 ], [ -74.843418, 10.962369 ], [ -74.843201, 10.965978 ], [ -74.843162, 10.965981 ], [ -74.843116, 10.965969 ], [ -74.843079, 10.965946 ], [ -74.843052, 10.965914 ], [ -74.842852, 10.965484 ], [ -74.842814, 10.965431 ], [ -74.842242, 10.965002 ], [ -74.842086, 10.964914 ], [ -74.841959, 10.964877 ], [ -74.841819, 10.964865 ], [ -74.841722, 10.964874 ], [ -74.841662, 10.964892 ], [ -74.841566, 10.964949 ], [ -74.841504, 10.964968 ], [ -74.841325, 10.964962 ], [ -74.840663, 10.964824 ], [ -74.840257, 10.964703 ], [ -74.839558, 10.96441 ], [ -74.839359, 10.964378 ], [ -74.839028, 10.964395 ], [ -74.838907, 10.964371 ], [ -74.838838, 10.964339 ], [ -74.838717, 10.964236 ] ] ] } },
{ "type": "Feature", "properties": { "Name": null, "descriptio": null, "timestamp": null, "begin": null, "end": null, "altitudeMo": null, "tessellate": -1, "extrude": 0, "visibility": -1, "drawOrder": null, "icon": null, "id": "0", "nombre": "EL EDEN I", "localidad": "Suroccidente", "pieza_urba": "Suroccidental 2" }, "geometry": { "type": "Polygon", "coordinates": [ [ [ -74.831233, 10.976278 ], [ -74.832848, 10.975731 ], [ -74.83336, 10.975548 ], [ -74.834096, 10.975314 ], [ -74.83535, 10.974868 ], [ -74.836257, 10.974562 ], [ -74.836307, 10.974523 ], [ -74.836171, 10.975742 ], [ -74.835936, 10.975719 ], [ -74.835741, 10.975735 ], [ -74.835474, 10.975806 ], [ -74.835305, 10.975883 ], [ -74.835143, 10.975984 ], [ -74.834467, 10.976531 ], [ -74.833398, 10.977328 ], [ -74.833237, 10.977427 ], [ -74.83312, 10.977475 ], [ -74.832979, 10.977505 ], [ -74.831716, 10.97768 ], [ -74.831233, 10.976278 ] ] ] } },
{ "type": "Feature", "properties": { "Name": null, "descriptio": null, "timestamp": null, "begin": null, "end": null, "altitudeMo": null, "tessellate": -1, "extrude": 0, "visibility": -1, "drawOrder": null, "icon": null, "id": "0", "nombre": null, "localidad": null, "pieza_urba": null }, "geometry": { "type": "Polygon", "coordinates": [ [ [ -74.836078, 10.984955 ], [ -74.836087, 10.982665 ], [ -74.837236, 10.982414 ], [ -74.846292, 10.980125 ], [ -74.846965, 10.979822 ], [ -74.85046, 10.978136 ], [ -74.850427, 10.978075 ], [ -74.850351, 10.977843 ], [ -74.850364, 10.977686 ], [ -74.850442, 10.977352 ], [ -74.850436, 10.97726 ], [ -74.850392, 10.977079 ], [ -74.850401, 10.976982 ], [ -74.8505, 10.976574 ], [ -74.850506, 10.976396 ], [ -74.850542, 10.97619 ], [ -74.850597, 10.976131 ], [ -74.850756, 10.976049 ], [ -74.850799, 10.975979 ], [ -74.850802, 10.975944 ], [ -74.850792, 10.975902 ], [ -74.850767, 10.975869 ], [ -74.850678, 10.975792 ], [ -74.8506, 10.975755 ], [ -74.850335, 10.975678 ], [ -74.867953, 10.967211 ], [ -74.87176, 10.965355 ], [ -74.885706, 10.958647 ], [ -74.890062, 10.95653 ], [ -74.890046, 10.956619 ], [ -74.889889, 10.956704 ], [ -74.889762, 10.9568 ], [ -74.889544, 10.957131 ], [ -74.889452, 10.957336 ], [ -74.889437, 10.957472 ], [ -74.889523, 10.957582 ], [ -74.889859, 10.957637 ], [ -74.88997, 10.957733 ], [ -74.890057, 10.957823 ], [ -74.890163, 10.957968 ], [ -74.890194, 10.958209 ], [ -74.890158, 10.958324 ], [ -74.890031, 10.958365 ], [ -74.889864, 10.95836 ], [ -74.889691, 10.95838 ], [ -74.889615, 10.958455 ], [ -74.889549, 10.958575 ], [ -74.889554, 10.958641 ], [ -74.889635, 10.958766 ], [ -74.889635, 10.958841 ], [ -74.889595, 10.958972 ], [ -74.889539, 10.959067 ], [ -74.889458, 10.959157 ], [ -74.889468, 10.959222 ], [ -74.889529, 10.959353 ], [ -74.889775, 10.959211 ], [ -74.896937, 10.955732 ], [ -74.896163, 10.95482 ], [ -74.895933, 10.954173 ], [ -74.895988, 10.954057 ], [ -74.896018, 10.953933 ], [ -74.896021, 10.953805 ], [ -74.895987, 10.95365 ], [ -74.90349, 10.950004 ], [ -74.905119, 10.950098 ], [ -74.905278, 10.95035 ], [ -74.905359, 10.950537 ], [ -74.905251, 10.950734 ], [ -74.90497, 10.950787 ], [ -74.904835, 10.95093 ], [ -74.904772, 10.951073 ], [ -74.904745, 10.951261 ], [ -74.904564, 10.95135 ], [ -74.904455, 10.95118 ], [ -74.904428, 10.950975 ], [ -74.904428, 10.95077 ], [ -74.904347, 10.950636 ], [ -74.904094, 10.950636 ], [ -74.904103, 10.95077 ], [ -74.90413, 10.950921 ], [ -74.903886, 10.951047 ], [ -74.903768, 10.951154 ], [ -74.903678, 10.951288 ], [ -74.903642, 10.951386 ], [ -74.903633, 10.951511 ], [ -74.903687, 10.951699 ], [ -74.903841, 10.951824 ], [ -74.903796, 10.952065 ], [ -74.903696, 10.952154 ], [ -74.903498, 10.952208 ], [ -74.903254, 10.952243 ], [ -74.90319, 10.95236 ], [ -74.903037, 10.952565 ], [ -74.902775, 10.952601 ], [ -74.902567, 10.952672 ], [ -74.902512, 10.952762 ], [ -74.902612, 10.952958 ], [ -74.90291, 10.953315 ], [ -74.903019, 10.953485 ], [ -74.903136, 10.953708 ], [ -74.903227, 10.953914 ], [ -74.903353, 10.95411 ], [ -74.903426, 10.954289 ], [ -74.903444, 10.954458 ], [ -74.903435, 10.95461 ], [ -74.903227, 10.954905 ], [ -74.903073, 10.955021 ], [ -74.902893, 10.955039 ], [ -74.902576, 10.954959 ], [ -74.902396, 10.955004 ], [ -74.902314, 10.95512 ], [ -74.902341, 10.955254 ], [ -74.902397, 10.955428 ], [ -74.902379, 10.955581 ], [ -74.887721, 10.962705 ], [ -74.873767, 10.969417 ], [ -74.869586, 10.971455 ], [ -74.850405, 10.980667 ], [ -74.848331, 10.981676 ], [ -74.847302, 10.982152 ], [ -74.847067, 10.982246 ], [ -74.846904, 10.982294 ], [ -74.836664, 10.984882 ], [ -74.836383, 10.984936 ], [ -74.836078, 10.984955 ] ] ] } },
{ "type": "Feature", "properties": { "Name": null, "descriptio": null, "timestamp": null, "begin": null, "end": null, "altitudeMo": null, "tessellate": -1, "extrude": 0, "visibility": -1, "drawOrder": null, "icon": null, "id": "0", "nombre": null, "localidad": null, "pieza_urba": null }, "geometry": { "type": "Polygon", "coordinates": [ [ [ -74.83497, 10.952735 ], [ -74.834007, 10.949431 ], [ -74.833659, 10.948196 ], [ -74.833609, 10.947998 ], [ -74.833454, 10.947181 ], [ -74.833423, 10.946875 ], [ -74.833415, 10.9466 ], [ -74.833469, 10.945714 ], [ -74.833759, 10.943018 ], [ -74.83385, 10.942083 ], [ -74.833878, 10.94108 ], [ -74.83822, 10.941448 ], [ -74.838403, 10.941452 ], [ -74.838841, 10.941337 ], [ -74.840412, 10.940873 ], [ -74.841058, 10.940701 ], [ -74.84203, 10.940394 ], [ -74.842206, 10.940317 ], [ -74.843394, 10.939725 ], [ -74.845657, 10.938568 ], [ -74.846158, 10.938302 ], [ -74.846976, 10.937782 ], [ -74.847932, 10.937156 ], [ -74.848851, 10.936704 ], [ -74.848991, 10.936652 ], [ -74.849255, 10.936581 ], [ -74.849641, 10.937454 ], [ -74.850003, 10.938747 ], [ -74.851363, 10.938649 ], [ -74.85214, 10.938606 ], [ -74.852635, 10.938551 ], [ -74.852881, 10.938493 ], [ -74.854311, 10.938084 ], [ -74.856873, 10.937329 ], [ -74.857309, 10.93716 ], [ -74.857542, 10.93704 ], [ -74.857791, 10.936888 ], [ -74.858106, 10.936651 ], [ -74.85826, 10.936707 ], [ -74.860593, 10.937359 ], [ -74.859743, 10.938254 ], [ -74.859633, 10.938355 ], [ -74.859457, 10.938493 ], [ -74.859026, 10.938797 ], [ -74.858467, 10.939117 ], [ -74.858215, 10.939238 ], [ -74.857756, 10.939417 ], [ -74.855941, 10.939966 ], [ -74.854196, 10.940471 ], [ -74.853139, 10.940746 ], [ -74.852242, 10.940869 ], [ -74.8504, 10.940986 ], [ -74.850228, 10.941071 ], [ -74.849467, 10.941573 ], [ -74.848404, 10.942241 ], [ -74.847776, 10.942574 ], [ -74.845463, 10.943757 ], [ -74.844195, 10.944388 ], [ -74.843718, 10.944598 ], [ -74.8424, 10.945023 ], [ -74.84169, 10.945213 ], [ -74.840093, 10.945685 ], [ -74.839422, 10.945863 ], [ -74.83898, 10.945941 ], [ -74.83873, 10.945971 ], [ -74.838048, 10.945966 ], [ -74.837751, 10.945945 ], [ -74.837575, 10.946443 ], [ -74.837362, 10.947108 ], [ -74.837289, 10.947395 ], [ -74.838248, 10.947668 ], [ -74.838161, 10.94805 ], [ -74.837251, 10.947821 ], [ -74.836578, 10.9505 ], [ -74.83585, 10.950267 ], [ -74.835094, 10.952962 ], [ -74.83497, 10.952735 ] ] ] } },
{ "type": "Feature", "properties": { "Name": null, "descriptio": null, "timestamp": null, "begin": null, "end": null, "altitudeMo": null, "tessellate": -1, "extrude": 0, "visibility": -1, "drawOrder": null, "icon": null, "id": "0", "nombre": "CORREGIMIENTO LA PLAYA", "localidad": null, "pieza_urba": null }, "geometry": { "type": "Polygon", "coordinates": [ [ [ -74.872479, 11.034513 ], [ -74.871473, 11.035696 ], [ -74.871056, 11.036126 ], [ -74.869952, 11.037228 ], [ -74.869121, 11.038388 ], [ -74.868788, 11.038232 ], [ -74.868855, 11.0381 ], [ -74.867998, 11.037765 ], [ -74.867599, 11.038494 ], [ -74.866391, 11.038038 ], [ -74.865188, 11.037483 ], [ -74.864859, 11.037567 ], [ -74.864782, 11.03763 ], [ -74.86469, 11.037663 ], [ -74.864607, 11.03762 ], [ -74.864515, 11.037654 ], [ -74.864433, 11.037697 ], [ -74.864288, 11.037816 ], [ -74.864196, 11.037797 ], [ -74.864147, 11.037716 ], [ -74.863973, 11.03763 ], [ -74.863896, 11.037568 ], [ -74.863804, 11.037563 ], [ -74.863712, 11.037529 ], [ -74.863707, 11.037438 ], [ -74.863682, 11.037343 ], [ -74.863595, 11.037295 ], [ -74.863503, 11.037276 ], [ -74.863445, 11.037199 ], [ -74.863266, 11.037123 ], [ -74.863227, 11.037037 ], [ -74.863169, 11.036965 ], [ -74.863092, 11.036907 ], [ -74.862908, 11.036874 ], [ -74.862782, 11.036735 ], [ -74.862699, 11.036683 ], [ -74.862603, 11.03651 ], [ -74.862578, 11.03642 ], [ -74.862593, 11.036329 ], [ -74.862501, 11.036329 ], [ -74.862409, 11.036353 ], [ -74.862274, 11.036317 ], [ -74.862201, 11.036247 ], [ -74.862171, 11.036161 ], [ -74.862109, 11.036094 ], [ -74.861963, 11.03598 ], [ -74.861876, 11.035946 ], [ -74.861789, 11.03598 ], [ -74.861707, 11.035937 ], [ -74.861634, 11.035994 ], [ -74.861547, 11.036023 ], [ -74.861484, 11.035951 ], [ -74.861406, 11.035898 ], [ -74.861222, 11.03586 ], [ -74.861033, 11.03586 ], [ -74.860961, 11.035922 ], [ -74.860908, 11.036004 ], [ -74.86084, 11.036176 ], [ -74.860782, 11.036248 ], [ -74.860685, 11.036252 ], [ -74.860612, 11.036195 ], [ -74.860365, 11.036061 ], [ -74.860278, 11.036032 ], [ -74.860186, 11.036037 ], [ -74.860002, 11.036071 ], [ -74.859944, 11.036142 ], [ -74.859929, 11.036233 ], [ -74.859837, 11.036243 ], [ -74.85975, 11.036272 ], [ -74.859678, 11.036444 ], [ -74.859615, 11.036511 ], [ -74.859523, 11.036516 ], [ -74.859436, 11.036487 ], [ -74.859251, 11.036401 ], [ -74.859179, 11.036339 ], [ -74.859121, 11.036262 ], [ -74.859097, 11.036166 ], [ -74.859009, 11.036128 ], [ -74.858934, 11.036197 ], [ -74.858859, 11.036248 ], [ -74.858792, 11.036364 ], [ -74.858653, 11.036417 ], [ -74.858588, 11.036396 ], [ -74.858496, 11.036406 ], [ -74.858414, 11.036353 ], [ -74.858375, 11.036262 ], [ -74.858322, 11.036176 ], [ -74.858293, 11.03609 ], [ -74.858385, 11.036076 ], [ -74.858443, 11.036004 ], [ -74.858414, 11.035918 ], [ -74.858336, 11.035865 ], [ -74.858307, 11.035779 ], [ -74.858254, 11.035741 ], [ -74.858239, 11.035717 ], [ -74.858157, 11.035669 ], [ -74.857992, 11.035765 ], [ -74.857934, 11.035693 ], [ -74.857973, 11.035607 ], [ -74.858041, 11.035545 ], [ -74.858123, 11.035501 ], [ -74.858283, 11.035391 ], [ -74.85837, 11.035363 ], [ -74.858462, 11.035382 ], [ -74.858622, 11.035482 ], [ -74.858714, 11.035525 ], [ -74.858903, 11.035564 ], [ -74.858995, 11.035564 ], [ -74.859092, 11.035549 ], [ -74.859372, 11.035463 ], [ -74.859552, 11.035396 ], [ -74.859634, 11.035344 ], [ -74.859668, 11.035257 ], [ -74.859721, 11.035176 ], [ -74.859866, 11.035061 ], [ -74.859954, 11.035028 ], [ -74.860041, 11.035056 ], [ -74.860118, 11.035109 ], [ -74.860307, 11.035119 ], [ -74.86069, 11.035013 ], [ -74.860731, 11.034953 ], [ -74.860854, 11.034908 ], [ -74.860927, 11.034851 ], [ -74.861014, 11.034808 ], [ -74.861077, 11.034741 ], [ -74.861116, 11.034655 ], [ -74.861193, 11.034602 ], [ -74.861285, 11.034578 ], [ -74.861372, 11.03454 ], [ -74.861416, 11.034458 ], [ -74.861489, 11.034401 ], [ -74.861518, 11.034315 ], [ -74.861576, 11.034243 ], [ -74.861658, 11.034186 ], [ -74.86175, 11.034167 ], [ -74.861842, 11.034166 ], [ -74.861895, 11.03409 ], [ -74.86207, 11.033999 ], [ -74.862089, 11.033908 ], [ -74.862065, 11.033817 ], [ -74.862002, 11.03375 ], [ -74.861915, 11.033712 ], [ -74.861847, 11.03354 ], [ -74.861798, 11.033459 ], [ -74.861726, 11.033396 ], [ -74.861639, 11.033358 ], [ -74.861363, 11.033358 ], [ -74.861271, 11.033382 ], [ -74.861179, 11.033372 ], [ -74.86112, 11.033291 ], [ -74.861043, 11.033239 ], [ -74.86098, 11.033162 ], [ -74.860844, 11.033033 ], [ -74.860752, 11.033009 ], [ -74.860612, 11.032889 ], [ -74.860452, 11.032789 ], [ -74.860181, 11.032698 ], [ -74.860089, 11.032698 ], [ -74.860021, 11.03276 ], [ -74.859963, 11.032837 ], [ -74.859803, 11.032932 ], [ -74.859716, 11.032966 ], [ -74.85944, 11.03288 ], [ -74.859154, 11.032856 ], [ -74.859091, 11.032789 ], [ -74.858999, 11.032784 ], [ -74.858912, 11.032813 ], [ -74.858815, 11.032808 ], [ -74.858651, 11.032913 ], [ -74.858578, 11.032976 ], [ -74.85852, 11.033057 ], [ -74.858438, 11.033105 ], [ -74.858263, 11.033172 ], [ -74.85821, 11.033248 ], [ -74.858122, 11.033282 ], [ -74.855673, 11.032524 ], [ -74.856258, 11.030608 ], [ -74.859241, 11.031352 ], [ -74.859724, 11.031233 ], [ -74.860706, 11.028381 ], [ -74.862186, 11.027791 ], [ -74.862551, 11.027338 ], [ -74.864465, 11.024621 ], [ -74.865107, 11.025343 ], [ -74.866535, 11.025213 ], [ -74.867471, 11.024327 ], [ -74.867659, 11.023982 ], [ -74.867744, 11.023853 ], [ -74.868173, 11.023452 ], [ -74.868479, 11.023209 ], [ -74.868785, 11.022938 ], [ -74.869157, 11.022558 ], [ -74.869446, 11.02215 ], [ -74.869642, 11.021903 ], [ -74.869991, 11.021297 ], [ -74.870124, 11.021089 ], [ -74.871826, 11.022326 ], [ -74.868293, 11.026605 ], [ -74.868798, 11.026702 ], [ -74.869254, 11.02681 ], [ -74.87106, 11.027135 ], [ -74.872437, 11.028759 ], [ -74.871981, 11.029574 ], [ -74.873175, 11.031107 ], [ -74.873633, 11.031377 ], [ -74.873363, 11.033005 ], [ -74.872726, 11.034091 ], [ -74.872544, 11.034359 ], [ -74.872479, 11.034513 ] ] ] } },
{ "type": "Feature", "properties": { "Name": null, "descriptio": null, "timestamp": null, "begin": null, "end": null, "altitudeMo": null, "tessellate": -1, "extrude": 0, "visibility": -1, "drawOrder": null, "icon": null, "id": "0", "nombre": "CORREGIMIENTO JUAN MINA", "localidad": null, "pieza_urba": null }, "geometry": { "type": "Polygon", "coordinates": [ [ [ -74.89336, 10.953803 ], [ -74.895189, 10.954035 ], [ -74.895987, 10.95365 ], [ -74.896021, 10.953805 ], [ -74.896018, 10.953933 ], [ -74.895988, 10.954057 ], [ -74.895933, 10.954173 ], [ -74.896163, 10.95482 ], [ -74.896937, 10.955732 ], [ -74.889775, 10.959211 ], [ -74.889529, 10.959353 ], [ -74.889468, 10.959222 ], [ -74.889458, 10.959157 ], [ -74.889539, 10.959067 ], [ -74.889595, 10.958972 ], [ -74.889635, 10.958841 ], [ -74.889635, 10.958766 ], [ -74.889554, 10.958641 ], [ -74.889549, 10.958575 ], [ -74.889615, 10.958455 ], [ -74.889691, 10.95838 ], [ -74.889864, 10.95836 ], [ -74.890031, 10.958365 ], [ -74.890158, 10.958324 ], [ -74.890194, 10.958209 ], [ -74.890163, 10.957968 ], [ -74.890057, 10.957823 ], [ -74.88997, 10.957733 ], [ -74.889859, 10.957637 ], [ -74.889523, 10.957582 ], [ -74.889437, 10.957472 ], [ -74.889452, 10.957336 ], [ -74.889544, 10.957131 ], [ -74.889762, 10.9568 ], [ -74.889889, 10.956704 ], [ -74.890046, 10.956619 ], [ -74.890066, 10.956504 ], [ -74.890005, 10.956388 ], [ -74.889731, 10.956193 ], [ -74.889427, 10.956198 ], [ -74.889102, 10.956098 ], [ -74.888945, 10.955997 ], [ -74.888757, 10.955832 ], [ -74.888626, 10.955687 ], [ -74.888482, 10.95548 ], [ -74.888647, 10.955367 ], [ -74.888921, 10.955227 ], [ -74.88929, 10.955082 ], [ -74.889652, 10.954962 ], [ -74.890088, 10.954876 ], [ -74.890571, 10.95483 ], [ -74.890799, 10.953478 ], [ -74.891181, 10.953504 ], [ -74.891255, 10.953067 ], [ -74.891563, 10.952073 ], [ -74.893152, 10.95198 ], [ -74.893075, 10.953365 ], [ -74.893391, 10.953646 ], [ -74.89336, 10.953803 ] ] ] } },
{ "type": "Feature", "properties": { "Name": null, "descriptio": null, "timestamp": null, "begin": null, "end": null, "altitudeMo": null, "tessellate": -1, "extrude": 0, "visibility": -1, "drawOrder": null, "icon": null, "id": "0", "nombre": null, "localidad": "Norte - Centro Historico", "pieza_urba": "Riomar" }, "geometry": { "type": "Polygon", "coordinates": [ [ [ -74.830747, 10.996742 ], [ -74.830642, 10.995904 ], [ -74.830809, 10.995616 ], [ -74.830569, 10.995401 ], [ -74.830521, 10.994858 ], [ -74.829575, 10.992901 ], [ -74.82952, 10.992809 ], [ -74.829491, 10.992706 ], [ -74.829489, 10.992599 ], [ -74.829514, 10.992495 ], [ -74.829751, 10.992076 ], [ -74.829954, 10.992264 ], [ -74.830102, 10.992419 ], [ -74.830209, 10.992556 ], [ -74.830714, 10.992284 ], [ -74.830871, 10.992184 ], [ -74.831077, 10.991997 ], [ -74.83124, 10.991771 ], [ -74.831321, 10.991605 ], [ -74.831377, 10.991429 ], [ -74.831409, 10.991247 ], [ -74.831415, 10.991062 ], [ -74.831683, 10.990057 ], [ -74.831778, 10.988766 ], [ -74.83208, 10.988923 ], [ -74.832248, 10.988984 ], [ -74.832336, 10.989005 ], [ -74.832514, 10.989026 ], [ -74.832693, 10.989019 ], [ -74.832781, 10.989005 ], [ -74.832954, 10.988957 ], [ -74.833117, 10.988884 ], [ -74.833266, 10.988786 ], [ -74.833511, 10.988574 ], [ -74.833687, 10.988473 ], [ -74.833883, 10.988415 ], [ -74.834088, 10.988408 ], [ -74.834433, 10.988461 ], [ -74.834701, 10.988542 ], [ -74.834786, 10.988582 ], [ -74.834906, 10.988656 ], [ -74.835143, 10.988821 ], [ -74.835261, 10.988881 ], [ -74.835384, 10.988921 ], [ -74.835591, 10.988948 ], [ -74.835841, 10.988931 ], [ -74.835968, 10.988949 ], [ -74.83603, 10.988969 ], [ -74.836108, 10.989005 ], [ -74.836546, 10.989326 ], [ -74.8366, 10.989352 ], [ -74.836698, 10.989362 ], [ -74.836851, 10.989335 ], [ -74.837093, 10.990054 ], [ -74.837822, 10.992003 ], [ -74.838972, 10.995145 ], [ -74.839822, 10.9974 ], [ -74.840064, 10.998085 ], [ -74.841276, 11.001378 ], [ -74.841531, 11.002142 ], [ -74.841773, 11.002927 ], [ -74.841892, 11.003565 ], [ -74.841964, 11.004253 ], [ -74.841994, 11.004789 ], [ -74.841993, 11.00518 ], [ -74.841959, 11.005944 ], [ -74.841914, 11.006356 ], [ -74.841874, 11.006614 ], [ -74.841626, 11.007675 ], [ -74.841393, 11.008596 ], [ -74.841316, 11.008835 ], [ -74.840236, 11.011505 ], [ -74.840224, 11.011498 ], [ -74.840228, 11.011489 ], [ -74.840152, 11.011447 ], [ -74.837353, 11.00994 ], [ -74.839424, 11.00593 ], [ -74.839484, 11.005843 ], [ -74.837846, 11.004931 ], [ -74.837946, 11.004687 ], [ -74.838001, 11.004469 ], [ -74.838027, 11.004247 ], [ -74.838024, 11.004022 ], [ -74.838012, 11.003911 ], [ -74.837416, 11.001205 ], [ -74.837374, 11.000962 ], [ -74.837312, 11.000472 ], [ -74.837241, 10.999326 ], [ -74.837213, 10.999075 ], [ -74.837179, 10.998988 ], [ -74.837106, 10.998928 ], [ -74.837045, 10.998912 ], [ -74.836284, 10.998877 ], [ -74.836238, 10.998864 ], [ -74.836155, 10.99882 ], [ -74.836039, 10.998703 ], [ -74.835939, 10.998667 ], [ -74.835834, 10.998685 ], [ -74.835669, 10.998819 ], [ -74.835565, 10.998842 ], [ -74.834588, 10.998791 ], [ -74.834452, 10.998773 ], [ -74.834298, 10.998726 ], [ -74.834227, 10.998726 ], [ -74.834164, 10.998759 ], [ -74.834133, 10.998795 ], [ -74.833561, 10.999816 ], [ -74.833516, 10.999853 ], [ -74.833406, 10.999875 ], [ -74.833338, 10.999918 ], [ -74.833307, 10.999962 ], [ -74.833281, 11.000052 ], [ -74.833243, 11.000097 ], [ -74.832137, 11.00053 ], [ -74.832032, 11.000567 ], [ -74.831896, 11.000576 ], [ -74.831471, 10.998285 ], [ -74.831315, 10.997239 ], [ -74.830908, 10.997212 ], [ -74.83087, 10.997196 ], [ -74.830841, 10.997152 ], [ -74.830747, 10.996742 ] ] ] } },
{ "type": "Feature", "properties": { "Name": null, "descriptio": null, "timestamp": null, "begin": null, "end": null, "altitudeMo": null, "tessellate": -1, "extrude": 0, "visibility": -1, "drawOrder": null, "icon": null, "id": "0", "nombre": "VILLA SEVILLA", "localidad": "Metropolitana", "pieza_urba": "Suroccidental 1" }, "geometry": { "type": "Polygon", "coordinates": [ [ [ -74.800817, 10.921817 ], [ -74.801516, 10.921836 ], [ -74.801714, 10.921796 ], [ -74.802038, 10.921762 ], [ -74.80211, 10.923277 ], [ -74.797208, 10.923534 ], [ -74.79722, 10.923473 ], [ -74.797245, 10.923449 ], [ -74.797449, 10.923351 ], [ -74.797603, 10.923305 ], [ -74.797824, 10.923262 ], [ -74.797927, 10.923211 ], [ -74.798026, 10.923136 ], [ -74.798105, 10.922955 ], [ -74.798183, 10.922404 ], [ -74.798233, 10.922278 ], [ -74.798314, 10.922153 ], [ -74.798453, 10.922031 ], [ -74.798862, 10.921813 ], [ -74.799007, 10.921658 ], [ -74.799153, 10.921619 ], [ -74.799155, 10.921292 ], [ -74.799292, 10.921345 ], [ -74.799534, 10.921415 ], [ -74.799742, 10.921462 ], [ -74.800615, 10.921785 ], [ -74.800817, 10.921817 ] ] ] } },
{ "type": "Feature", "properties": { "Name": null, "descriptio": null, "timestamp": null, "begin": null, "end": null, "altitudeMo": null, "tessellate": -1, "extrude": 0, "visibility": -1, "drawOrder": null, "icon": null, "id": "0", "nombre": "PASEO DE LA CASTELLANA", "localidad": "Riomar", "pieza_urba": "Riomar" }, "geometry": { "type": "Polygon", "coordinates": [ [ [ -74.83058, 11.016528 ], [ -74.830629, 11.015006 ], [ -74.832046, 11.011908 ], [ -74.83258, 11.012169 ], [ -74.832927, 11.012375 ], [ -74.83694, 11.015017 ], [ -74.837365, 11.015218 ], [ -74.838551, 11.015715 ], [ -74.838317, 11.016333 ], [ -74.837691, 11.017909 ], [ -74.8371, 11.019375 ], [ -74.836639, 11.020486 ], [ -74.830655, 11.016512 ], [ -74.83058, 11.016528 ] ] ] } },
{ "type": "Feature", "properties": { "Name": null, "descriptio": null, "timestamp": null, "begin": null, "end": null, "altitudeMo": null, "tessellate": -1, "extrude": 0, "visibility": -1, "drawOrder": null, "icon": null, "id": "0", "nombre": null, "localidad": null, "pieza_urba": "Riomar" }, "geometry": { "type": "Polygon", "coordinates": [ [ [ -74.843426, 11.006898 ], [ -74.843559, 11.007335 ], [ -74.844034, 11.008413 ], [ -74.843697, 11.008551 ], [ -74.843375, 11.008642 ], [ -74.842994, 11.008731 ], [ -74.84369, 11.009602 ], [ -74.844391, 11.010518 ], [ -74.845438, 11.011925 ], [ -74.845862, 11.011701 ], [ -74.846702, 11.011176 ], [ -74.847618, 11.010724 ], [ -74.847857, 11.010559 ], [ -74.848444, 11.010119 ], [ -74.848927, 11.009692 ], [ -74.849544, 11.009271 ], [ -74.850528, 11.00849 ], [ -74.850573, 11.008465 ], [ -74.850802, 11.0084 ], [ -74.851091, 11.008182 ], [ -74.85221, 11.010375 ], [ -74.851071, 11.011339 ], [ -74.851701, 11.011887 ], [ -74.851231, 11.012474 ], [ -74.850621, 11.013397 ], [ -74.851234, 11.013759 ], [ -74.851872, 11.014107 ], [ -74.852323, 11.013526 ], [ -74.853978, 11.011896 ], [ -74.854217, 11.011628 ], [ -74.85437, 11.011476 ], [ -74.854501, 11.011375 ], [ -74.854803, 11.011322 ], [ -74.855285, 11.011218 ], [ -74.857154, 11.010173 ], [ -74.858554, 11.009694 ], [ -74.860309, 11.009235 ], [ -74.860682, 11.009238 ], [ -74.860684, 11.009053 ], [ -74.861116, 11.008063 ], [ -74.861385, 11.007747 ], [ -74.861599, 11.007636 ], [ -74.861863, 11.007533 ], [ -74.861988, 11.00745 ], [ -74.863049, 11.007225 ], [ -74.863327, 11.007059 ], [ -74.863588, 11.006841 ], [ -74.865413, 11.007659 ], [ -74.863901, 11.009714 ], [ -74.866346, 11.011194 ], [ -74.866589, 11.011289 ], [ -74.866833, 11.011649 ], [ -74.866905, 11.012672 ], [ -74.867074, 11.013109 ], [ -74.867473, 11.013862 ], [ -74.867637, 11.014119 ], [ -74.867434, 11.014247 ], [ -74.867084, 11.014559 ], [ -74.866436, 11.01507 ], [ -74.866385, 11.015129 ], [ -74.866278, 11.015269 ], [ -74.866258, 11.015502 ], [ -74.865974, 11.015731 ], [ -74.865711, 11.016125 ], [ -74.865574, 11.016386 ], [ -74.865359, 11.016755 ], [ -74.860235, 11.016768 ], [ -74.859881, 11.016503 ], [ -74.856574, 11.01692 ], [ -74.85648, 11.016918 ], [ -74.854235, 11.017199 ], [ -74.85374, 11.017231 ], [ -74.853096, 11.01724 ], [ -74.852603, 11.017219 ], [ -74.852156, 11.017178 ], [ -74.85178, 11.017129 ], [ -74.851234, 11.017029 ], [ -74.850877, 11.016949 ], [ -74.850446, 11.016831 ], [ -74.849936, 11.016665 ], [ -74.849426, 11.016468 ], [ -74.849027, 11.01629 ], [ -74.848623, 11.016091 ], [ -74.846652, 11.015032 ], [ -74.846514, 11.014974 ], [ -74.846452, 11.014926 ], [ -74.845312, 11.014313 ], [ -74.84498, 11.01415 ], [ -74.843287, 11.01324 ], [ -74.843182, 11.013168 ], [ -74.842471, 11.012793 ], [ -74.842108, 11.012837 ], [ -74.839284, 11.013932 ], [ -74.839491, 11.013325 ], [ -74.840162, 11.011645 ], [ -74.840224, 11.011498 ], [ -74.840236, 11.011505 ], [ -74.841316, 11.008835 ], [ -74.841393, 11.008596 ], [ -74.841626, 11.007675 ], [ -74.841874, 11.006614 ], [ -74.841914, 11.006356 ], [ -74.841959, 11.005944 ], [ -74.841993, 11.00518 ], [ -74.841994, 11.004789 ], [ -74.841964, 11.004253 ], [ -74.841892, 11.003565 ], [ -74.841773, 11.002927 ], [ -74.842383, 11.004164 ], [ -74.842509, 11.004465 ], [ -74.843052, 11.005934 ], [ -74.843426, 11.006898 ] ] ] } },
{ "type": "Feature", "properties": { "Name": null, "descriptio": null, "timestamp": null, "begin": null, "end": null, "altitudeMo": null, "tessellate": -1, "extrude": 0, "visibility": -1, "drawOrder": null, "icon": null, "id": "1", "nombre": "VILLAS DE SAN PABLO", "localidad": null, "pieza_urba": null }, "geometry": { "type": "Polygon", "coordinates": [ [ [ -74.866046, 10.959945 ], [ -74.864142, 10.958284 ], [ -74.862671, 10.95994 ], [ -74.861305, 10.958741 ], [ -74.86196, 10.957984 ], [ -74.86323, 10.957954 ], [ -74.864323, 10.957882 ], [ -74.865531, 10.956561 ], [ -74.866023, 10.956054 ], [ -74.866137, 10.955984 ], [ -74.866807, 10.95604 ], [ -74.867321, 10.958726 ], [ -74.866046, 10.959945 ] ] ] } },
{ "type": "Feature", "properties": { "Name": null, "descriptio": null, "timestamp": null, "begin": null, "end": null, "altitudeMo": null, "tessellate": -1, "extrude": 0, "visibility": -1, "drawOrder": null, "icon": null, "id": "0", "nombre": "LOS GIRASOLES", "localidad": "Metropolitana", "pieza_urba": "Suroccidental 1" }, "geometry": { "type": "Polygon", "coordinates": [ [ [ -74.80686, 10.923029 ], [ -74.806952, 10.924586 ], [ -74.807056, 10.925139 ], [ -74.80785, 10.926238 ], [ -74.807619, 10.926406 ], [ -74.807383, 10.926415 ], [ -74.807192, 10.926203 ], [ -74.806151, 10.926403 ], [ -74.805035, 10.9264 ], [ -74.805032, 10.926134 ], [ -74.802692, 10.92608 ], [ -74.80268, 10.923248 ], [ -74.80686, 10.923029 ] ] ] } },
{ "type": "Feature", "properties": { "Name": null, "descriptio": null, "timestamp": null, "begin": null, "end": null, "altitudeMo": null, "tessellate": -1, "extrude": 0, "visibility": -1, "drawOrder": null, "icon": null, "id": "0", "nombre": "LAS CAYENAS", "localidad": "Metropolitana", "pieza_urba": "Suroccidental 1" }, "geometry": { "type": "Polygon", "coordinates": [ [ [ -74.806947, 10.924502 ], [ -74.80686, 10.923029 ], [ -74.8122, 10.92275 ], [ -74.812134, 10.922997 ], [ -74.811976, 10.923438 ], [ -74.811669, 10.9244 ], [ -74.811532, 10.924768 ], [ -74.811501, 10.924907 ], [ -74.811488, 10.925052 ], [ -74.811171, 10.92517 ], [ -74.811017, 10.925253 ], [ -74.810821, 10.925332 ], [ -74.810625, 10.925395 ], [ -74.810512, 10.925417 ], [ -74.810248, 10.925428 ], [ -74.80981, 10.925417 ], [ -74.809574, 10.925377 ], [ -74.809187, 10.925254 ], [ -74.80855, 10.924993 ], [ -74.807667, 10.924649 ], [ -74.807216, 10.924424 ], [ -74.807125, 10.9244 ], [ -74.807053, 10.924417 ], [ -74.80699, 10.924448 ], [ -74.806947, 10.924502 ] ] ] } },
{ "type": "Feature", "properties": { "Name": null, "descriptio": null, "timestamp": null, "begin": null, "end": null, "altitudeMo": null, "tessellate": -1, "extrude": 0, "visibility": -1, "drawOrder": null, "icon": null, "id": "0", "nombre": "CIUDADELA 20 DE JULIO", "localidad": "Metropolitana", "pieza_urba": "Suroccidental 1, Suroriental" }, "geometry": { "type": "Polygon", "coordinates": [ [ [ -74.794699, 10.930442 ], [ -74.79481, 10.930016 ], [ -74.79484, 10.929967 ], [ -74.79495, 10.92984 ], [ -74.795249, 10.929377 ], [ -74.795551, 10.928806 ], [ -74.795683, 10.928647 ], [ -74.795824, 10.928566 ], [ -74.796054, 10.928464 ], [ -74.796612, 10.928257 ], [ -74.796745, 10.92785 ], [ -74.796759, 10.927762 ], [ -74.796853, 10.92743 ], [ -74.796773, 10.927108 ], [ -74.796973, 10.927048 ], [ -74.79702, 10.926844 ], [ -74.797001, 10.926518 ], [ -74.797412, 10.926445 ], [ -74.797702, 10.926378 ], [ -74.797729, 10.925939 ], [ -74.797815, 10.925849 ], [ -74.79782, 10.925409 ], [ -74.79787, 10.924875 ], [ -74.797905, 10.924344 ], [ -74.797954, 10.924013 ], [ -74.797929, 10.923953 ], [ -74.797872, 10.92387 ], [ -74.797769, 10.9238 ], [ -74.797679, 10.923745 ], [ -74.797576, 10.923699 ], [ -74.797284, 10.923609 ], [ -74.797223, 10.923572 ], [ -74.797208, 10.923534 ], [ -74.80211, 10.923277 ], [ -74.802038, 10.921762 ], [ -74.802117, 10.921754 ], [ -74.802569, 10.921737 ], [ -74.802819, 10.921747 ], [ -74.803364, 10.921811 ], [ -74.80433, 10.922035 ], [ -74.804698, 10.922253 ], [ -74.805162, 10.922438 ], [ -74.805607, 10.922262 ], [ -74.806609, 10.921911 ], [ -74.806916, 10.921859 ], [ -74.80743, 10.9217 ], [ -74.807629, 10.921681 ], [ -74.808197, 10.921667 ], [ -74.808286, 10.921656 ], [ -74.808388, 10.921662 ], [ -74.80879, 10.921734 ], [ -74.809322, 10.921801 ], [ -74.80942, 10.921917 ], [ -74.80943, 10.92228 ], [ -74.810581, 10.922197 ], [ -74.81059, 10.922294 ], [ -74.81085, 10.922276 ], [ -74.810862, 10.922495 ], [ -74.811671, 10.922458 ], [ -74.811734, 10.922466 ], [ -74.811751, 10.922446 ], [ -74.811781, 10.922441 ], [ -74.81181, 10.922543 ], [ -74.81226, 10.922525 ], [ -74.8122, 10.92275 ], [ -74.80268, 10.923248 ], [ -74.802692, 10.92608 ], [ -74.805032, 10.926134 ], [ -74.805035, 10.9264 ], [ -74.806151, 10.926403 ], [ -74.807192, 10.926203 ], [ -74.807383, 10.926415 ], [ -74.807619, 10.926406 ], [ -74.80785, 10.926238 ], [ -74.807056, 10.925139 ], [ -74.806952, 10.924586 ], [ -74.806947, 10.924502 ], [ -74.80699, 10.924448 ], [ -74.807053, 10.924417 ], [ -74.807125, 10.9244 ], [ -74.807216, 10.924424 ], [ -74.807667, 10.924649 ], [ -74.80855, 10.924993 ], [ -74.809187, 10.925254 ], [ -74.809574, 10.925377 ], [ -74.80981, 10.925417 ], [ -74.810248, 10.925428 ], [ -74.810512, 10.925417 ], [ -74.810625, 10.925395 ], [ -74.810821, 10.925332 ], [ -74.811017, 10.925253 ], [ -74.811171, 10.92517 ], [ -74.811488, 10.925052 ], [ -74.811495, 10.925483 ], [ -74.811485, 10.925648 ], [ -74.811285, 10.926387 ], [ -74.810855, 10.927845 ], [ -74.81075, 10.928282 ], [ -74.810671, 10.92873 ], [ -74.810645, 10.928819 ], [ -74.810196, 10.929945 ], [ -74.809746, 10.931028 ], [ -74.809696, 10.931092 ], [ -74.809171, 10.931563 ], [ -74.808748, 10.931879 ], [ -74.806309, 10.933611 ], [ -74.805722, 10.934077 ], [ -74.80551, 10.934328 ], [ -74.805334, 10.934483 ], [ -74.804687, 10.93498 ], [ -74.804998, 10.9354 ], [ -74.80472, 10.935631 ], [ -74.804593, 10.935704 ], [ -74.804563, 10.935686 ], [ -74.804539, 10.935685 ], [ -74.804491, 10.935707 ], [ -74.804418, 10.935801 ], [ -74.80434, 10.935856 ], [ -74.804029, 10.935946 ], [ -74.803998, 10.936006 ], [ -74.804001, 10.936095 ], [ -74.80399, 10.936129 ], [ -74.80397, 10.936148 ], [ -74.803887, 10.936185 ], [ -74.803619, 10.936247 ], [ -74.803451, 10.936344 ], [ -74.803396, 10.93642 ], [ -74.803326, 10.936552 ], [ -74.80318, 10.936879 ], [ -74.803081, 10.937066 ], [ -74.802908, 10.937271 ], [ -74.802713, 10.937421 ], [ -74.802691, 10.93832 ], [ -74.799224, 10.938306 ], [ -74.799203, 10.934314 ], [ -74.79923, 10.93378 ], [ -74.799219, 10.932281 ], [ -74.799192, 10.931747 ], [ -74.799185, 10.930056 ], [ -74.797549, 10.929901 ], [ -74.797451, 10.930847 ], [ -74.79654, 10.931227 ], [ -74.795126, 10.93107 ], [ -74.794822, 10.931011 ], [ -74.794764, 10.930793 ], [ -74.794738, 10.930747 ], [ -74.794699, 10.930714 ], [ -74.794462, 10.930618 ], [ -74.794549, 10.930592 ], [ -74.794652, 10.930514 ], [ -74.794699, 10.930442 ] ] ] } }
]
}
