{
"type": "FeatureCollection",
"name": "casos_comparados_franjas_latam",
"crs": { "type": "name", "properties": { "name": "urn:ogc:def:crs:OGC:1.3:CRS84" } },
"features": [
{ "type": "Feature", "properties": { "ciudad": "Barranquilla", "pais": "Colombia", "caso": "Caso principal", "tipo_interfaz": "Delta fluvial y ciénaga estuarina", "area_ha": 18572.7 }, "geometry": { "type": "Polygon", "coordinates": [ [ [ -74.828403984381183, 11.011186756172469 ], [ -74.828544262285547, 11.011025887016105 ], [ -74.828791357309711, 11.011126269369679 ], [ -74.829100226089935, 11.011235660396009 ], [ -74.829874971946978, 11.011433851196637 ], [ -74.830116919158158, 11.01145444244866 ], [ -74.830441231377392, 11.011485329326689 ], [ -74.830762969690113, 11.011521364017709 ], [ -74.831113020974371, 11.011606302932268 ], [ -74.831475941791126, 11.011727276537854 ], [ -74.831998444811006, 11.011951206403502 ], [ -74.832513226111374, 11.012151971110654 ], [ -74.83327510243592, 11.012543204898931 ], [ -74.833856805305331, 11.012949882126225 ], [ -74.834603238190866, 11.013464663426587 ], [ -74.83565853985661, 11.014180209434102 ], [ -74.836204208034999, 11.014519965092342 ], [ -74.836971232172544, 11.014983268262673 ], [ -74.837197735944699, 11.015163441717796 ], [ -74.837491161285911, 11.015281841416884 ], [ -74.838232707243492, 11.015584668517574 ], [ -74.838643949660366, 11.015739675035926 ], [ -74.83927455675331, 11.014190183321816 ], [ -74.840338814306833, 11.011537621816268 ], [ -74.84040163310793, 11.011416909059133 ], [ -74.841584562766954, 11.008190739308924 ], [ -74.84163257909573, 11.007981417989789 ], [ -74.841713562384413, 11.00759809709 ], [ -74.841830538245844, 11.007009618525535 ], [ -74.841934916706833, 11.006440935876086 ], [ -74.842042894425092, 11.00566349630469 ], [ -74.84216886842971, 11.005037225538835 ], [ -74.842232297062182, 11.00421018259925 ], [ -74.842160227680125, 11.003798357558951 ], [ -74.842026384542038, 11.003185767811514 ], [ -74.841681481070793, 11.002300343974877 ], [ -74.841424090420588, 11.00151787639833 ], [ -74.840971082876266, 11.000272105651442 ], [ -74.840178319673726, 10.998146058880929 ], [ -74.839601764617328, 10.99652964559778 ], [ -74.839086983316946, 10.995175770777813 ], [ -74.838803853601746, 10.994377859762247 ], [ -74.838489837008524, 10.993502731551615 ], [ -74.838165524789289, 10.992735707414074 ], [ -74.837866951635078, 10.991788509821395 ], [ -74.837532343789846, 10.990939120675797 ], [ -74.837105075310546, 10.989827193067006 ], [ -74.836752450119803, 10.98872556108422 ], [ -74.836628902607714, 10.988290570885408 ], [ -74.836374085864037, 10.987083408736048 ], [ -74.836294294762482, 10.986620105565716 ], [ -74.836232521006437, 10.986077011293833 ], [ -74.836175895063406, 10.985400073883847 ], [ -74.836142434278884, 10.984782336323411 ], [ -74.83613986037237, 10.984097677193917 ], [ -74.83616045162438, 10.983075836312693 ], [ -74.836145008185383, 10.982643420020381 ], [ -74.836132138652872, 10.981719387586226 ], [ -74.836135034297428, 10.981506075084857 ], [ -74.835593988403716, 10.981565820575101 ], [ -74.83533712328186, 10.981624474783938 ], [ -74.835082306538183, 10.981686248539981 ], [ -74.834745124786437, 10.981704265885503 ], [ -74.834757994318949, 10.981395397105278 ], [ -74.834823198896515, 10.980895563733752 ], [ -74.834891837457064, 10.9803040607485 ], [ -74.834516729506888, 10.980399709035625 ], [ -74.834203317467853, 10.980467503811367 ], [ -74.834211562469022, 10.979905959219298 ], [ -74.834229056532877, 10.979544758330466 ], [ -74.834214900047115, 10.978973351087056 ], [ -74.834204604421089, 10.978414813376164 ], [ -74.834007700573693, 10.978382639544884 ], [ -74.833949787677412, 10.97811624022194 ], [ -74.833911179079877, 10.977768762844201 ], [ -74.833867422669343, 10.977452172344474 ], [ -74.833799214147049, 10.977028764724924 ], [ -74.833711701325996, 10.976445774902258 ], [ -74.833665371008962, 10.976098297524514 ], [ -74.833555979982634, 10.97573795061426 ], [ -74.833477475834329, 10.975520455514854 ], [ -74.833310171911691, 10.975575794504641 ], [ -74.832661547473236, 10.975792002650792 ], [ -74.832210792097314, 10.975943541396108 ], [ -74.831955975353637, 10.975274325705634 ], [ -74.83175521064652, 10.974854778945833 ], [ -74.83147465483782, 10.974293667328428 ], [ -74.831140046992573, 10.973637321170466 ], [ -74.830898099781393, 10.973148278935124 ], [ -74.830715352419759, 10.972751897333838 ], [ -74.830535178964638, 10.972394124330085 ], [ -74.830445092237071, 10.972195933529445 ], [ -74.830375596761527, 10.971902508188238 ], [ -74.830300953472971, 10.971493257054444 ], [ -74.830213440651903, 10.971104597172666 ], [ -74.830162999910783, 10.970953890169842 ], [ -74.830101475719033, 10.970700493851883 ], [ -74.830011388991466, 10.97010592144996 ], [ -74.82995907397347, 10.969772757894079 ], [ -74.829901032750101, 10.969402279759992 ], [ -74.829822475571689, 10.969426911576916 ], [ -74.82921894752711, 10.969576018448871 ], [ -74.829167469397092, 10.969161619502071 ], [ -74.829121139080058, 10.968824437750335 ], [ -74.829074808763025, 10.968564473193652 ], [ -74.829042634931781, 10.968345691141002 ], [ -74.828964130783476, 10.967854074999151 ], [ -74.828916513513178, 10.967655884198511 ], [ -74.828839296318122, 10.967412650034092 ], [ -74.828709314039784, 10.967125659459132 ], [ -74.828551018789952, 10.967182928878799 ], [ -74.828381784437454, 10.967247920017968 ], [ -74.828262097785114, 10.967269154746612 ], [ -74.828146271992523, 10.966519504477953 ], [ -74.828066480890968, 10.966215783510739 ], [ -74.827994411508925, 10.965894045198008 ], [ -74.827904324781358, 10.964849039158263 ], [ -74.827792243211491, 10.964286547177167 ], [ -74.82773584675698, 10.964005692603797 ], [ -74.827575679808234, 10.963521592500312 ], [ -74.827536087978203, 10.963347028522472 ], [ -74.827500095405455, 10.96325164820469 ], [ -74.827374121400837, 10.962951110222217 ], [ -74.827255345910757, 10.962724357013899 ], [ -74.827154566707051, 10.962564190065166 ], [ -74.827075383047003, 10.962389626087324 ], [ -74.826900819069166, 10.962008104816173 ], [ -74.826800039865461, 10.961774153093296 ], [ -74.826711858062225, 10.961599589115455 ], [ -74.826576885914406, 10.961398030708056 ], [ -74.826323138276521, 10.96118387490019 ], [ -74.82621664736557, 10.961105739636702 ], [ -74.826044677333769, 10.96096372729339 ], [ -74.825912121148932, 10.96087428404245 ], [ -74.82563671315323, 10.960753310436859 ], [ -74.825245479364952, 10.960609171672759 ], [ -74.825281514055973, 10.960535815337456 ], [ -74.825420505007074, 10.960376233134342 ], [ -74.825508017828142, 10.96028357250027 ], [ -74.825676783239018, 10.960121282455926 ], [ -74.826133477108087, 10.959701869630862 ], [ -74.825482278763118, 10.958903958615283 ], [ -74.824998384340773, 10.958278499335334 ], [ -74.824699811186562, 10.957900135079562 ], [ -74.824374929387247, 10.957375004018573 ], [ -74.824039604168846, 10.956970954832387 ], [ -74.823798943910916, 10.956698120743196 ], [ -74.823698561557336, 10.956557842838837 ], [ -74.823658666006565, 10.956413704074739 ], [ -74.823631639988292, 10.956102261388013 ], [ -74.823625205222044, 10.955637671264428 ], [ -74.823631639988321, 10.955049533628761 ], [ -74.823729448435373, 10.952323766643305 ], [ -74.82256861660305, 10.952277436326268 ], [ -74.821734670896447, 10.952236253822237 ], [ -74.821698636205426, 10.950890100721777 ], [ -74.821748232293515, 10.948996189973609 ], [ -74.821759280051779, 10.948465899318965 ], [ -74.821777276338167, 10.947094582297192 ], [ -74.82178447485272, 10.945741261561793 ], [ -74.820340900525252, 10.946221034327801 ], [ -74.819782362814337, 10.946403781689433 ], [ -74.819599615452717, 10.946464268492228 ], [ -74.819268868467219, 10.946569798658805 ], [ -74.818907234603714, 10.946692059217641 ], [ -74.818346122986313, 10.946885102205281 ], [ -74.818289497043267, 10.946756406880187 ], [ -74.818200697268949, 10.946544059593784 ], [ -74.818128627886907, 10.946399920829682 ], [ -74.818079723663374, 10.946269938551341 ], [ -74.818020523813829, 10.946094912909214 ], [ -74.81793429794601, 10.945889000389073 ], [ -74.817876385049729, 10.945787331082247 ], [ -74.817765707070137, 10.945607157627117 ], [ -74.817678194249083, 10.945514496993049 ], [ -74.817540490251233, 10.945371645182201 ], [ -74.817500594700434, 10.945342045257421 ], [ -74.817572020605851, 10.94524745419349 ], [ -74.817659533426919, 10.945116828438525 ], [ -74.817747689724598, 10.944990063543299 ], [ -74.817808820004018, 10.944914776778118 ], [ -74.817850645984677, 10.944821472667432 ], [ -74.817910489310847, 10.944639368782427 ], [ -74.817968955863165, 10.944408173951828 ], [ -74.817990923889042, 10.944336934768463 ], [ -74.818105462728369, 10.943961144419191 ], [ -74.817987590779239, 10.943942296941399 ], [ -74.81785965465744, 10.943898083709904 ], [ -74.817711655033591, 10.943863335972127 ], [ -74.817618350922913, 10.943883927224141 ], [ -74.817523759858972, 10.943891648943652 ], [ -74.817441394850917, 10.943897440233272 ], [ -74.817308838666051, 10.943846605579864 ], [ -74.817174995527949, 10.943748797132795 ], [ -74.817068178408149, 10.943683162517004 ], [ -74.817223899751511, 10.943259754897449 ], [ -74.817306264759566, 10.942981772995257 ], [ -74.817440107897667, 10.942580243580959 ], [ -74.817489012121214, 10.942515895918419 ], [ -74.817544351110996, 10.94232735726716 ], [ -74.817616420493053, 10.942136244709399 ], [ -74.817674333389334, 10.941996610281668 ], [ -74.817737394098671, 10.941871132339712 ], [ -74.817971619590367, 10.941321603301571 ], [ -74.817999080805663, 10.941266680880501 ], [ -74.817639585651605, 10.941071934370894 ], [ -74.817931724039596, 10.940566161743293 ], [ -74.818134006643163, 10.940281920941434 ], [ -74.818279844894022, 10.940078406461193 ], [ -74.818134044706497, 10.93997612071526 ], [ -74.818093880149235, 10.939949711136112 ], [ -74.817751550584489, 10.939709050878195 ], [ -74.817558507596857, 10.939555903441335 ], [ -74.817406647113245, 10.93937444303295 ], [ -74.817016700278216, 10.938907279002866 ], [ -74.816894439719377, 10.938778583677777 ], [ -74.816684666339455, 10.938522479980849 ], [ -74.81644271912829, 10.938244498078651 ], [ -74.816374510606011, 10.938137680958826 ], [ -74.816187902384627, 10.937911177186662 ], [ -74.816057920106289, 10.937743873264044 ], [ -74.815738755700053, 10.937360361195276 ], [ -74.815505817161636, 10.93705149241506 ], [ -74.815311487220711, 10.936781232232363 ], [ -74.815138392008464, 10.936545719787443 ], [ -74.814975592422229, 10.936308920389271 ], [ -74.815043157467898, 10.936286398707384 ], [ -74.815268374286816, 10.936259372689111 ], [ -74.815368756640396, 10.936247146633223 ], [ -74.815541208376018, 10.936232346670838 ], [ -74.81560286644897, 10.936233037534604 ], [ -74.815592686506221, 10.936167999008319 ], [ -74.8155566518152, 10.936029008057222 ], [ -74.815523834507303, 10.935942782189411 ], [ -74.81549423458253, 10.935861060657977 ], [ -74.815436965162846, 10.935763252210908 ], [ -74.815368756640552, 10.935639704698815 ], [ -74.815301587968648, 10.935509888211397 ], [ -74.815285748155873, 10.935477548589207 ], [ -74.815223974399828, 10.935384244478517 ], [ -74.815119087709931, 10.935222088368903 ], [ -74.815074044346147, 10.935146158127097 ], [ -74.814990392384829, 10.935034193194269 ], [ -74.814902879563775, 10.934882332710657 ], [ -74.814852688386978, 10.934756211292067 ], [ -74.814785766817934, 10.934623655107229 ], [ -74.814739436500901, 10.934545150958922 ], [ -74.814646775866834, 10.934439620792347 ], [ -74.814597871643301, 10.93439586438182 ], [ -74.814525802261244, 10.934362403597294 ], [ -74.81444086334669, 10.93433151671927 ], [ -74.81431602888135, 10.93428518640224 ], [ -74.814193768322511, 10.934240143038455 ], [ -74.814059925184409, 10.934171934516153 ], [ -74.813942812438583, 10.934102439040608 ], [ -74.813781943282208, 10.934007204500041 ], [ -74.813625874167272, 10.933901871493521 ], [ -74.813538709117807, 10.933843761437165 ], [ -74.813419022465467, 10.93376268338236 ], [ -74.813263301122106, 10.933652005402781 ], [ -74.813108866731994, 10.933563205628468 ], [ -74.812971162734144, 10.933496284059421 ], [ -74.812873354287078, 10.933452527648891 ], [ -74.812720206850216, 10.933386893033092 ], [ -74.812679736946507, 10.933364071674234 ], [ -74.813768517739476, 10.930767705259523 ], [ -74.817287946415959, 10.923728850227659 ], [ -74.817465831927649, 10.923455183833138 ], [ -74.82080737396447, 10.918314344999201 ], [ -74.824868252688532, 10.909109686387803 ], [ -74.827034054184054, 10.903153731105373 ], [ -74.828387681087975, 10.899092852931805 ], [ -74.829741307069142, 10.89692705093743 ], [ -74.832448559162643, 10.894219799229111 ], [ -74.837258499668962, 10.892438363104969 ], [ -74.837303582355204, 10.892421665599121 ], [ -74.839758141045067, 10.891512545958914 ], [ -74.845172646295566, 10.889076019091878 ], [ -74.85139932580384, 10.884202965314106 ], [ -74.85627238033436, 10.879059184656057 ], [ -74.859250357148852, 10.875269032338268 ], [ -74.860874708837315, 10.871749603822682 ], [ -74.863040510841188, 10.865522923687944 ], [ -74.865206312967302, 10.861732770213303 ], [ -74.865750224035835, 10.860991082017119 ], [ -74.866148230441055, 10.86098140727289 ], [ -74.866553559426492, 10.860998297014246 ], [ -74.866553559426492, 10.860998297014246 ], [ -74.866659410143996, 10.860995036029044 ], [ -74.866765260853015, 10.860991775007761 ], [ -74.866849932816166, 10.86098557370835 ], [ -74.866988869637495, 10.860913462427469 ], [ -74.86716398583944, 10.860799402405492 ], [ -74.867236414666749, 10.860739421187676 ], [ -74.867381194429967, 10.860589569552024 ], [ -74.867459547802014, 10.860481740842685 ], [ -74.867525815561123, 10.86037992057636 ], [ -74.867551359997918, 10.860326962432735 ], [ -74.867598010609129, 10.860230247406113 ], [ -74.867652116708669, 10.860104541891241 ], [ -74.867742391398409, 10.859930905623417 ], [ -74.867911209817692, 10.859721197315203 ], [ -74.867977511349451, 10.859631332824812 ], [ -74.868128323982631, 10.85947548123549 ], [ -74.868273165407359, 10.859349543735314 ], [ -74.868430119862367, 10.859229550855019 ], [ -74.868593125903942, 10.859109541946557 ], [ -74.868738048554235, 10.859013499736752 ], [ -74.868864824212238, 10.858917507150661 ], [ -74.869045991086963, 10.858803426758646 ], [ -74.869166765066979, 10.85872538062023 ], [ -74.869299757895533, 10.858695141251342 ], [ -74.869432661978962, 10.858629021638492 ], [ -74.86953538493313, 10.858586903424595 ], [ -74.869613843700193, 10.858520925675077 ], [ -74.869698226734599, 10.858407102281149 ], [ -74.869800693761604, 10.85826931387107 ], [ -74.86990298566289, 10.858065749853814 ], [ -74.869950993067079, 10.857922122310327 ], [ -74.869975006657299, 10.857853296804798 ], [ -74.869999020238865, 10.857784471298931 ], [ -74.870038314191262, 10.857696464252042 ], [ -74.870047130028794, 10.857676719328879 ], [ -74.870113268924428, 10.857527070006009 ], [ -74.870161345387785, 10.857407356786938 ], [ -74.870215400630968, 10.857263714168161 ], [ -74.870281428954996, 10.857072206327171 ], [ -74.870335396254717, 10.856892686234634 ], [ -74.870419477225923, 10.856747255907566 ], [ -74.870473881251968, 10.856653156120695 ], [ -74.870546056152932, 10.856497506073513 ], [ -74.870630311721882, 10.856335843890809 ], [ -74.870787012273865, 10.856120186419385 ], [ -74.870949856701202, 10.855940384904599 ], [ -74.871046222261839, 10.855784673596105 ], [ -74.871085366298573, 10.855718799984611 ], [ -74.871124510319731, 10.85565292637072 ], [ -74.871172567242638, 10.855527231135211 ], [ -74.871214417182031, 10.855341766449159 ], [ -74.871250360123256, 10.855210129353763 ], [ -74.871249995393441, 10.855072608020588 ], [ -74.871249691701848, 10.854959001056271 ], [ -74.871267392746489, 10.854791535426806 ], [ -74.87127918684412, 10.854677901004601 ], [ -74.871327343429414, 10.854588084060556 ], [ -74.871363378764016, 10.854492321682432 ], [ -74.871477909264286, 10.854342539806963 ], [ -74.871568244206102, 10.854192822785278 ], [ -74.871589223458415, 10.854142084634766 ], [ -74.871610319427774, 10.854091064190328 ], [ -74.871664312561606, 10.853923507135928 ], [ -74.871664026809569, 10.853815881251537 ], [ -74.871693827194989, 10.8536483836371 ], [ -74.87169331584326, 10.853457047143639 ], [ -74.871695080631554, 10.853445805801702 ], [ -74.872132394656518, 10.853088005641268 ], [ -74.873225568266406, 10.853030188267741 ], [ -74.874622262663223, 10.852936762895512 ], [ -74.875298158983412, 10.85291506384484 ], [ -74.876144006448811, 10.852887909623451 ], [ -74.880709825563514, 10.852965842999085 ], [ -74.881201737146341, 10.852782552823108 ], [ -74.882115358225789, 10.852442129317755 ], [ -74.88386416727279, 10.851857391890761 ], [ -74.884223835377639, 10.851760829406516 ], [ -74.885680007224636, 10.851369885349543 ], [ -74.888040193591223, 10.850589043619873 ], [ -74.889004634592666, 10.850249706328153 ], [ -74.88949268415918, 10.850136153204128 ], [ -74.891206776047468, 10.849828511285258 ], [ -74.891956854782308, 10.850017379871279 ], [ -74.892365860096376, 10.850072431246357 ], [ -74.892395806288775, 10.850085138073787 ], [ -74.892786557190362, 10.850250941581139 ], [ -74.892958311588217, 10.850766909911828 ], [ -74.89346036603375, 10.851630027108296 ], [ -74.893552731787523, 10.851731320222811 ], [ -74.894052701544979, 10.852279597228621 ], [ -74.894100587388536, 10.852362819960806 ], [ -74.894349388790815, 10.852795231979254 ], [ -74.895359805679064, 10.852657830389829 ], [ -74.895117492138866, 10.851255154053183 ], [ -74.895344956981063, 10.850475038836619 ], [ -74.895376293003437, 10.85036756504234 ], [ -74.895395170159077, 10.850334869275562 ], [ -74.896031915953074, 10.84923193907313 ], [ -74.897614947135381, 10.846679296040488 ], [ -74.89951462375268, 10.843643057609725 ], [ -74.899764423148468, 10.843867299573221 ], [ -74.900569199538566, 10.844734443432365 ], [ -74.900675693789381, 10.844857435555141 ], [ -74.900830384648302, 10.845024175255677 ], [ -74.90100842981802, 10.84520454144438 ], [ -74.901228381109405, 10.845391506107228 ], [ -74.901564815413465, 10.845607514662738 ], [ -74.901796460322274, 10.845803589818139 ], [ -74.901881426897148, 10.84597543108306 ], [ -74.901975844927279, 10.846167897199051 ], [ -74.902022184894989, 10.846464185151758 ], [ -74.902026285205096, 10.8467078918383 ], [ -74.902034216783179, 10.847158518812137 ], [ -74.902009025322542, 10.847531203952951 ], [ -74.901995626111315, 10.84792679825663 ], [ -74.901974280565199, 10.848189084643385 ], [ -74.901907518391681, 10.84860115862574 ], [ -74.90189393555481, 10.848971463356435 ], [ -74.901929385180864, 10.849049385357842 ], [ -74.902132609681061, 10.84917438242598 ], [ -74.902346976282345, 10.849232616160807 ], [ -74.902475103730467, 10.84926388192028 ], [ -74.902614675130607, 10.849269772625624 ], [ -74.902709912807097, 10.849255286598043 ], [ -74.902860841623934, 10.849224301780161 ], [ -74.902962888821634, 10.84918677259077 ], [ -74.903107243717656, 10.849211024351062 ], [ -74.903205176156206, 10.849247107417854 ], [ -74.903347575186771, 10.84932195523854 ], [ -74.903471386932907, 10.849399241983818 ], [ -74.90362293641374, 10.849453328113338 ], [ -74.903783669062193, 10.849491258031421 ], [ -74.904030323345381, 10.849512463917712 ], [ -74.904225735153105, 10.849522547156743 ], [ -74.904441991381319, 10.849520982280529 ], [ -74.904648744912251, 10.849491892971688 ], [ -74.904753334878009, 10.849484238338599 ], [ -74.904832295849133, 10.849469871368632 ], [ -74.904950737722686, 10.849448317710289 ], [ -74.905076254919351, 10.849440511757036 ], [ -74.905216177812477, 10.849494682571661 ], [ -74.905963633353338, 10.848589651294057 ], [ -74.906206295842622, 10.848406362112176 ], [ -74.906423379336147, 10.848220961388476 ], [ -74.90670279844808, 10.847979963163821 ], [ -74.907052151020267, 10.847768325628223 ], [ -74.907223757298539, 10.847718828105048 ], [ -74.907356077965304, 10.847699487320181 ], [ -74.907502359691463, 10.84768234063112 ], [ -74.907715116453488, 10.847540632069835 ], [ -74.90787422093571, 10.847371737049858 ], [ -74.908077183183153, 10.847211249662921 ], [ -74.908373392156747, 10.847041360026584 ], [ -74.908637203027851, 10.846890088923194 ], [ -74.908778413279435, 10.846815531871949 ], [ -74.909865425716546, 10.846152869321228 ], [ -74.910034121314112, 10.845962724403234 ], [ -74.910156693304259, 10.84583742092669 ], [ -74.910290897293294, 10.845709731146036 ], [ -74.910443094807164, 10.845494362570497 ], [ -74.910574015880826, 10.845237672793756 ], [ -74.910737404315753, 10.844960016971871 ], [ -74.91086286605362, 10.844910722703469 ], [ -74.911015025768037, 10.844894357416425 ], [ -74.911207451158305, 10.844873661946647 ], [ -74.911426623965909, 10.844892808417162 ], [ -74.911683110580739, 10.844916290707891 ], [ -74.911881330878089, 10.844937888256792 ], [ -74.912107086200237, 10.844901692666548 ], [ -74.912242140698453, 10.844889190364574 ], [ -74.912379747419763, 10.844906621680972 ], [ -74.9125083064215, 10.844960984685976 ], [ -74.912660897325566, 10.845114239137519 ], [ -74.912717804788215, 10.845247454426516 ], [ -74.912786414817646, 10.845387495907561 ], [ -74.912918137794506, 10.84555472463334 ], [ -74.912995824282916, 10.845633125007035 ], [ -74.913050172857098, 10.845687851087384 ], [ -74.913244156187474, 10.845842655660704 ], [ -74.913366824577651, 10.845933873384279 ], [ -74.91337786518649, 10.845970249871042 ], [ -74.913417220241655, 10.845966993994084 ], [ -74.913642639632727, 10.845946960914453 ], [ -74.913925974261446, 10.845896616380088 ], [ -74.913986544133707, 10.84586441034525 ], [ -74.914097355221912, 10.845953494953385 ], [ -74.914217072229505, 10.846090792031552 ], [ -74.914267286269748, 10.846267603172926 ], [ -74.914287803568811, 10.846493647225126 ], [ -74.91425851709522, 10.84669033537811 ], [ -74.914209613667779, 10.846985383160238 ], [ -74.914247388438213, 10.847257801799145 ], [ -74.914265601063988, 10.84744998781998 ], [ -74.914460460764531, 10.847589270809278 ], [ -74.91474352335463, 10.847658404794394 ], [ -74.914991176749496, 10.847710162000746 ], [ -74.915309402613872, 10.847709295572912 ], [ -74.915486194735806, 10.847708814182484 ], [ -74.916122597143683, 10.847689608330276 ], [ -74.916670603235218, 10.847670638629877 ], [ -74.917307054211307, 10.847668902891099 ], [ -74.918173430955562, 10.847701491977681 ], [ -74.918615654913566, 10.847787664915561 ], [ -74.919128595757599, 10.847873644123888 ], [ -74.919694965194992, 10.848099288856888 ], [ -74.920137239168398, 10.848202937364551 ], [ -74.920650377327874, 10.848358819226576 ], [ -74.920898130267204, 10.848445520020478 ], [ -74.92100085367251, 10.848678302228139 ], [ -74.920971432564087, 10.848825837237568 ], [ -74.920927095799101, 10.848973414685204 ], [ -74.920815673708233, 10.849135922894225 ], [ -74.920644728996265, 10.849350200862595 ], [ -74.92051841057993, 10.849520122233328 ], [ -74.920347569100798, 10.849771265807346 ], [ -74.920221168187837, 10.849911694903986 ], [ -74.920176788048366, 10.850044525327524 ], [ -74.920124971942315, 10.850184750450072 ], [ -74.92012544712378, 10.850354325653219 ], [ -74.920215340919114, 10.8504941595533 ], [ -74.920327548171528, 10.850611818304348 ], [ -74.920424982701803, 10.850781126715928 ], [ -74.920500022703123, 10.850943121610308 ], [ -74.920589896363836, 10.851075589068451 ], [ -74.920687146180413, 10.851178539447419 ], [ -74.920762061268221, 10.851296299569047 ], [ -74.920978956879992, 10.851509518066914 ], [ -74.921061268796024, 10.851605136347402 ], [ -74.921173498296838, 10.851730166339115 ], [ -74.921300562293638, 10.851825664316136 ], [ -74.921435166126869, 10.851950633168121 ], [ -74.921584770958347, 10.852105053417008 ], [ -74.921726854878472, 10.852237371624227 ], [ -74.921816625617339, 10.852332971985522 ], [ -74.922025775081735, 10.852442989949061 ], [ -74.92216035888336, 10.852560585790073 ], [ -74.922376966985922, 10.85267058491041 ], [ -74.922526448068879, 10.852780768121583 ], [ -74.922765576750763, 10.85294231028683 ], [ -74.922958407236266, 10.853176163201868 ], [ -74.923093221333573, 10.853374856936632 ], [ -74.923295493065311, 10.853691332001505 ], [ -74.923363200007842, 10.853897584399345 ], [ -74.923453365741068, 10.854133267702336 ], [ -74.923483823100611, 10.854354366293011 ], [ -74.92349200668518, 10.85461239081708 ], [ -74.923433355383779, 10.854973819646945 ], [ -74.923464143236828, 10.855312884069404 ], [ -74.923569248077044, 10.855555896282668 ], [ -74.923703876188213, 10.855688236242456 ], [ -74.923778752451767, 10.855791249134928 ], [ -74.923987946370573, 10.855916013984672 ], [ -74.924174826161632, 10.856062953163683 ], [ -74.924436333788094, 10.856224434831066 ], [ -74.924630632010931, 10.856356612586257 ], [ -74.924891932339165, 10.856444366208683 ], [ -74.925302301081899, 10.856494844005109 ], [ -74.92564539707665, 10.856493898312218 ], [ -74.925995784847544, 10.856433950291306 ], [ -74.926271629431923, 10.856388955443229 ], [ -74.92674137533588, 10.856336047879523 ], [ -74.927054386433923, 10.856246709090698 ], [ -74.92736002185967, 10.85618688530429 ], [ -74.927658157158731, 10.856112332998482 ], [ -74.927911499285315, 10.856023161121072 ], [ -74.92813498582673, 10.855926694068698 ], [ -74.928306200091853, 10.855808260110988 ], [ -74.92843253724034, 10.855645707559574 ], [ -74.928476725155576, 10.855446518907282 ], [ -74.928491120039141, 10.855262159304027 ], [ -74.928430805429954, 10.855033773209463 ], [ -74.928393116151639, 10.854893790833863 ], [ -74.928322128400879, 10.854749673831721 ], [ -74.928197875867511, 10.854575254104052 ], [ -74.928197085148184, 10.854295638377534 ], [ -74.928390769353001, 10.854015483901671 ], [ -74.92883206412823, 10.853769592672077 ], [ -74.929220566788416, 10.853611231859588 ], [ -74.929792962736272, 10.853421712992455 ], [ -74.930333879015691, 10.853433388341674 ], [ -74.930793545092158, 10.85343211401049 ], [ -74.931217901409212, 10.853448414846287 ], [ -74.931518352687945, 10.853412628064092 ], [ -74.931850151675519, 10.853411708956138 ], [ -74.931924980277188, 10.853411498687565 ], [ -74.931968558955475, 10.853419992171371 ], [ -74.932504916829615, 10.853425937402481 ], [ -74.932590391855541, 10.85353315757726 ], [ -74.932688383265358, 10.853678918610397 ], [ -74.93279988972138, 10.853766252632452 ], [ -74.932943144430425, 10.853822068893621 ], [ -74.933172885373594, 10.85395180635253 ], [ -74.933445966059978, 10.854166782695417 ], [ -74.933787166140974, 10.854359143862744 ], [ -74.934048618977044, 10.854439393841782 ], [ -74.934241873032278, 10.854501830097963 ], [ -74.934491935280391, 10.854566379562893 ], [ -74.93476249358784, 10.854655589189564 ], [ -74.934892254583588, 10.854781065238422 ], [ -74.935042488057874, 10.85491771967952 ], [ -74.935218009682416, 10.855202549935331 ], [ -74.935507214205927, 10.855525296043705 ], [ -74.935698698712883, 10.855839290030803 ], [ -74.935828586578467, 10.85602764893048 ], [ -74.93597444731158, 10.856249659781012 ], [ -74.93609781108573, 10.856584027027917 ], [ -74.936157200422244, 10.856741106964163 ], [ -74.936476584902223, 10.857005646265923 ], [ -74.936674068029006, 10.857107218703888 ], [ -74.936823502013581, 10.857272389151683 ], [ -74.936956855768187, 10.857426261307181 ], [ -74.937090027643492, 10.85748716744007 ], [ -74.93726210327786, 10.857500372388611 ], [ -74.937397430252148, 10.857490982681432 ], [ -74.937514400677671, 10.857479371864098 ], [ -74.937645161733016, 10.857481334295539 ], [ -74.937796564550666, 10.857480979161828 ], [ -74.937973178683151, 10.8574692293467 ], [ -74.93816357522843, 10.857466515036716 ], [ -74.938347159876514, 10.857500098204918 ], [ -74.938493952989006, 10.857488417549215 ], [ -74.93869115495518, 10.857447142834147 ], [ -74.93881502921289, 10.857446848572806 ], [ -74.938950454613973, 10.85748734525505 ], [ -74.939159400294471, 10.857584352957852 ], [ -74.939327070805263, 10.857690530667906 ], [ -74.939481059417759, 10.857837549816413 ], [ -74.939572894341723, 10.857875878558996 ], [ -74.939644008007804, 10.857875713163224 ], [ -74.939726599759325, 10.857880051959187 ], [ -74.939855210975097, 10.857954576041475 ], [ -74.940013778577054, 10.858097048163161 ], [ -74.940186195691098, 10.858282572678711 ], [ -74.940294223943781, 10.858388886318323 ], [ -74.940379181572524, 10.858429499882897 ], [ -74.940480134637966, 10.858438330851939 ], [ -74.940569592167577, 10.85843358502783 ], [ -74.940647362767351, 10.858320032399909 ], [ -74.940736773544927, 10.858292612769999 ], [ -74.940901959064632, 10.858301294216522 ], [ -74.941012083960473, 10.858307837169441 ], [ -74.941172703706187, 10.858327868030226 ], [ -74.941328703575437, 10.85833203424375 ], [ -74.94152370088716, 10.858336109748981 ], [ -74.941654606981444, 10.858410628429827 ], [ -74.94177620177129, 10.858417143000917 ], [ -74.942003355731984, 10.858441550583965 ], [ -74.942472246427698, 10.858498219983533 ], [ -74.942657338015579, 10.858341667729244 ], [ -74.942764845702442, 10.858305214276632 ], [ -74.94293653984036, 10.858316124164709 ], [ -74.943064616996907, 10.858263781710974 ], [ -74.943179005757145, 10.858234100247458 ], [ -74.943307228062139, 10.858254160124455 ], [ -74.943421876245097, 10.858353443250667 ], [ -74.943492824258811, 10.858348746623159 ], [ -74.943648400437823, 10.858312179942438 ], [ -74.943790273626803, 10.858291484068245 ], [ -74.943904749122723, 10.858304787843615 ], [ -74.94401469629878, 10.858342989814643 ], [ -74.944140578579066, 10.85833816827542 ], [ -74.944268728667751, 10.858322030609752 ], [ -74.944337370408732, 10.858308291966503 ], [ -74.944813727768604, 10.85841999227323 ], [ -74.944815824786303, 10.858510502322948 ], [ -74.944827530909208, 10.858581614410626 ], [ -74.944872997274601, 10.858732953559993 ], [ -74.94499632177309, 10.85954578737045 ], [ -74.944731066927545, 10.859857455950982 ], [ -74.944089566128795, 10.860633968395732 ], [ -74.943734876754718, 10.86070937978608 ], [ -74.943434358910309, 10.860922841894816 ], [ -74.942968497270883, 10.86115394219207 ], [ -74.942751974157176, 10.861585057889144 ], [ -74.942632232787616, 10.86201590298449 ], [ -74.942439009651864, 10.862136034429913 ], [ -74.94224571768008, 10.862232243361946 ], [ -74.942101298994444, 10.862495739102712 ], [ -74.941956880060744, 10.862759231198085 ], [ -74.941982108234015, 10.863117918275931 ], [ -74.941959219649348, 10.863572406268416 ], [ -74.942102143758447, 10.863807506353202 ], [ -74.942322044453604, 10.864035639886874 ], [ -74.942420212673426, 10.864288197586257 ], [ -74.942433121124452, 10.864540991943537 ], [ -74.942324366335384, 10.864842291332204 ], [ -74.942093256231658, 10.864951297207382 ], [ -74.94169342533641, 10.865126889598118 ], [ -74.940876556239658, 10.865412221324387 ], [ -74.940584508163425, 10.865509357926417 ], [ -74.940320482046658, 10.865873047244435 ], [ -74.940054872806797, 10.866065129300246 ], [ -74.93966848662707, 10.866329301649916 ], [ -74.939213360157567, 10.866632788023022 ], [ -74.938880415827398, 10.866793184739528 ], [ -74.938412131019874, 10.866978582843238 ], [ -74.938219039623306, 10.867146542904072 ], [ -74.938026085678004, 10.867362339672708 ], [ -74.937808865624788, 10.867554283275158 ], [ -74.937591783795071, 10.867794059951297 ], [ -74.937374494836391, 10.86796208900425 ], [ -74.937012506873828, 10.868297938805297 ], [ -74.936722970556033, 10.868585754433035 ], [ -74.936384834647697, 10.868801952736176 ], [ -74.936022297749801, 10.868946467886579 ], [ -74.935814928141383, 10.86899495009707 ], [ -74.935522489849419, 10.86895723959508 ], [ -74.935247531296199, 10.86878121098168 ], [ -74.934860319067866, 10.86875837445112 ], [ -74.934449114440412, 10.868807355109833 ], [ -74.934110771992877, 10.868951800848466 ], [ -74.933845769854955, 10.86935913162181 ], [ -74.933629091641563, 10.86974241065319 ], [ -74.933430300688983, 10.869955142152591 ], [ -74.934018079272974, 10.870387085747913 ], [ -74.934309121383407, 10.870625447933993 ], [ -74.934697360260898, 10.87100703919786 ], [ -74.934940215162044, 10.871317282940035 ], [ -74.935110685393354, 10.871699481671904 ], [ -74.935258482979222, 10.872049764251747 ], [ -74.935257778700148, 10.872368748022531 ], [ -74.935065093339844, 10.87268021029689 ], [ -74.934848073279966, 10.872943904865481 ], [ -74.934631802851584, 10.87347068181427 ], [ -74.934415328219202, 10.873925712892719 ], [ -74.934222435742683, 10.874165420061107 ], [ -74.933981079625909, 10.874381346605682 ], [ -74.933545876118359, 10.874502146017411 ], [ -74.933086064691508, 10.874479511376533 ], [ -74.932723109928034, 10.874480522303671 ], [ -74.932384050663146, 10.874372263720128 ], [ -74.93207887494313, 10.874447295356685 ], [ -74.931852630707326, 10.874698195595304 ], [ -74.931509496308649, 10.874972662364561 ], [ -74.930727650729111, 10.875428919345946 ], [ -74.930806368692032, 10.87567454318166 ], [ -74.930673019956103, 10.875733824868876 ], [ -74.930308506901554, 10.876281016921062 ], [ -74.930140011402386, 10.876592405718359 ], [ -74.929997242357544, 10.87692813632972 ], [ -74.929823148970684, 10.877389138864622 ], [ -74.929840607783419, 10.8777466668227 ], [ -74.929902114882736, 10.878028094090773 ], [ -74.929830270781295, 10.878291381174128 ], [ -74.929734024542626, 10.878482985729795 ], [ -74.929564061057079, 10.878803914918294 ], [ -74.92951018563042, 10.879134556343432 ], [ -74.929478882943911, 10.879692680208192 ], [ -74.929472268696657, 10.880038325194102 ], [ -74.929570008724966, 10.880372894126449 ], [ -74.929585597865866, 10.880597168587091 ], [ -74.929553064062603, 10.88072187031632 ], [ -74.929644572448922, 10.881066282643948 ], [ -74.929572523280086, 10.88125782288849 ], [ -74.929476479887583, 10.881521175325528 ], [ -74.929331973791392, 10.881760746611217 ], [ -74.929397766434974, 10.882011750114104 ], [ -74.929475090751694, 10.882217411426513 ], [ -74.929569074877918, 10.882498881297519 ], [ -74.929819460268945, 10.883003083606528 ], [ -74.929965462174764, 10.883289687160826 ], [ -74.930038937579283, 10.883600402933943 ], [ -74.930047825555889, 10.883851048685228 ], [ -74.929998172360754, 10.884037190673361 ], [ -74.929936043191375, 10.884248167861145 ], [ -74.929836557017993, 10.884558450343528 ], [ -74.929778290693193, 10.884752127685307 ], [ -74.929825385956278, 10.885042091327463 ], [ -74.929926563254057, 10.885327017917385 ], [ -74.930065130881488, 10.885525034905255 ], [ -74.930088116670106, 10.885758985563147 ], [ -74.930055751643081, 10.885943285315527 ], [ -74.93000703528962, 10.886160132023319 ], [ -74.929988219592047, 10.886290214872767 ], [ -74.930155080879359, 10.886175976221063 ], [ -74.930314560596912, 10.886163473993388 ], [ -74.930571781391293, 10.886212741815198 ], [ -74.930807699874251, 10.886287939213039 ], [ -74.931016211700523, 10.886363205809012 ], [ -74.931323220053216, 10.886378605058646 ], [ -74.931761752957854, 10.886382802839108 ], [ -74.931962419309784, 10.886538507580344 ], [ -74.932189608241274, 10.886793684146834 ], [ -74.932612458271635, 10.887591907336098 ], [ -74.932842020692803, 10.888678448939672 ], [ -74.932843389760862, 10.889158087325995 ], [ -74.932747338003537, 10.889510088923407 ], [ -74.932037239213244, 10.89008763438463 ], [ -74.931488349761324, 10.89047287476617 ], [ -74.931295604759953, 10.890953051329161 ], [ -74.93123245003477, 10.891496818896494 ], [ -74.931169020875899, 10.891944657640625 ], [ -74.930770215941564, 10.892458865105727 ], [ -74.930139207744048, 10.893012902918333 ], [ -74.929634033138797, 10.893326919096941 ], [ -74.929519718889111, 10.893910780322686 ], [ -74.929510154450725, 10.894254676654485 ], [ -74.929410353240058, 10.894491649775093 ], [ -74.929030739680044, 10.894726457097686 ], [ -74.928370402076411, 10.895318809144005 ], [ -74.928243570117118, 10.895684764583665 ], [ -74.928127089060467, 10.896479490912688 ], [ -74.928064986578718, 10.897125115914292 ], [ -74.927985894436674, 10.897803721441356 ], [ -74.927954786091604, 10.898285264322515 ], [ -74.928063728324858, 10.898749661646745 ], [ -74.92814649424497, 10.899406850838355 ], [ -74.928122101095809, 10.899917195557652 ], [ -74.924531668933795, 10.935101846609928 ], [ -74.923758690763748, 10.936248917207125 ], [ -74.923802204999788, 10.936277414978369 ], [ -74.923638925714585, 10.936520895102175 ], [ -74.92331191604562, 10.936945525323384 ], [ -74.923156728682699, 10.937141553267098 ], [ -74.922930651627226, 10.93754121695998 ], [ -74.922823758124224, 10.93778726093184 ], [ -74.922769169136231, 10.937936590938699 ], [ -74.922753560211575, 10.938112976999548 ], [ -74.922752049286345, 10.938370750880086 ], [ -74.922796145003403, 10.939053790367849 ], [ -74.922807243122421, 10.939225684872815 ], [ -74.922817084256167, 10.939864875694548 ], [ -74.922824428301183, 10.940341831733944 ], [ -74.922862753828184, 10.941238735859015 ], [ -74.922887289184104, 10.941813598689599 ], [ -74.922871669687524, 10.942063936750989 ], [ -74.92284468070585, 10.942210767208081 ], [ -74.922780394064233, 10.942330862091554 ], [ -74.922625980583916, 10.942552223558117 ], [ -74.921732359691518, 10.943533393653825 ], [ -74.92123753535904, 10.944031322390796 ], [ -74.921102332551612, 10.944127885189536 ], [ -74.920704302584809, 10.94431420132341 ], [ -74.920363662869178, 10.944468475962978 ], [ -74.920338749696398, 10.944479758177563 ], [ -74.919647652315462, 10.944812970332826 ], [ -74.919291583813745, 10.944984610236205 ], [ -74.91918799379674, 10.945034545436279 ], [ -74.918399931361606, 10.945286749716223 ], [ -74.918457470985956, 10.945339617445061 ], [ -74.919940925788751, 10.946966066863244 ], [ -74.920024005002375, 10.947270668398129 ], [ -74.920000357027163, 10.947493286394474 ], [ -74.919917419686342, 10.947704197860496 ], [ -74.919881903452918, 10.947874094378742 ], [ -74.919864172094464, 10.948061564240199 ], [ -74.919887930614735, 10.948219725440412 ], [ -74.91994134005742, 10.94841302803677 ], [ -74.92004217720249, 10.948612174152196 ], [ -74.920196420417767, 10.948998770159825 ], [ -74.9203210509489, 10.949473247807614 ], [ -74.920392258857305, 10.949707548189121 ], [ -74.920410078604334, 10.949836425008231 ], [ -74.920427885008905, 10.94990672012954 ], [ -74.920534620123206, 10.949994559429197 ], [ -74.920860744113128, 10.950240511007571 ], [ -74.921008999912488, 10.950410353833316 ], [ -74.921109822114005, 10.950545062405167 ], [ -74.921169158126261, 10.950732507232358 ], [ -74.921228476215717, 10.950843791894863 ], [ -74.921335208247015, 10.950931631739733 ], [ -74.921560527450154, 10.951078021711325 ], [ -74.921768040591189, 10.951165838819557 ], [ -74.921957750853537, 10.951189215165428 ], [ -74.922105969098837, 10.951218462103684 ], [ -74.922277909143716, 10.951288709219334 ], [ -74.922455823861668, 10.951505414441785 ], [ -74.922604067617868, 10.951622531687043 ], [ -74.922764144428214, 10.951675206016642 ], [ -74.923013150944527, 10.951733719372815 ], [ -74.923208810048237, 10.95181567341108 ], [ -74.9234341245797, 10.951950345786221 ], [ -74.923606089421924, 10.952096751115945 ], [ -74.923813642891076, 10.95231930001705 ], [ -74.92393225631443, 10.952459858916471 ], [ -74.924116093670278, 10.952658982284238 ], [ -74.924181330989569, 10.952746833017658 ], [ -74.924915859808721, 10.950836862778978 ], [ -74.925437569120206, 10.950901149221886 ], [ -74.925817015250487, 10.951018197291207 ], [ -74.926220180956889, 10.951158668970558 ], [ -74.926451394083145, 10.951193747775354 ], [ -74.926730024989112, 10.951187806867232 ], [ -74.927091635767667, 10.951140834022116 ], [ -74.927423601383083, 10.951082149434315 ], [ -74.927850426665501, 10.95105273101778 ], [ -74.928336550589364, 10.951070157290982 ], [ -74.928798988351929, 10.951163742345143 ], [ -74.929154718030048, 10.951274935977327 ], [ -74.929540109232747, 10.951432989767749 ], [ -74.929714029348332, 10.951536678632433 ], [ -74.92916870708612, 10.952082631317069 ], [ -74.930000302903977, 10.952916144707713 ], [ -74.92624664637647, 10.956665985797938 ], [ -74.926017713709996, 10.958055489159333 ], [ -74.925834661119026, 10.959166531188171 ], [ -74.926246646850899, 10.961666097582469 ], [ -74.926666261891057, 10.962499620115441 ], [ -74.927085878626471, 10.963333134400798 ], [ -74.927497865220246, 10.965833659804511 ], [ -74.927497864555775, 10.967169997973064 ], [ -74.926675917083585, 10.966819714736108 ], [ -74.926148871980743, 10.96663241429747 ], [ -74.925801066720254, 10.966653346054409 ], [ -74.925326786801335, 10.966674317952718 ], [ -74.924894644049161, 10.966622375141707 ], [ -74.924557384091969, 10.966664128825389 ], [ -74.924199064874387, 10.966768382098145 ], [ -74.923882962135465, 10.967070491668512 ], [ -74.923472050148746, 10.967528851158361 ], [ -74.92309271619061, 10.967851810750012 ], [ -74.922639579012468, 10.968091474212965 ], [ -74.922239109116461, 10.968237390830064 ], [ -74.922056131637788, 10.968377448665027 ], [ -74.921784255314932, 10.96868000104323 ], [ -74.921434616547515, 10.969201477595343 ], [ -74.921232214078429, 10.969744388383079 ], [ -74.920955719844585, 10.970353713551745 ], [ -74.920513227973345, 10.970978704141048 ], [ -74.920094430212757, 10.971533391072125 ], [ -74.919491200402547, 10.972217517357709 ], [ -74.919586497071634, 10.972235715983887 ], [ -74.920811552759403, 10.972544019197306 ], [ -74.920818248200561, 10.972546444841047 ], [ -74.920600484724659, 10.973427078969769 ], [ -74.920417784048354, 10.974165923672562 ], [ -74.919200929458043, 10.975383895072154 ], [ -74.918231972422788, 10.975942629356567 ], [ -74.915665148634346, 10.977226055772343 ], [ -74.913749696360085, 10.977499963145045 ], [ -74.911451494629574, 10.977171320323302 ], [ -74.910835264006039, 10.977083199801797 ], [ -74.909584045456242, 10.976667406314119 ], [ -74.908332827454203, 10.976249700840734 ], [ -74.907913203069214, 10.97583389159583 ], [ -74.907501217277542, 10.9762506488553 ], [ -74.906249997201925, 10.976666450419181 ], [ -74.904998778938122, 10.977083198694711 ], [ -74.904586785186993, 10.977499963811917 ], [ -74.90416716926039, 10.979583740967472 ], [ -74.903747561111487, 10.981666562346634 ], [ -74.903335574337788, 10.982500076116608 ], [ -74.90291595655691, 10.983332641755268 ], [ -74.902496334426488, 10.984582903316985 ], [ -74.902915958069173, 10.985833176058978 ], [ -74.903747559846337, 10.986666673912307 ], [ -74.904167167790987, 10.989583973331694 ], [ -74.903883573156378, 10.991554993751688 ], [ -74.903187077013229, 10.992312051443344 ], [ -74.901257875113814, 10.992959917752845 ], [ -74.898349675235607, 10.997811716559566 ], [ -74.888732459796756, 10.991160289115346 ], [ -74.888606514647947, 10.991081782209953 ], [ -74.888795178505987, 10.990794594025553 ], [ -74.888395929241199, 10.991402339166797 ], [ -74.888133183460127, 10.991809055238877 ], [ -74.887874036936338, 10.99222476945414 ], [ -74.887416931262408, 10.992942821280501 ], [ -74.887296356143693, 10.993135381544706 ], [ -74.886877042671173, 10.99377424971102 ], [ -74.886619695776005, 10.994180965783103 ], [ -74.886159194355116, 10.99490237922314 ], [ -74.885310915849416, 10.996229393079744 ], [ -74.88399628712969, 10.998263873254439 ], [ -74.882977697320854, 10.999843947198167 ], [ -74.882027493400258, 11.001312444166368 ], [ -74.881152873882414, 11.002658566387211 ], [ -74.880602187519344, 11.003522388133218 ], [ -74.879394636703609, 11.00538860303031 ], [ -74.877906343820399, 11.007722721373147 ], [ -74.877287271569088, 11.008685522694213 ], [ -74.876707791147837, 11.009590735898874 ], [ -74.876547624199105, 11.009849882422674 ], [ -74.876401854279464, 11.010103630060554 ], [ -74.876263282874376, 11.010411366557577 ], [ -74.876184099214328, 11.010632720879988 ], [ -74.876161218091553, 11.010713114044508 ], [ -74.876086919267877, 11.011003444379313 ], [ -74.876034730037389, 11.011275188303571 ], [ -74.876004136350545, 11.011600921086963 ], [ -74.875998737464641, 11.011899659440788 ], [ -74.876023932265568, 11.012250587025102 ], [ -74.87607792112469, 11.012596115723497 ], [ -74.876144507384282, 11.012952442193724 ], [ -74.876275880274832, 11.013450939326312 ], [ -74.876318509861463, 11.013623008024569 ], [ -74.876333468391238, 11.013667344669978 ], [ -74.876420750380149, 11.014039867797941 ], [ -74.87648508710393, 11.014312061629363 ], [ -74.876535577179027, 11.014519632045078 ], [ -74.876670336376804, 11.015043160763353 ], [ -74.876749520036853, 11.015446277578155 ], [ -74.876909686985599, 11.01608334611584 ], [ -74.877010466189304, 11.01651165773157 ], [ -74.877061170160047, 11.016740897197039 ], [ -74.877162460459388, 11.016779855000825 ], [ -74.877251260233706, 11.016821037504853 ], [ -74.877311103559862, 11.016824898364607 ], [ -74.877369016456157, 11.016818463598353 ], [ -74.877412772866691, 11.016790794103454 ], [ -74.877460390136974, 11.016742533356551 ], [ -74.877565920303539, 11.016595177209309 ], [ -74.877669520040243, 11.016508307864882 ], [ -74.877752528524923, 11.016452325398463 ], [ -74.877843258729115, 11.016421438520442 ], [ -74.878037588670011, 11.016386690782667 ], [ -74.878233849040782, 11.016351943044894 ], [ -74.878377344328257, 11.016327490933126 ], [ -74.878453274570063, 11.016317838783744 ], [ -74.878831638825829, 11.016247699831565 ], [ -74.878997012318564, 11.016222604243174 ], [ -74.879317463678049, 11.016169839159893 ], [ -74.879537532683955, 11.016133804468856 ], [ -74.880075479142846, 11.016041787311419 ], [ -74.880538782313181, 11.015973578789124 ], [ -74.880828346794644, 11.015922100659084 ], [ -74.881757527041785, 11.015770240175479 ], [ -74.882182221614599, 11.015699457746678 ], [ -74.882361108116456, 11.015660849149146 ], [ -74.88300973255491, 11.015552745076064 ], [ -74.883470461818746, 11.015436919283484 ], [ -74.883920895456555, 11.015279910986875 ], [ -74.884371329094378, 11.015151215661776 ], [ -74.884628719744569, 11.015048259401709 ], [ -74.884793449760679, 11.014968468300152 ], [ -74.884953031963789, 11.014862938133577 ], [ -74.885156370577434, 11.014700782023962 ], [ -74.885274770276524, 11.01458495623138 ], [ -74.885506421861692, 11.014375182851477 ], [ -74.885678873597314, 11.014233617993872 ], [ -74.885907951275982, 11.014104922668785 ], [ -74.886396993511326, 11.013891288429134 ], [ -74.887068783108305, 11.013610732620434 ], [ -74.887655633790715, 11.013353341970252 ], [ -74.887772103059916, 11.013310872512971 ], [ -74.887920102683779, 11.013254246569932 ], [ -74.888083545746639, 11.013209846682777 ], [ -74.888234119277001, 11.013179603281374 ], [ -74.888405927535999, 11.013162872889119 ], [ -74.888584170561245, 11.013166733748868 ], [ -74.888737961474732, 11.013177672851501 ], [ -74.888882100238831, 11.01320083801002 ], [ -74.88896575220015, 11.013225933598404 ], [ -74.889284273129761, 11.01331473337272 ], [ -74.889564828938461, 11.013400959240533 ], [ -74.889925175848717, 11.013515498079867 ], [ -74.890129801415611, 11.013590141368418 ], [ -74.890307400964218, 11.013646767311453 ], [ -74.890504304811614, 11.013711114974008 ], [ -74.890647156622464, 11.013747793141659 ], [ -74.89074239116303, 11.013765167010542 ], [ -74.890840843086735, 11.013774175683301 ], [ -74.890938008057176, 11.013778036543055 ], [ -74.891118824988936, 11.01376838439367 ], [ -74.891319589696081, 11.013749080094906 ], [ -74.891694736568709, 11.013715619310387 ], [ -74.892021622694443, 11.013686019385617 ], [ -74.892309900222642, 11.013655132507596 ], [ -74.892430873828232, 11.013640976021835 ], [ -74.892553134387072, 11.013615236956817 ], [ -74.892717864403195, 11.013570193593033 ], [ -74.892923776923354, 11.013499411164236 ], [ -74.893084646079714, 11.013447933034197 ], [ -74.893201758825541, 11.013420907015931 ], [ -74.89332530633763, 11.013395167950911 ], [ -74.893452714709468, 11.013374576698897 ], [ -74.893545375343535, 11.013377150605395 ], [ -74.893640609884102, 11.013388733184655 ], [ -74.893717827079158, 11.013406750530169 ], [ -74.893832365918499, 11.013454367800454 ], [ -74.893922452646081, 11.013501985070729 ], [ -74.894018974139897, 11.013572767499534 ], [ -74.894114208680463, 11.013646123834832 ], [ -74.89420944322103, 11.01373234970265 ], [ -74.894291808229084, 11.013830158149723 ], [ -74.89437031237739, 11.01389707971877 ], [ -74.894435946993184, 11.013960140428058 ], [ -74.894500294655728, 11.014015479417852 ], [ -74.894585233570297, 11.014069531454391 ], [ -74.894725511474647, 11.014151896462447 ], [ -74.894850345939986, 11.014226539750995 ], [ -74.894988049937822, 11.014292174366805 ], [ -74.895084571431653, 11.014357808982597 ], [ -74.895182379878719, 11.014436313130899 ], [ -74.895272466606258, 11.014509669466205 ], [ -74.895381857632586, 11.014583025801507 ], [ -74.895462935687405, 11.014642225651047 ], [ -74.89554658764871, 11.014671825575821 ], [ -74.895634100469763, 11.014707860266842 ], [ -74.895823282597661, 11.014749042770873 ], [ -74.896075525434838, 11.014794086134655 ], [ -74.896284011861496, 11.01484041645169 ], [ -74.896452602737369, 11.014870016376456 ], [ -74.896617332753479, 11.014889320675223 ], [ -74.896829680039886, 11.014902190207732 ], [ -74.896996983962495, 11.014898329347981 ], [ -74.897155279212356, 11.014897042394729 ], [ -74.897318722275216, 11.014884172862221 ], [ -74.897568391205894, 11.0148558598907 ], [ -74.897780738492301, 11.014824973012679 ], [ -74.897995659685208, 11.014791512228157 ], [ -74.898268493774395, 11.014761912303381 ], [ -74.89899562236117, 11.014660242996554 ], [ -74.899658403285386, 11.014575304081999 ], [ -74.89984372455352, 11.01454699111048 ], [ -74.899848892098348, 11.014545699227268 ], [ -74.899581901934255, 11.016666405945257 ], [ -74.89875030691762, 11.017499928080353 ], [ -74.898635117961419, 11.017843139295961 ], [ -74.898330690929313, 11.018750191004921 ], [ -74.897918705238794, 11.020000454001764 ], [ -74.897499081380857, 11.022083282641278 ], [ -74.897087102396583, 11.024167060088816 ], [ -74.896667477856838, 11.024583817253912 ], [ -74.89541626006357, 11.025000573863911 ], [ -74.894165041034668, 11.025416375441086 ], [ -74.892913821970467, 11.026667601309224 ], [ -74.892501836435358, 11.027500143628549 ], [ -74.892082211798538, 11.028333665740709 ], [ -74.889167781214951, 11.031250000924743 ], [ -74.888336185251461, 11.031666758103528 ], [ -74.887496945943056, 11.032083514855762 ], [ -74.885833740057762, 11.032500271355312 ], [ -74.884162898274241, 11.032917020812111 ], [ -74.883331303046859, 11.033749587050186 ], [ -74.882499693453639, 11.034166344186865 ], [ -74.881668090295662, 11.034583085792724 ], [ -74.881248473091176, 11.034999849675643 ], [ -74.880836488077122, 11.035833355779657 ], [ -74.881668089718943, 11.037500383969389 ], [ -74.880836487545068, 11.039167403379453 ], [ -74.881248474084927, 11.039999961850919 ], [ -74.882499692645354, 11.041250232755338 ], [ -74.881668089795625, 11.042082791274034 ], [ -74.879997262977511, 11.042500496294867 ], [ -74.878334042106388, 11.042917244925468 ], [ -74.877502448133654, 11.043334010363051 ], [ -74.876663207952333, 11.043749803030758 ], [ -74.876251213641083, 11.044166559964893 ], [ -74.876169710681594, 11.044490363356832 ], [ -74.875351395496907, 11.044786853385574 ], [ -74.872571576474925, 11.045631094718173 ], [ -74.870903685061734, 11.046187058522566 ], [ -74.869894713713023, 11.046145876018539 ], [ -74.867223298321278, 11.045609853171776 ], [ -74.866719402302778, 11.044760428454875 ], [ -74.866561034982666, 11.042356124595162 ], [ -74.864977361781698, 11.03954870392065 ], [ -74.863249718289694, 11.037130003031839 ], [ -74.861320516390279, 11.036352563460429 ], [ -74.859218550141676, 11.036496533751437 ], [ -74.857490906649673, 11.036381357518636 ], [ -74.856425526496267, 11.035229595190636 ], [ -74.855043411702653, 11.034135420979029 ], [ -74.853488532559851, 11.033761098222426 ], [ -74.851760889067847, 11.033905068513425 ], [ -74.849975657459439, 11.034509743735626 ], [ -74.849140629771625, 11.035560726859938 ], [ -74.849068644626115, 11.037893045574142 ], [ -74.848723115927726, 11.039275160367747 ], [ -74.848017661501814, 11.040455716753961 ], [ -74.847038663523008, 11.041161171179855 ], [ -74.845742930904009, 11.041103583063462 ], [ -74.845383005176501, 11.040225364288359 ], [ -74.845512578438402, 11.038569705941844 ], [ -74.846347606126216, 11.035863064471039 ], [ -74.845993096198839, 11.035732172050436 ], [ -74.845128263614228, 11.035876310814546 ], [ -74.844139883517528, 11.03599985832663 ], [ -74.84376924098126, 11.035690989546401 ], [ -74.843336824688947, 11.034805565709767 ], [ -74.843151503420813, 11.034167236897323 ], [ -74.841586568267701, 11.034373149417467 ], [ -74.839506851814221, 11.035320347010138 ], [ -74.838436106709466, 11.03651463962699 ], [ -74.837550682872845, 11.036658778391088 ], [ -74.834029578778328, 11.039994561217469 ], [ -74.83227932235711, 11.044040742238352 ], [ -74.83217636609703, 11.044323871953555 ], [ -74.831527741658562, 11.04480261856289 ], [ -74.83080704783805, 11.045621120830475 ], [ -74.830498179057841, 11.045857920228645 ], [ -74.829545833652162, 11.046928665333406 ], [ -74.829315920700822, 11.046804806587087 ], [ -74.822700918778963, 11.042242118502893 ], [ -74.824784379700702, 11.039172756341962 ], [ -74.824413262762619, 11.039142610294141 ], [ -74.826492604111451, 11.035538370717058 ], [ -74.827846229913874, 11.030123868019633 ], [ -74.828929131424687, 11.025521537763835 ], [ -74.828929130820384, 11.018482681607896 ], [ -74.828387680654203, 11.013609628345055 ], [ -74.828014943348194, 11.011745948021536 ], [ -74.828037202704678, 11.011711833098849 ], [ -74.828177480609028, 11.011530372690466 ], [ -74.828403984381183, 11.011186756172469 ] ] ] } },
{ "type": "Feature", "properties": { "ciudad": "Veracruz", "pais": "México", "caso": "Caso comparado", "tipo_interfaz": "Frente marítimo abierto y lagunas interdunarias", "area_ha": 31600.0 }, "geometry": { "type": "Polygon", "coordinates": [ [ [ -96.145177956907617, 19.31359511911954 ], [ -96.116973026899984, 19.29509451358177 ], [ -96.089093740952194, 19.258538934849842 ], [ -96.061386818791092, 19.212955068418083 ], [ -96.034016974982606, 19.149318121984113 ], [ -96.016158208999556, 19.085833611619446 ], [ -96.031202036389644, 19.040936678600644 ], [ -96.064896008557554, 19.014390968200996 ], [ -96.102384818225275, 19.04206830857586 ], [ -96.129926501262744, 19.096670640361257 ], [ -96.147831008498258, 19.160149926004458 ], [ -96.175248343553321, 19.223775743747233 ], [ -96.183826038507775, 19.278080964724023 ], [ -96.169024208431807, 19.309452603485973 ], [ -96.145177956907617, 19.31359511911954 ] ] ] } },
{ "type": "Feature", "properties": { "ciudad": "Santos", "pais": "Brasil", "caso": "Caso comparado", "tipo_interfaz": "Canal estuarino, manglares y muralla montañosa", "area_ha": 35500.0 }, "geometry": { "type": "Polygon", "coordinates": [ [ [ -46.365871884673233, -23.937687233231486 ], [ -46.27762974277978, -23.956508205153725 ], [ -46.219012719638556, -23.99310859691689 ], [ -46.170357586671336, -24.047673632376576 ], [ -46.141497054972803, -24.120139436893375 ], [ -46.200867485398867, -24.155807383996766 ], [ -46.279238563109089, -24.119047931943605 ], [ -46.337705378080152, -24.064363904517922 ], [ -46.396122666297536, -24.009659351592155 ], [ -46.41518950358595, -23.95530176592456 ], [ -46.365871884673233, -23.937687233231486 ] ] ] } },
{ "type": "Feature", "properties": { "ciudad": "Valparaíso", "pais": "Chile", "caso": "Caso comparado", "tipo_interfaz": "Bahía semicircular y anfiteatro de cerros abruptos", "area_ha": 47950.0 }, "geometry": { "type": "Polygon", "coordinates": [ [ [ -71.576301494234343, -32.889676187512407 ], [ -71.523407951416715, -32.90878920315884 ], [ -71.460303504315448, -32.946116007181139 ], [ -71.386451398149575, -32.983618103651438 ], [ -71.312534984819195, -33.021079072420761 ], [ -71.335359625832027, -33.074757326994956 ], [ -71.409800035099551, -33.055306142296487 ], [ -71.485218159011211, -33.071859111002816 ], [ -71.561184646934379, -33.106387418451156 ], [ -71.635861339456184, -33.095813133791978 ], [ -71.677860710841642, -33.067868618507944 ], [ -71.70885957595209, -33.031133890171311 ], [ -71.664987135283724, -32.996013821637256 ], [ -71.621149394471644, -32.960876380503208 ], [ -71.598452556219826, -32.916267650919259 ], [ -71.576301494234343, -32.889676187512407 ] ] ] } }
]
}
