{
"type": "FeatureCollection",
"name": "ciudades_puerto_latinoamerica",
"crs": { "type": "name", "properties": { "name": "urn:ogc:def:crs:OGC:1.3:CRS84" } },
"xy_coordinate_resolution": 0.0001,
"features": [
{ "type": "Feature", "properties": { "id": null, "NOMBRE": "VERACRUZ" }, "geometry": { "type": "Point", "coordinates": [ -96.1509, 19.1904 ] } },
{ "type": "Feature", "properties": { "id": null, "NOMBRE": "BARRANQUILLA" }, "geometry": { "type": "Point", "coordinates": [ -74.8043, 10.9845 ] } },
{ "type": "Feature", "properties": { "id": null, "NOMBRE": "SANTOS" }, "geometry": { "type": "Point", "coordinates": [ -46.3569, -23.9495 ] } },
{ "type": "Feature", "properties": { "id": null, "NOMBRE": "VALPARAISO" }, "geometry": { "type": "Point", "coordinates": [ -71.6079, -33.055 ] } }
]
}
