{
"type": "FeatureCollection",
"name": "corredores_economicos",
"crs": { "type": "name", "properties": { "name": "urn:ogc:def:crs:OGC:1.3:CRS84" } },
"xy_coordinate_resolution": 1e-06,
"features": [
{ "type": "Feature", "properties": { "id": null, "NOMBRE": "BARRANQUILLA-PUERTO COLOMBIA" }, "geometry": { "type": "LineString", "coordinates": [ [ -74.842434, 11.012101 ], [ -74.849225, 11.015675 ], [ -74.869331, 11.014156 ] ] } },
{ "type": "Feature", "properties": { "id": null, "NOMBRE": "BARRANQUILLA-PUERTO COLOMBIA" }, "geometry": { "type": "LineString", "coordinates": [ [ -74.869599, 11.016301 ], [ -74.854185, 11.017954 ], [ -74.841719, 11.013396 ] ] } },
{ "type": "Feature", "properties": { "id": null, "NOMBRE": "BARRANQUILLA VIA 40" }, "geometry": { "type": "LineString", "coordinates": [ [ -74.774296, 10.986365 ], [ -74.781713, 11.001199 ], [ -74.799785, 11.021814 ] ] } },
{ "type": "Feature", "properties": { "id": null, "NOMBRE": "BARRANQUILLA-LAS FLORES" }, "geometry": { "type": "LineString", "coordinates": [ [ -74.8255, 11.043019 ], [ -74.816877, 11.038909 ], [ -74.80803, 11.034083 ] ] } },
{ "type": "Feature", "properties": { "id": null, "NOMBRE": "BARRANQUILLA-LAS FLORES" }, "geometry": { "type": "LineString", "coordinates": [ [ -74.810175, 11.030062 ], [ -74.817592, 11.034977 ], [ -74.826751, 11.039624 ] ] } },
{ "type": "Feature", "properties": { "id": null, "NOMBRE": "BARRANQUILLA-GALAPA" }, "geometry": { "type": "LineString", "coordinates": [ [ -74.836424, 10.942198 ], [ -74.845628, 10.939518 ], [ -74.862428, 10.926918 ] ] } },
{ "type": "Feature", "properties": { "id": null, "NOMBRE": "BARRANQUILLA-GALAPA" }, "geometry": { "type": "LineString", "coordinates": [ [ -74.859122, 10.925801 ], [ -74.837139, 10.939205 ] ] } },
{ "type": "Feature", "properties": { "id": null, "NOMBRE": "BARRANQUILLA-SOLEDAD-MALAMBO" }, "geometry": { "type": "LineString", "coordinates": [ [ -74.780083, 10.957211 ], [ -74.772219, 10.918965 ], [ -74.768644, 10.863919 ] ] } },
{ "type": "Feature", "properties": { "id": null, "NOMBRE": "BARRANQUILLA-SOLEDAD-MALAMBO" }, "geometry": { "type": "LineString", "coordinates": [ [ -74.779368, 10.864991 ], [ -74.783299, 10.906097 ], [ -74.785802, 10.952922 ] ] } },
{ "type": "Feature", "properties": { "id": null, "NOMBRE": "BARRANQUILLA VIA 40" }, "geometry": { "type": "LineString", "coordinates": [ [ -74.801339, 11.020623 ], [ -74.777603, 10.986633 ] ] } }
]
}
