{
"type": "FeatureCollection",
"name": "delimitacion_franja_interfaz_ecologica",
"crs": { "type": "name", "properties": { "name": "urn:ogc:def:crs:OGC:1.3:CRS84" } },
"xy_coordinate_resolution": 1e-06,
"features": [
{ "type": "Feature", "properties": { "nombre": "Franja de Interfaz Ecológica de Humedales Interdunarios", "tipo": "Zona de Conflicto Socioambiental y Pérdida de Servicios Ecosistémicos", "impacto": "Pérdida de 35% de humedales por relleno portuario e industrial", "area_ha": 2640.0 }, "geometry": { "type": "Polygon", "coordinates": [ [ [ -96.136221, 19.281855 ], [ -96.093686, 19.26764 ], [ -96.065736, 19.235595 ], [ -96.085298, 19.204309 ], [ -96.113485, 19.222812 ], [ -96.141522, 19.250338 ], [ -96.150635, 19.273052 ], [ -96.136221, 19.281855 ] ] ] } }
]
}
