{
"type": "FeatureCollection",
"name": "delimitacion_y_sombreado_tenue_franja_rmbs",
"crs": { "type": "name", "properties": { "name": "urn:ogc:def:crs:OGC:1.3:CRS84" } },
"xy_coordinate_resolution": 1e-06,
"features": [
{ "type": "Feature", "properties": { "nombre": "Franja de Interfaz Metropolitana-Portuaria-Ecológica (RMBS)", "tipo": "Interfaz Metropolitana Periurbana y Estuarina", "municipios": "Santos, Sao Vicente, Cubatao, Guaruja, Praia Grande", "area_ha": 18900.0 }, "geometry": { "type": "Polygon", "coordinates": [ [ [ -46.365872, -23.937687 ], [ -46.27763, -23.956508 ], [ -46.219013, -23.993109 ], [ -46.170358, -24.047674 ], [ -46.141497, -24.120139 ], [ -46.200867, -24.155807 ], [ -46.279239, -24.119048 ], [ -46.337705, -24.064364 ], [ -46.396123, -24.009659 ], [ -46.41519, -23.955302 ], [ -46.365872, -23.937687 ] ] ] } }
]
}
