{
"type": "FeatureCollection",
"name": "delimitacion_franja_interfaz_portuario_costera",
"crs": { "type": "name", "properties": { "name": "urn:ogc:def:crs:OGC:1.3:CRS84" } },
"xy_coordinate_resolution": 1e-06,
"features": [
{ "type": "Feature", "properties": { "nombre": "Franja de Interfaz Portuario-Costera Norte (Bahía Norte / ASIPONA)", "tipo": "Interfaz Portuaria y Logística de Borde", "zona": "Bahia Norte - ZAL Santa Fe - Rio Medio", "area_ha": 1850.0 }, "geometry": { "type": "Polygon", "coordinates": [ [ [ -96.112616, 19.272455 ], [ -96.07959, 19.258387 ], [ -96.056234, 19.235442 ], [ -96.070888, 19.213107 ], [ -96.094481, 19.222511 ], [ -96.117921, 19.240939 ], [ -96.131861, 19.259215 ], [ -96.112616, 19.272455 ] ] ] } }
]
}
