{
"type": "FeatureCollection",
"name": "departamentos202305_depto_atlantico",
"crs": { "type": "name", "properties": { "name": "urn:ogc:def:crs:OGC:1.3:CRS84" } },
"xy_coordinate_resolution": 1e-06,
"features": [
{ "type": "Feature", "properties": { "OBJECTID": 73, "DeCodigo": "08", "DeNombre": "Atlántico", "DeArea": 3313.3844614584987, "DeNorma": "Ley No. 21 de 1910", "SHAPE_Length": 279277.41652299173, "SHAPE_Area": 3313384461.4584985 }, "geometry": { "type": "Polygon", "coordinates": [ [ [ -74.849462, 11.097782 ], [ -74.84869, 11.094987 ], [ -74.848095, 11.091968 ], [ -74.847585, 11.08821 ], [ -74.846802, 11.080199 ], [ -74.846421, 11.077066 ], [ -74.845846, 11.073723 ], [ -74.84503, 11.070499 ], [ -74.844419, 11.068696 ], [ -74.843715, 11.067006 ], [ -74.841437, 11.062585 ], [ -74.840165, 11.060416 ], [ -74.83905, 11.058699 ], [ -74.837952, 11.057173 ], [ -74.836424, 11.055244 ], [ -74.834481, 11.053042 ], [ -74.832443, 11.05099 ], [ -74.83033, 11.049109 ], [ -74.828161, 11.047416 ], [ -74.827032, 11.046631 ], [ -74.826146, 11.046107 ], [ -74.822091, 11.044144 ], [ -74.82047, 11.043248 ], [ -74.819343, 11.042452 ], [ -74.817823, 11.041133 ], [ -74.816716, 11.040268 ], [ -74.814396, 11.038758 ], [ -74.812241, 11.03758 ], [ -74.805984, 11.034472 ], [ -74.804334, 11.033553 ], [ -74.802718, 11.03253 ], [ -74.801121, 11.031334 ], [ -74.79974, 11.030078 ], [ -74.798535, 11.028815 ], [ -74.795168, 11.025034 ], [ -74.793985, 11.023855 ], [ -74.793084, 11.023064 ], [ -74.792202, 11.022406 ], [ -74.791156, 11.021748 ], [ -74.786507, 11.019237 ], [ -74.785518, 11.018591 ], [ -74.784755, 11.018003 ], [ -74.78397, 11.017266 ], [ -74.782909, 11.015994 ], [ -74.782141, 11.015221 ], [ -74.781234, 11.014474 ], [ -74.778442, 11.012419 ], [ -74.77678, 11.010932 ], [ -74.774586, 11.008773 ], [ -74.772632, 11.006677 ], [ -74.770169, 11.003808 ], [ -74.766721, 10.999479 ], [ -74.764499, 10.996373 ], [ -74.762927, 10.993859 ], [ -74.761836, 10.991834 ], [ -74.761099, 10.990247 ], [ -74.760017, 10.987497 ], [ -74.759258, 10.98524 ], [ -74.758895, 10.983876 ], [ -74.75864, 10.982593 ], [ -74.758508, 10.981572 ], [ -74.758368, 10.979379 ], [ -74.758114, 10.977891 ], [ -74.757672, 10.976219 ], [ -74.756432, 10.972249 ], [ -74.755972, 10.970176 ], [ -74.755856, 10.969125 ], [ -74.755837, 10.968247 ], [ -74.756167, 10.964795 ], [ -74.755878, 10.962697 ], [ -74.755856, 10.96205 ], [ -74.755923, 10.961583 ], [ -74.756322, 10.96013 ], [ -74.756721, 10.958335 ], [ -74.757251, 10.954985 ], [ -74.757437, 10.953009 ], [ -74.75753, 10.951159 ], [ -74.757487, 10.947703 ], [ -74.75734, 10.945796 ], [ -74.757094, 10.943822 ], [ -74.756759, 10.941924 ], [ -74.756335, 10.940071 ], [ -74.755686, 10.937715 ], [ -74.755354, 10.936738 ], [ -74.754789, 10.935519 ], [ -74.754053, 10.934279 ], [ -74.753188, 10.933262 ], [ -74.752271, 10.932694 ], [ -74.751219, 10.932338 ], [ -74.747937, 10.931624 ], [ -74.747077, 10.931303 ], [ -74.746464, 10.930954 ], [ -74.745398, 10.930093 ], [ -74.744261, 10.928973 ], [ -74.743532, 10.928039 ], [ -74.7423, 10.926084 ], [ -74.741569, 10.925078 ], [ -74.740502, 10.923975 ], [ -74.739146, 10.922828 ], [ -74.737709, 10.921779 ], [ -74.735277, 10.920176 ], [ -74.733889, 10.919417 ], [ -74.730478, 10.917831 ], [ -74.729032, 10.917078 ], [ -74.728027, 10.916449 ], [ -74.72636, 10.915196 ], [ -74.725233, 10.914508 ], [ -74.723923, 10.913895 ], [ -74.722062, 10.913435 ], [ -74.721292, 10.913015 ], [ -74.720378, 10.912271 ], [ -74.719632, 10.911427 ], [ -74.718756, 10.910076 ], [ -74.718384, 10.909221 ], [ -74.71833, 10.908799 ], [ -74.718378, 10.908432 ], [ -74.718621, 10.907588 ], [ -74.718867, 10.906997 ], [ -74.719582, 10.905851 ], [ -74.720573, 10.904758 ], [ -74.721861, 10.903657 ], [ -74.724836, 10.901478 ], [ -74.726972, 10.899784 ], [ -74.73124, 10.896877 ], [ -74.732286, 10.89601 ], [ -74.73304, 10.895249 ], [ -74.734142, 10.893883 ], [ -74.734972, 10.892513 ], [ -74.735666, 10.891009 ], [ -74.736502, 10.888761 ], [ -74.737069, 10.886781 ], [ -74.737782, 10.883496 ], [ -74.738051, 10.881538 ], [ -74.738166, 10.879691 ], [ -74.738175, 10.877865 ], [ -74.738092, 10.875793 ], [ -74.737513, 10.868841 ], [ -74.737352, 10.866192 ], [ -74.73733, 10.863608 ], [ -74.737477, 10.861336 ], [ -74.737722, 10.859643 ], [ -74.738089, 10.858027 ], [ -74.73855, 10.856558 ], [ -74.739937, 10.852658 ], [ -74.740709, 10.849472 ], [ -74.741071, 10.847427 ], [ -74.741366, 10.845151 ], [ -74.741559, 10.842818 ], [ -74.741645, 10.840635 ], [ -74.741589, 10.837412 ], [ -74.740784, 10.834823 ], [ -74.740146, 10.830531 ], [ -74.739639, 10.827953 ], [ -74.739088, 10.821028 ], [ -74.738325, 10.815128 ], [ -74.737718, 10.807621 ], [ -74.736237, 10.800168 ], [ -74.734008, 10.794448 ], [ -74.731281, 10.789295 ], [ -74.729145, 10.784688 ], [ -74.727368, 10.781123 ], [ -74.726881, 10.779357 ], [ -74.72555, 10.775119 ], [ -74.725114, 10.771726 ], [ -74.725266, 10.767434 ], [ -74.726027, 10.764341 ], [ -74.72743, 10.760292 ], [ -74.72776, 10.755839 ], [ -74.727745, 10.748895 ], [ -74.727636, 10.748047 ], [ -74.727604, 10.742167 ], [ -74.726925, 10.740105 ], [ -74.726669, 10.738739 ], [ -74.726215, 10.737833 ], [ -74.725986, 10.736007 ], [ -74.725921, 10.706666 ], [ -74.725429, 10.70477 ], [ -74.725236, 10.702428 ], [ -74.725188, 10.688615 ], [ -74.724711, 10.685641 ], [ -74.724048, 10.683263 ], [ -74.723779, 10.680308 ], [ -74.72287, 10.677056 ], [ -74.722842, 10.672576 ], [ -74.723303, 10.668615 ], [ -74.723639, 10.666993 ], [ -74.726467, 10.665673 ], [ -74.727275, 10.665186 ], [ -74.729007, 10.664296 ], [ -74.73068, 10.663264 ], [ -74.732556, 10.66246 ], [ -74.733681, 10.661686 ], [ -74.735499, 10.660596 ], [ -74.737374, 10.659221 ], [ -74.73847, 10.658533 ], [ -74.741355, 10.656469 ], [ -74.743748, 10.65455 ], [ -74.744843, 10.653376 ], [ -74.745218, 10.652746 ], [ -74.746284, 10.651401 ], [ -74.746657, 10.650686 ], [ -74.746945, 10.649885 ], [ -74.747059, 10.649199 ], [ -74.747023, 10.646256 ], [ -74.746413, 10.644485 ], [ -74.746094, 10.643857 ], [ -74.74534, 10.642716 ], [ -74.741922, 10.63818 ], [ -74.741052, 10.636838 ], [ -74.740385, 10.635383 ], [ -74.740153, 10.635097 ], [ -74.739805, 10.634469 ], [ -74.738994, 10.633614 ], [ -74.737809, 10.633016 ], [ -74.737144, 10.632932 ], [ -74.735584, 10.633049 ], [ -74.734544, 10.632994 ], [ -74.733966, 10.632824 ], [ -74.73359, 10.632596 ], [ -74.732867, 10.631941 ], [ -74.731984, 10.63126 ], [ -74.731442, 10.630602 ], [ -74.730219, 10.629513 ], [ -74.729643, 10.628721 ], [ -74.729193, 10.627854 ], [ -74.728568, 10.627012 ], [ -74.728062, 10.626042 ], [ -74.726651, 10.623683 ], [ -74.726117, 10.622161 ], [ -74.725211, 10.620378 ], [ -74.725036, 10.619733 ], [ -74.724937, 10.617755 ], [ -74.724508, 10.61575 ], [ -74.724411, 10.61449 ], [ -74.72422, 10.61337 ], [ -74.724211, 10.608704 ], [ -74.724395, 10.60679 ], [ -74.724628, 10.605297 ], [ -74.725002, 10.603616 ], [ -74.726148, 10.601234 ], [ -74.727072, 10.601138 ], [ -74.729426, 10.599174 ], [ -74.729991, 10.598473 ], [ -74.732342, 10.594968 ], [ -74.733751, 10.592398 ], [ -74.734032, 10.591604 ], [ -74.734313, 10.590531 ], [ -74.734819, 10.587648 ], [ -74.735782, 10.584348 ], [ -74.73636, 10.583539 ], [ -74.737269, 10.583291 ], [ -74.737834, 10.58287 ], [ -74.73821, 10.582076 ], [ -74.738396, 10.581049 ], [ -74.738441, 10.580022 ], [ -74.73744, 10.568381 ], [ -74.736538, 10.563255 ], [ -74.73595, 10.560316 ], [ -74.735784, 10.556556 ], [ -74.735778, 10.55405 ], [ -74.735929, 10.550604 ], [ -74.736242, 10.548723 ], [ -74.737658, 10.544648 ], [ -74.738919, 10.542295 ], [ -74.74129, 10.540411 ], [ -74.744451, 10.538211 ], [ -74.748721, 10.536165 ], [ -74.752516, 10.534591 ], [ -74.757262, 10.533014 ], [ -74.762164, 10.530498 ], [ -74.767066, 10.528137 ], [ -74.770857, 10.524526 ], [ -74.774965, 10.521541 ], [ -74.780653, 10.516829 ], [ -74.782391, 10.515259 ], [ -74.786811, 10.51008 ], [ -74.788704, 10.507256 ], [ -74.792965, 10.50192 ], [ -74.796752, 10.496743 ], [ -74.798486, 10.493763 ], [ -74.800694, 10.490155 ], [ -74.802429, 10.487488 ], [ -74.804322, 10.485134 ], [ -74.806533, 10.482936 ], [ -74.808423, 10.479015 ], [ -74.809971, 10.475273 ], [ -74.810956, 10.468266 ], [ -74.811282, 10.464697 ], [ -74.811859, 10.454519 ], [ -74.812047, 10.449694 ], [ -74.811907, 10.446853 ], [ -74.812034, 10.444143 ], [ -74.81223, 10.442226 ], [ -74.812692, 10.43978 ], [ -74.814014, 10.434358 ], [ -74.814876, 10.431713 ], [ -74.816138, 10.429 ], [ -74.8172, 10.426355 ], [ -74.818064, 10.424833 ], [ -74.819263, 10.423574 ], [ -74.822259, 10.420131 ], [ -74.82472, 10.416491 ], [ -74.825318, 10.4153 ], [ -74.827177, 10.411198 ], [ -74.831216, 10.411463 ], [ -74.833393, 10.411012 ], [ -74.834143, 10.41075 ], [ -74.835982, 10.410263 ], [ -74.837145, 10.409739 ], [ -74.838232, 10.409068 ], [ -74.839619, 10.408172 ], [ -74.842955, 10.405748 ], [ -74.846142, 10.403845 ], [ -74.847267, 10.403099 ], [ -74.853561, 10.397619 ], [ -74.856333, 10.394862 ], [ -74.858018, 10.392962 ], [ -74.858766, 10.391956 ], [ -74.859739, 10.390467 ], [ -74.861907, 10.386522 ], [ -74.863475, 10.382987 ], [ -74.864704, 10.378932 ], [ -74.865109, 10.375883 ], [ -74.86552, 10.37499 ], [ -74.865743, 10.374134 ], [ -74.86589, 10.373093 ], [ -74.865813, 10.372015 ], [ -74.865661, 10.371235 ], [ -74.865132, 10.369972 ], [ -74.863245, 10.366223 ], [ -74.862607, 10.363851 ], [ -74.861742, 10.358203 ], [ -74.861588, 10.356717 ], [ -74.861031, 10.353844 ], [ -74.861228, 10.352654 ], [ -74.861813, 10.351083 ], [ -74.867403, 10.342456 ], [ -74.871407, 10.335222 ], [ -74.875238, 10.327788 ], [ -74.880196, 10.318498 ], [ -74.884449, 10.312146 ], [ -74.887992, 10.306618 ], [ -74.891537, 10.301676 ], [ -74.895316, 10.295443 ], [ -74.898617, 10.287801 ], [ -74.901337, 10.279819 ], [ -74.903098, 10.275241 ], [ -74.905378, 10.266813 ], [ -74.907164, 10.258725 ], [ -74.907807, 10.256505 ], [ -74.90812, 10.253878 ], [ -74.908124, 10.253286 ], [ -74.908625, 10.25368 ], [ -74.909618, 10.254836 ], [ -74.910836, 10.255615 ], [ -74.913722, 10.258711 ], [ -74.916734, 10.26214 ], [ -74.918391, 10.26445 ], [ -74.919871, 10.265947 ], [ -74.923173, 10.270743 ], [ -74.925017, 10.272935 ], [ -74.927356, 10.276275 ], [ -74.929772, 10.279192 ], [ -74.930456, 10.280307 ], [ -74.937327, 10.289478 ], [ -74.937885, 10.290361 ], [ -74.945352, 10.300278 ], [ -74.961501, 10.321224 ], [ -74.963847, 10.324902 ], [ -74.97035, 10.329681 ], [ -74.974948, 10.334295 ], [ -74.979548, 10.339508 ], [ -74.983193, 10.343353 ], [ -74.984494, 10.344206 ], [ -74.987092, 10.345226 ], [ -74.98978, 10.347104 ], [ -75.000191, 10.356926 ], [ -75.00288, 10.359146 ], [ -75.00496, 10.360253 ], [ -75.011541, 10.361948 ], [ -75.017601, 10.363215 ], [ -75.021582, 10.363375 ], [ -75.024092, 10.363621 ], [ -75.025776, 10.36393 ], [ -75.02773, 10.364703 ], [ -75.030095, 10.366196 ], [ -75.034254, 10.369499 ], [ -75.043558, 10.374557 ], [ -75.045962, 10.376285 ], [ -75.047977, 10.377938 ], [ -75.050022, 10.379469 ], [ -75.052984, 10.381902 ], [ -75.055658, 10.385123 ], [ -75.0642, 10.397616 ], [ -75.067655, 10.402505 ], [ -75.070266, 10.40585 ], [ -75.072173, 10.407626 ], [ -75.074007, 10.409213 ], [ -75.076957, 10.410431 ], [ -75.079636, 10.411255 ], [ -75.082351, 10.411966 ], [ -75.084857, 10.41197 ], [ -75.091125, 10.409938 ], [ -75.098122, 10.407332 ], [ -75.101426, 10.40617 ], [ -75.102278, 10.40593 ], [ -75.104726, 10.404888 ], [ -75.107152, 10.403946 ], [ -75.109983, 10.403336 ], [ -75.11776, 10.402487 ], [ -75.119423, 10.402214 ], [ -75.122386, 10.40078 ], [ -75.124816, 10.399439 ], [ -75.126951, 10.39849 ], [ -75.129254, 10.397311 ], [ -75.130029, 10.397588 ], [ -75.129524, 10.397854 ], [ -75.12695, 10.398896 ], [ -75.133387, 10.404721 ], [ -75.133425, 10.405021 ], [ -75.133309, 10.405642 ], [ -75.133137, 10.405939 ], [ -75.132954, 10.406152 ], [ -75.132179, 10.406612 ], [ -75.136502, 10.408857 ], [ -75.136773, 10.409212 ], [ -75.136567, 10.4096 ], [ -75.136968, 10.41004 ], [ -75.137324, 10.41027 ], [ -75.137765, 10.4104 ], [ -75.138051, 10.410569 ], [ -75.138042, 10.410734 ], [ -75.138458, 10.410848 ], [ -75.139424, 10.41049 ], [ -75.139668, 10.410617 ], [ -75.140309, 10.412165 ], [ -75.139997, 10.41252 ], [ -75.13994, 10.412708 ], [ -75.140746, 10.41307 ], [ -75.14111, 10.413142 ], [ -75.141346, 10.413125 ], [ -75.142027, 10.412818 ], [ -75.142259, 10.413007 ], [ -75.142348, 10.413148 ], [ -75.142349, 10.414 ], [ -75.142463, 10.414789 ], [ -75.143005, 10.416515 ], [ -75.143037, 10.416992 ], [ -75.14314, 10.417256 ], [ -75.143525, 10.417723 ], [ -75.144256, 10.418363 ], [ -75.144971, 10.419287 ], [ -75.146515, 10.419846 ], [ -75.146816, 10.419982 ], [ -75.147112, 10.420235 ], [ -75.148219, 10.420744 ], [ -75.148643, 10.421023 ], [ -75.148996, 10.421104 ], [ -75.149269, 10.421258 ], [ -75.1505, 10.422298 ], [ -75.150728, 10.422419 ], [ -75.152104, 10.422694 ], [ -75.152689, 10.423111 ], [ -75.152819, 10.423326 ], [ -75.152942, 10.423892 ], [ -75.153067, 10.425291 ], [ -75.15334, 10.425688 ], [ -75.153395, 10.426057 ], [ -75.153028, 10.426871 ], [ -75.152951, 10.427468 ], [ -75.152709, 10.428142 ], [ -75.152797, 10.428643 ], [ -75.152936, 10.428766 ], [ -75.153047, 10.429124 ], [ -75.153175, 10.429261 ], [ -75.153033, 10.429497 ], [ -75.153015, 10.43049 ], [ -75.152618, 10.431054 ], [ -75.152335, 10.431594 ], [ -75.152561, 10.432002 ], [ -75.152699, 10.431938 ], [ -75.152819, 10.432002 ], [ -75.153114, 10.432307 ], [ -75.15318, 10.432487 ], [ -75.153223, 10.43364 ], [ -75.153122, 10.434158 ], [ -75.153134, 10.434598 ], [ -75.153378, 10.434925 ], [ -75.153917, 10.435258 ], [ -75.154575, 10.435371 ], [ -75.155191, 10.435559 ], [ -75.155672, 10.436362 ], [ -75.156036, 10.436649 ], [ -75.156372, 10.436768 ], [ -75.156757, 10.437166 ], [ -75.156974, 10.437661 ], [ -75.157424, 10.438255 ], [ -75.157671, 10.438739 ], [ -75.1578, 10.439614 ], [ -75.157678, 10.440035 ], [ -75.157573, 10.440099 ], [ -75.157444, 10.440557 ], [ -75.157501, 10.440896 ], [ -75.157451, 10.441047 ], [ -75.157524, 10.441325 ], [ -75.15794, 10.441852 ], [ -75.157723, 10.44187 ], [ -75.158296, 10.442941 ], [ -75.15858, 10.443095 ], [ -75.158891, 10.443522 ], [ -75.15929, 10.44381 ], [ -75.159766, 10.444018 ], [ -75.160399, 10.444148 ], [ -75.161202, 10.444565 ], [ -75.161539, 10.44467 ], [ -75.161976, 10.44508 ], [ -75.164246, 10.446542 ], [ -75.164618, 10.446907 ], [ -75.165753, 10.447406 ], [ -75.166595, 10.448215 ], [ -75.166812, 10.44864 ], [ -75.166851, 10.449789 ], [ -75.16708, 10.450023 ], [ -75.167397, 10.450208 ], [ -75.168055, 10.451499 ], [ -75.168283, 10.451792 ], [ -75.171218, 10.453447 ], [ -75.172308, 10.453874 ], [ -75.173021, 10.454029 ], [ -75.173506, 10.454331 ], [ -75.174058, 10.454827 ], [ -75.174428, 10.455025 ], [ -75.175562, 10.455244 ], [ -75.176297, 10.455211 ], [ -75.177339, 10.455916 ], [ -75.177628, 10.456472 ], [ -75.177894, 10.456766 ], [ -75.180218, 10.458087 ], [ -75.181277, 10.45853 ], [ -75.181857, 10.459036 ], [ -75.182303, 10.459586 ], [ -75.183004, 10.460883 ], [ -75.184659, 10.461872 ], [ -75.185351, 10.462541 ], [ -75.187122, 10.463305 ], [ -75.188012, 10.464382 ], [ -75.188331, 10.464926 ], [ -75.188513, 10.46544 ], [ -75.188715, 10.465788 ], [ -75.188858, 10.46594 ], [ -75.18947, 10.466277 ], [ -75.189901, 10.467502 ], [ -75.190415, 10.467893 ], [ -75.191032, 10.467893 ], [ -75.19149, 10.468212 ], [ -75.191698, 10.468264 ], [ -75.192781, 10.468303 ], [ -75.193514, 10.468192 ], [ -75.193731, 10.468235 ], [ -75.194385, 10.468766 ], [ -75.195459, 10.469217 ], [ -75.195658, 10.469437 ], [ -75.196534, 10.46991 ], [ -75.196975, 10.469816 ], [ -75.197484, 10.470191 ], [ -75.197702, 10.470142 ], [ -75.197837, 10.470037 ], [ -75.198105, 10.470032 ], [ -75.199178, 10.470711 ], [ -75.200219, 10.470584 ], [ -75.200975, 10.470679 ], [ -75.201406, 10.470885 ], [ -75.202128, 10.47069 ], [ -75.202775, 10.470779 ], [ -75.203198, 10.470697 ], [ -75.203478, 10.47077 ], [ -75.203825, 10.471049 ], [ -75.204033, 10.471092 ], [ -75.204384, 10.471116 ], [ -75.204974, 10.47102 ], [ -75.20552, 10.471078 ], [ -75.206088, 10.471381 ], [ -75.206406, 10.471868 ], [ -75.206762, 10.473748 ], [ -75.207917, 10.474386 ], [ -75.208395, 10.474563 ], [ -75.209326, 10.474754 ], [ -75.209615, 10.474739 ], [ -75.212137, 10.474041 ], [ -75.213026, 10.473945 ], [ -75.21436, 10.47422 ], [ -75.214901, 10.474413 ], [ -75.215684, 10.474827 ], [ -75.216088, 10.475163 ], [ -75.217357, 10.476916 ], [ -75.217671, 10.477228 ], [ -75.219726, 10.477952 ], [ -75.220162, 10.47824 ], [ -75.220613, 10.478758 ], [ -75.22119, 10.47984 ], [ -75.223588, 10.479555 ], [ -75.22604, 10.477764 ], [ -75.226785, 10.476739 ], [ -75.227158, 10.476087 ], [ -75.228973, 10.476087 ], [ -75.229026, 10.477118 ], [ -75.229203, 10.47775 ], [ -75.229631, 10.478266 ], [ -75.230368, 10.478666 ], [ -75.231125, 10.478932 ], [ -75.232191, 10.479234 ], [ -75.233568, 10.479285 ], [ -75.233746, 10.479514 ], [ -75.233843, 10.480685 ], [ -75.234019, 10.481202 ], [ -75.234119, 10.482083 ], [ -75.234101, 10.482467 ], [ -75.233585, 10.484366 ], [ -75.233567, 10.484731 ], [ -75.233665, 10.485114 ], [ -75.234309, 10.486185 ], [ -75.234915, 10.487869 ], [ -75.23521, 10.488922 ], [ -75.235639, 10.48986 ], [ -75.236124, 10.490098 ], [ -75.236265, 10.490235 ], [ -75.237056, 10.491676 ], [ -75.237307, 10.491952 ], [ -75.237601, 10.492156 ], [ -75.237842, 10.492459 ], [ -75.238319, 10.493484 ], [ -75.238288, 10.493982 ], [ -75.238351, 10.494205 ], [ -75.239234, 10.494802 ], [ -75.239972, 10.49502 ], [ -75.240312, 10.495184 ], [ -75.240686, 10.495563 ], [ -75.240882, 10.49608 ], [ -75.240978, 10.497034 ], [ -75.240916, 10.498485 ], [ -75.240951, 10.49886 ], [ -75.241114, 10.499462 ], [ -75.241159, 10.50002 ], [ -75.241494, 10.50065 ], [ -75.241938, 10.500934 ], [ -75.242141, 10.501137 ], [ -75.242149, 10.501717 ], [ -75.242038, 10.502054 ], [ -75.241967, 10.503159 ], [ -75.241379, 10.504848 ], [ -75.240992, 10.505392 ], [ -75.240513, 10.505718 ], [ -75.240358, 10.505917 ], [ -75.239639, 10.506941 ], [ -75.239108, 10.507983 ], [ -75.238565, 10.508563 ], [ -75.238178, 10.509779 ], [ -75.237823, 10.51047 ], [ -75.237706, 10.510615 ], [ -75.237217, 10.510919 ], [ -75.23659, 10.511115 ], [ -75.236313, 10.511365 ], [ -75.236204, 10.512457 ], [ -75.236563, 10.512441 ], [ -75.237226, 10.512704 ], [ -75.237822, 10.513314 ], [ -75.23844, 10.514596 ], [ -75.239174, 10.516613 ], [ -75.239739, 10.517638 ], [ -75.241219, 10.519548 ], [ -75.240698, 10.521217 ], [ -75.239014, 10.5291 ], [ -75.238468, 10.529695 ], [ -75.237022, 10.530553 ], [ -75.237243, 10.530957 ], [ -75.236574, 10.531912 ], [ -75.235861, 10.532735 ], [ -75.235264, 10.53321 ], [ -75.23442, 10.53355 ], [ -75.235834, 10.536375 ], [ -75.235166, 10.53657 ], [ -75.234402, 10.536991 ], [ -75.23398, 10.537304 ], [ -75.233645, 10.537667 ], [ -75.233317, 10.538374 ], [ -75.233227, 10.539139 ], [ -75.232863, 10.539665 ], [ -75.232565, 10.540324 ], [ -75.232246, 10.541471 ], [ -75.232082, 10.541705 ], [ -75.231696, 10.541975 ], [ -75.230523, 10.542263 ], [ -75.229627, 10.542686 ], [ -75.228608, 10.54395 ], [ -75.228295, 10.544518 ], [ -75.228082, 10.545437 ], [ -75.228065, 10.546499 ], [ -75.228169, 10.547498 ], [ -75.228015, 10.548648 ], [ -75.227838, 10.549124 ], [ -75.227459, 10.549624 ], [ -75.226532, 10.550541 ], [ -75.226204, 10.551059 ], [ -75.225662, 10.551663 ], [ -75.225217, 10.551987 ], [ -75.224495, 10.552478 ], [ -75.223923, 10.552756 ], [ -75.223372, 10.552858 ], [ -75.222964, 10.552838 ], [ -75.22344, 10.553613 ], [ -75.223841, 10.554924 ], [ -75.224697, 10.556167 ], [ -75.224726, 10.556405 ], [ -75.224481, 10.557085 ], [ -75.224544, 10.557167 ], [ -75.224543, 10.557346 ], [ -75.224366, 10.55778 ], [ -75.224327, 10.558143 ], [ -75.224375, 10.558577 ], [ -75.224526, 10.559004 ], [ -75.224977, 10.559663 ], [ -75.225689, 10.560301 ], [ -75.225914, 10.559687 ], [ -75.226329, 10.559458 ], [ -75.226776, 10.559507 ], [ -75.227171, 10.559286 ], [ -75.227561, 10.559408 ], [ -75.227691, 10.559388 ], [ -75.227887, 10.559145 ], [ -75.228211, 10.559025 ], [ -75.228991, 10.559167 ], [ -75.233549, 10.564589 ], [ -75.23666, 10.56794 ], [ -75.237045, 10.569719 ], [ -75.23617, 10.571694 ], [ -75.234893, 10.57422 ], [ -75.232563, 10.577388 ], [ -75.229395, 10.580836 ], [ -75.228183, 10.583539 ], [ -75.227437, 10.585403 ], [ -75.226878, 10.587639 ], [ -75.226785, 10.589876 ], [ -75.227344, 10.590715 ], [ -75.22809, 10.592547 ], [ -75.22809, 10.59379 ], [ -75.228276, 10.596586 ], [ -75.228276, 10.599102 ], [ -75.227717, 10.601059 ], [ -75.226785, 10.602364 ], [ -75.226785, 10.605253 ], [ -75.227251, 10.606931 ], [ -75.226971, 10.608235 ], [ -75.226412, 10.609354 ], [ -75.226599, 10.610565 ], [ -75.227158, 10.611963 ], [ -75.22781, 10.612802 ], [ -75.227903, 10.613827 ], [ -75.227903, 10.614662 ], [ -75.227655, 10.6154 ], [ -75.228835, 10.616995 ], [ -75.228489, 10.617838 ], [ -75.229228, 10.618532 ], [ -75.22946, 10.618902 ], [ -75.229068, 10.62084 ], [ -75.228073, 10.623291 ], [ -75.226776, 10.625716 ], [ -75.226144, 10.627756 ], [ -75.225382, 10.628279 ], [ -75.224069, 10.63006 ], [ -75.223624, 10.63081 ], [ -75.223732, 10.631136 ], [ -75.223921, 10.631375 ], [ -75.224595, 10.631929 ], [ -75.225502, 10.633224 ], [ -75.225844, 10.633978 ], [ -75.226539, 10.636134 ], [ -75.227027, 10.636952 ], [ -75.227656, 10.637754 ], [ -75.227881, 10.638228 ], [ -75.228126, 10.639184 ], [ -75.228317, 10.640521 ], [ -75.228531, 10.641194 ], [ -75.228471, 10.641965 ], [ -75.228575, 10.643099 ], [ -75.22856, 10.644053 ], [ -75.228621, 10.644375 ], [ -75.228796, 10.64456 ], [ -75.229302, 10.644839 ], [ -75.230409, 10.645842 ], [ -75.231697, 10.646425 ], [ -75.233458, 10.647426 ], [ -75.234753, 10.648442 ], [ -75.235332, 10.649054 ], [ -75.236172, 10.649528 ], [ -75.236777, 10.649761 ], [ -75.237028, 10.649942 ], [ -75.239496, 10.652195 ], [ -75.241753, 10.654132 ], [ -75.241959, 10.654442 ], [ -75.242643, 10.657136 ], [ -75.242897, 10.658547 ], [ -75.24425, 10.664715 ], [ -75.243145, 10.675963 ], [ -75.242822, 10.678677 ], [ -75.242848, 10.680368 ], [ -75.241966, 10.688995 ], [ -75.242513, 10.68951 ], [ -75.242603, 10.68951 ], [ -75.247062, 10.695701 ], [ -75.247429, 10.695927 ], [ -75.248141, 10.697205 ], [ -75.248079, 10.69803 ], [ -75.247843, 10.698897 ], [ -75.246879, 10.701658 ], [ -75.246983, 10.701901 ], [ -75.247244, 10.702157 ], [ -75.248076, 10.702493 ], [ -75.248655, 10.702986 ], [ -75.249286, 10.703965 ], [ -75.24913, 10.704237 ], [ -75.247991, 10.705501 ], [ -75.247993, 10.705899 ], [ -75.247863, 10.706552 ], [ -75.24747, 10.70727 ], [ -75.24734, 10.707662 ], [ -75.247143, 10.707859 ], [ -75.246941, 10.708266 ], [ -75.246563, 10.708749 ], [ -75.246524, 10.709145 ], [ -75.246372, 10.709452 ], [ -75.24619, 10.710481 ], [ -75.24593, 10.710948 ], [ -75.24592, 10.71139 ], [ -75.246019, 10.711795 ], [ -75.245839, 10.712124 ], [ -75.245853, 10.712601 ], [ -75.246031, 10.713058 ], [ -75.246425, 10.713419 ], [ -75.246462, 10.713574 ], [ -75.246269, 10.713851 ], [ -75.245984, 10.714014 ], [ -75.245576, 10.714976 ], [ -75.245176, 10.715268 ], [ -75.244958, 10.715977 ], [ -75.244588, 10.716575 ], [ -75.244591, 10.716867 ], [ -75.244679, 10.717165 ], [ -75.244861, 10.717423 ], [ -75.24508, 10.717587 ], [ -75.245407, 10.717692 ], [ -75.245872, 10.717659 ], [ -75.246353, 10.717422 ], [ -75.246746, 10.717359 ], [ -75.246955, 10.717402 ], [ -75.247275, 10.717683 ], [ -75.247451, 10.718326 ], [ -75.247621, 10.718565 ], [ -75.247859, 10.718679 ], [ -75.248459, 10.718738 ], [ -75.248746, 10.718914 ], [ -75.249145, 10.719933 ], [ -75.249161, 10.720387 ], [ -75.249081, 10.720559 ], [ -75.248708, 10.720953 ], [ -75.248191, 10.721396 ], [ -75.248093, 10.721619 ], [ -75.248084, 10.721885 ], [ -75.248236, 10.722259 ], [ -75.248267, 10.722666 ], [ -75.248373, 10.722818 ], [ -75.249521, 10.722965 ], [ -75.244905, 10.730791 ], [ -75.244391, 10.731835 ], [ -75.244403, 10.73221 ], [ -75.244275, 10.732891 ], [ -75.244158, 10.733159 ], [ -75.244335, 10.733356 ], [ -75.244514, 10.733826 ], [ -75.244326, 10.734098 ], [ -75.244269, 10.734353 ], [ -75.243934, 10.734499 ], [ -75.24379, 10.735062 ], [ -75.243596, 10.73539 ], [ -75.243697, 10.735699 ], [ -75.244052, 10.73609 ], [ -75.244243, 10.736431 ], [ -75.243762, 10.737113 ], [ -75.243515, 10.738064 ], [ -75.242877, 10.738977 ], [ -75.242856, 10.73924 ], [ -75.243032, 10.739871 ], [ -75.242975, 10.740231 ], [ -75.242852, 10.740408 ], [ -75.242552, 10.740629 ], [ -75.242282, 10.741067 ], [ -75.240909, 10.742578 ], [ -75.240563, 10.743071 ], [ -75.240161, 10.743845 ], [ -75.240167, 10.744516 ], [ -75.240426, 10.745283 ], [ -75.240543, 10.747216 ], [ -75.23833, 10.748905 ], [ -75.236234, 10.751413 ], [ -75.23507, 10.752679 ], [ -75.234194, 10.753393 ], [ -75.233567, 10.753764 ], [ -75.233222, 10.754123 ], [ -75.232015, 10.754869 ], [ -75.23129, 10.755482 ], [ -75.23036, 10.756451 ], [ -75.22996, 10.758625 ], [ -75.230315, 10.759397 ], [ -75.229908, 10.759246 ], [ -75.229606, 10.759027 ], [ -75.229341, 10.759061 ], [ -75.22898, 10.758789 ], [ -75.228134, 10.759782 ], [ -75.228225, 10.762024 ], [ -75.228199, 10.762258 ], [ -75.227954, 10.762575 ], [ -75.227871, 10.762864 ], [ -75.227906, 10.763125 ], [ -75.228188, 10.76378 ], [ -75.228242, 10.764628 ], [ -75.228342, 10.764925 ], [ -75.227931, 10.76584 ], [ -75.227312, 10.766296 ], [ -75.226959, 10.766449 ], [ -75.226796, 10.766612 ], [ -75.226989, 10.767608 ], [ -75.226939, 10.767845 ], [ -75.226782, 10.768046 ], [ -75.226554, 10.76818 ], [ -75.226419, 10.768187 ], [ -75.225499, 10.769557 ], [ -75.225125, 10.769943 ], [ -75.224851, 10.770095 ], [ -75.224587, 10.770534 ], [ -75.22445, 10.770666 ], [ -75.224098, 10.770728 ], [ -75.224034, 10.770826 ], [ -75.224134, 10.77118 ], [ -75.22407, 10.771274 ], [ -75.223975, 10.771296 ], [ -75.223743, 10.771079 ], [ -75.22362, 10.771049 ], [ -75.223461, 10.771219 ], [ -75.223366, 10.771707 ], [ -75.223129, 10.771695 ], [ -75.222925, 10.771519 ], [ -75.222574, 10.771446 ], [ -75.222001, 10.77166 ], [ -75.221408, 10.772406 ], [ -75.220966, 10.77357 ], [ -75.221086, 10.774 ], [ -75.221019, 10.775085 ], [ -75.220899, 10.775399 ], [ -75.220311, 10.776215 ], [ -75.21989, 10.777203 ], [ -75.22098, 10.777717 ], [ -75.222424, 10.77874 ], [ -75.223144, 10.779661 ], [ -75.223804, 10.780088 ], [ -75.224367, 10.780292 ], [ -75.225033, 10.780396 ], [ -75.225928, 10.780653 ], [ -75.227884, 10.781061 ], [ -75.229509, 10.782035 ], [ -75.230018, 10.782575 ], [ -75.230364, 10.783157 ], [ -75.230215, 10.784238 ], [ -75.229948, 10.785182 ], [ -75.229416, 10.786095 ], [ -75.228687, 10.786854 ], [ -75.228521, 10.787269 ], [ -75.228507, 10.788145 ], [ -75.224155, 10.790212 ], [ -75.221967, 10.792645 ], [ -75.221681, 10.792812 ], [ -75.222208, 10.796604 ], [ -75.221872, 10.796775 ], [ -75.220939, 10.796971 ], [ -75.219821, 10.797993 ], [ -75.219375, 10.798304 ], [ -75.218873, 10.798757 ], [ -75.218367, 10.799377 ], [ -75.217979, 10.799997 ], [ -75.217083, 10.801083 ], [ -75.216385, 10.8024 ], [ -75.21627, 10.803134 ], [ -75.216272, 10.803792 ], [ -75.216747, 10.804949 ], [ -75.216754, 10.806689 ], [ -75.215975, 10.807504 ], [ -75.214692, 10.809402 ], [ -75.214071, 10.810564 ], [ -75.213917, 10.811222 ], [ -75.2131, 10.812462 ], [ -75.212985, 10.813042 ], [ -75.212675, 10.813817 ], [ -75.212285, 10.813973 ], [ -75.211854, 10.81382 ], [ -75.211504, 10.814208 ], [ -75.210921, 10.815292 ], [ -75.210259, 10.816029 ], [ -75.209831, 10.81661 ], [ -75.209091, 10.817347 ], [ -75.208154, 10.817737 ], [ -75.207686, 10.818048 ], [ -75.206708, 10.818013 ], [ -75.206004, 10.817861 ], [ -75.204049, 10.817752 ], [ -75.203122, 10.817516 ], [ -75.201116, 10.817725 ], [ -75.199161, 10.817693 ], [ -75.196542, 10.817934 ], [ -75.1958, 10.818092 ], [ -75.195644, 10.818208 ], [ -75.194706, 10.818444 ], [ -75.193025, 10.818643 ], [ -75.192439, 10.8188 ], [ -75.192128, 10.81911 ], [ -75.191817, 10.819652 ], [ -75.191818, 10.820039 ], [ -75.191546, 10.820504 ], [ -75.191039, 10.820815 ], [ -75.19061, 10.820971 ], [ -75.189907, 10.82136 ], [ -75.189178, 10.822128 ], [ -75.188778, 10.822679 ], [ -75.188312, 10.823569 ], [ -75.187845, 10.824189 ], [ -75.186127, 10.824698 ], [ -75.185111, 10.825088 ], [ -75.183981, 10.826136 ], [ -75.183515, 10.827066 ], [ -75.181722, 10.828425 ], [ -75.180825, 10.829201 ], [ -75.180592, 10.829705 ], [ -75.178638, 10.829866 ], [ -75.177856, 10.830024 ], [ -75.1758, 10.830095 ], [ -75.175198, 10.830265 ], [ -75.174845, 10.830617 ], [ -75.173947, 10.83061 ], [ -75.171913, 10.830178 ], [ -75.171468, 10.830179 ], [ -75.170769, 10.829994 ], [ -75.170451, 10.829995 ], [ -75.169816, 10.829871 ], [ -75.164417, 10.82989 ], [ -75.163211, 10.83002 ], [ -75.16245, 10.8304 ], [ -75.161815, 10.83059 ], [ -75.158704, 10.830978 ], [ -75.158324, 10.831168 ], [ -75.157182, 10.831486 ], [ -75.156802, 10.831738 ], [ -75.156358, 10.831928 ], [ -75.154583, 10.833127 ], [ -75.154077, 10.833569 ], [ -75.154014, 10.833757 ], [ -75.153824, 10.833821 ], [ -75.153254, 10.834262 ], [ -75.152937, 10.83464 ], [ -75.152747, 10.834766 ], [ -75.151986, 10.835146 ], [ -75.151035, 10.835463 ], [ -75.150845, 10.835589 ], [ -75.149958, 10.836346 ], [ -75.149768, 10.836598 ], [ -75.149643, 10.8371 ], [ -75.149583, 10.838105 ], [ -75.149206, 10.839174 ], [ -75.149084, 10.840681 ], [ -75.148705, 10.841248 ], [ -75.148325, 10.841563 ], [ -75.147819, 10.84213 ], [ -75.147631, 10.842696 ], [ -75.147698, 10.8437 ], [ -75.147193, 10.844581 ], [ -75.147002, 10.844644 ], [ -75.146376, 10.847033 ], [ -75.146189, 10.848163 ], [ -75.145999, 10.848227 ], [ -75.145809, 10.848604 ], [ -75.145366, 10.849045 ], [ -75.14524, 10.849297 ], [ -75.144607, 10.849801 ], [ -75.144544, 10.84999 ], [ -75.144354, 10.850054 ], [ -75.144228, 10.850431 ], [ -75.144104, 10.851247 ], [ -75.143723, 10.851437 ], [ -75.143153, 10.851941 ], [ -75.142901, 10.852507 ], [ -75.141887, 10.85295 ], [ -75.140617, 10.853143 ], [ -75.138778, 10.853966 ], [ -75.137889, 10.85422 ], [ -75.137, 10.854349 ], [ -75.135668, 10.85473 ], [ -75.135477, 10.854731 ], [ -75.134272, 10.855112 ], [ -75.133891, 10.855364 ], [ -75.133321, 10.855617 ], [ -75.133194, 10.855806 ], [ -75.133004, 10.855932 ], [ -75.132878, 10.856309 ], [ -75.132498, 10.856625 ], [ -75.132372, 10.856813 ], [ -75.131801, 10.857129 ], [ -75.131549, 10.857507 ], [ -75.131358, 10.857633 ], [ -75.130597, 10.85795 ], [ -75.130091, 10.858517 ], [ -75.129901, 10.858643 ], [ -75.129902, 10.858831 ], [ -75.129776, 10.859208 ], [ -75.129782, 10.860904 ], [ -75.129846, 10.861092 ], [ -75.130293, 10.861655 ], [ -75.130738, 10.86178 ], [ -75.130929, 10.861904 ], [ -75.130993, 10.862093 ], [ -75.130995, 10.862658 ], [ -75.130805, 10.862784 ], [ -75.130614, 10.862847 ], [ -75.13017, 10.862849 ], [ -75.12909, 10.86279 ], [ -75.126737, 10.862044 ], [ -75.125844, 10.86191 ], [ -75.125661, 10.861766 ], [ -75.124931, 10.861733 ], [ -75.123715, 10.861855 ], [ -75.122698, 10.86234 ], [ -75.122419, 10.862822 ], [ -75.121398, 10.862933 ], [ -75.120577, 10.863529 ], [ -75.120034, 10.863388 ], [ -75.118811, 10.863328 ], [ -75.117993, 10.863215 ], [ -75.116675, 10.863374 ], [ -75.116207, 10.863625 ], [ -75.115834, 10.864034 ], [ -75.115499, 10.864236 ], [ -75.115335, 10.864269 ], [ -75.115165, 10.864183 ], [ -75.114434, 10.86428 ], [ -75.113725, 10.864221 ], [ -75.110478, 10.864699 ], [ -75.108106, 10.865263 ], [ -75.107673, 10.865282 ], [ -75.104893, 10.866196 ], [ -75.103896, 10.86643 ], [ -75.103758, 10.866547 ], [ -75.102606, 10.867008 ], [ -75.102008, 10.867354 ], [ -75.101368, 10.867874 ], [ -75.100918, 10.868422 ], [ -75.100465, 10.869299 ], [ -75.10027, 10.870892 ], [ -75.100125, 10.871062 ], [ -75.100262, 10.871694 ], [ -75.10001, 10.871902 ], [ -75.099605, 10.872029 ], [ -75.099398, 10.872024 ], [ -75.098963, 10.871862 ], [ -75.098878, 10.871892 ], [ -75.098621, 10.872133 ], [ -75.098498, 10.872345 ], [ -75.098983, 10.871968 ], [ -75.09941, 10.872179 ], [ -75.099677, 10.872143 ], [ -75.099787, 10.872291 ], [ -75.100027, 10.872155 ], [ -75.100344, 10.871817 ], [ -75.100503, 10.871981 ], [ -75.100477, 10.871636 ], [ -75.100543, 10.871248 ], [ -75.100323, 10.870942 ], [ -75.100497, 10.870851 ], [ -75.100682, 10.87112 ], [ -75.100569, 10.871804 ], [ -75.10061, 10.872197 ], [ -75.100895, 10.872552 ], [ -75.101248, 10.872856 ], [ -75.101174, 10.873075 ], [ -75.100868, 10.873298 ], [ -75.100295, 10.873506 ], [ -75.098516, 10.873876 ], [ -75.097086, 10.874116 ], [ -75.095481, 10.874178 ], [ -75.094807, 10.874401 ], [ -75.093052, 10.874587 ], [ -75.092065, 10.874911 ], [ -75.091724, 10.874951 ], [ -75.090142, 10.875549 ], [ -75.088488, 10.87604 ], [ -75.087379, 10.876443 ], [ -75.087024, 10.876506 ], [ -75.085891, 10.87704 ], [ -75.085265, 10.877398 ], [ -75.084896, 10.877694 ], [ -75.084375, 10.878431 ], [ -75.084375, 10.878577 ], [ -75.084614, 10.878787 ], [ -75.084462, 10.878795 ], [ -75.084237, 10.879038 ], [ -75.083706, 10.87985 ], [ -75.083455, 10.880431 ], [ -75.08335, 10.880876 ], [ -75.083352, 10.881448 ], [ -75.083465, 10.881789 ], [ -75.083376, 10.882487 ], [ -75.082643, 10.883005 ], [ -75.082447, 10.883279 ], [ -75.082324, 10.883709 ], [ -75.082389, 10.884092 ], [ -75.081913, 10.88518 ], [ -75.081765, 10.885703 ], [ -75.081585, 10.886045 ], [ -75.081315, 10.886366 ], [ -75.08123, 10.886617 ], [ -75.08111, 10.886488 ], [ -75.080763, 10.886537 ], [ -75.080433, 10.886438 ], [ -75.078723, 10.886485 ], [ -75.076033, 10.886367 ], [ -75.075138, 10.886449 ], [ -75.074133, 10.886901 ], [ -75.073605, 10.886862 ], [ -75.07323, 10.886951 ], [ -75.0709, 10.886804 ], [ -75.068695, 10.887205 ], [ -75.067413, 10.887312 ], [ -75.066066, 10.88758 ], [ -75.065843, 10.887703 ], [ -75.065729, 10.887965 ], [ -75.065796, 10.888097 ], [ -75.065683, 10.88832 ], [ -75.065552, 10.888407 ], [ -75.065188, 10.888316 ], [ -75.064705, 10.888448 ], [ -75.064584, 10.888402 ], [ -75.064566, 10.888514 ], [ -75.064424, 10.888408 ], [ -75.064019, 10.88854 ], [ -75.063715, 10.888484 ], [ -75.063562, 10.888623 ], [ -75.063234, 10.888549 ], [ -75.063081, 10.888683 ], [ -75.062591, 10.888697 ], [ -75.06238, 10.888881 ], [ -75.061575, 10.888892 ], [ -75.061517, 10.889211 ], [ -75.061292, 10.889224 ], [ -75.060993, 10.889342 ], [ -75.060803, 10.889495 ], [ -75.060774, 10.889629 ], [ -75.060878, 10.889719 ], [ -75.060614, 10.889842 ], [ -75.06064, 10.890039 ], [ -75.060499, 10.890534 ], [ -75.060144, 10.890985 ], [ -75.059769, 10.891252 ], [ -75.05952, 10.891591 ], [ -75.058843, 10.891942 ], [ -75.057778, 10.892048 ], [ -75.056675, 10.892318 ], [ -75.055967, 10.892631 ], [ -75.05578, 10.892656 ], [ -75.055657, 10.892794 ], [ -75.054889, 10.893155 ], [ -75.054076, 10.893451 ], [ -75.053656, 10.893529 ], [ -75.052833, 10.89387 ], [ -75.052488, 10.894077 ], [ -75.052266, 10.894127 ], [ -75.052104, 10.894346 ], [ -75.050881, 10.895186 ], [ -75.050672, 10.895425 ], [ -75.048958, 10.896304 ], [ -75.046068, 10.898331 ], [ -75.045367, 10.89909 ], [ -75.044902, 10.899824 ], [ -75.044709, 10.90026 ], [ -75.044478, 10.900311 ], [ -75.044297, 10.900236 ], [ -75.044167, 10.899953 ], [ -75.043847, 10.899707 ], [ -75.043877, 10.899645 ], [ -75.044136, 10.899801 ], [ -75.044219, 10.899791 ], [ -75.044027, 10.899403 ], [ -75.043723, 10.899048 ], [ -75.043659, 10.899008 ], [ -75.043575, 10.899141 ], [ -75.043603, 10.899288 ], [ -75.043739, 10.899437 ], [ -75.043701, 10.899515 ], [ -75.043107, 10.899194 ], [ -75.042983, 10.899404 ], [ -75.04364, 10.900007 ], [ -75.043805, 10.900354 ], [ -75.044262, 10.900731 ], [ -75.04455, 10.901266 ], [ -75.044555, 10.901426 ], [ -75.04429, 10.902389 ], [ -75.044035, 10.904277 ], [ -75.043641, 10.905917 ], [ -75.043493, 10.906874 ], [ -75.042643, 10.910164 ], [ -75.04244, 10.911168 ], [ -75.042219, 10.911793 ], [ -75.040207, 10.915418 ], [ -75.039676, 10.916293 ], [ -75.038835, 10.917446 ], [ -75.038476, 10.918282 ], [ -75.038041, 10.918974 ], [ -75.037536, 10.919969 ], [ -75.036658, 10.921047 ], [ -75.035688, 10.922462 ], [ -75.03538, 10.923134 ], [ -75.035145, 10.924066 ], [ -75.034929, 10.924325 ], [ -75.034603, 10.924909 ], [ -75.034197, 10.925356 ], [ -75.034157, 10.925591 ], [ -75.034304, 10.92693 ], [ -75.03403, 10.927495 ], [ -75.033982, 10.928008 ], [ -75.033788, 10.928214 ], [ -75.033344, 10.928477 ], [ -75.033179, 10.928687 ], [ -75.032802, 10.928753 ], [ -75.032586, 10.928959 ], [ -75.030652, 10.932384 ], [ -75.029762, 10.93433 ], [ -75.02927, 10.935224 ], [ -75.028518, 10.93754 ], [ -75.028314, 10.938558 ], [ -75.027999, 10.941064 ], [ -75.027074, 10.941689 ], [ -75.026732, 10.942025 ], [ -75.02628, 10.942988 ], [ -75.026221, 10.943293 ], [ -75.026261, 10.944598 ], [ -75.026469, 10.9457 ], [ -75.026538, 10.946632 ], [ -75.026478, 10.946772 ], [ -75.026381, 10.946828 ], [ -75.025978, 10.946886 ], [ -75.026091, 10.946994 ], [ -75.026518, 10.947058 ], [ -75.026623, 10.947178 ], [ -75.026805, 10.947888 ], [ -75.027181, 10.948787 ], [ -75.027188, 10.949016 ], [ -75.027071, 10.949262 ], [ -75.027423, 10.949279 ], [ -75.028336, 10.950415 ], [ -75.028318, 10.950558 ], [ -75.028121, 10.950696 ], [ -75.028115, 10.95077 ], [ -75.028208, 10.950815 ], [ -75.028431, 10.950708 ], [ -75.028622, 10.950721 ], [ -75.029607, 10.95142 ], [ -75.030639, 10.951908 ], [ -75.031497, 10.952076 ], [ -75.03209, 10.95205 ], [ -75.033063, 10.951695 ], [ -75.033806, 10.950714 ], [ -75.034531, 10.950692 ], [ -75.035068, 10.950281 ], [ -75.035253, 10.94983 ], [ -75.035621, 10.948457 ], [ -75.036053, 10.947412 ], [ -75.036513, 10.947204 ], [ -75.036817, 10.946611 ], [ -75.037375, 10.946343 ], [ -75.038059, 10.946341 ], [ -75.038325, 10.946048 ], [ -75.038821, 10.9451 ], [ -75.039183, 10.94474 ], [ -75.04003, 10.944618 ], [ -75.041242, 10.945332 ], [ -75.042226, 10.945198 ], [ -75.043071, 10.944723 ], [ -75.043916, 10.944065 ], [ -75.045104, 10.942091 ], [ -75.045782, 10.940238 ], [ -75.046551, 10.940651 ], [ -75.04728, 10.941486 ], [ -75.047524, 10.942083 ], [ -75.047526, 10.942677 ], [ -75.048115, 10.944276 ], [ -75.047176, 10.946748 ], [ -75.044993, 10.950545 ], [ -75.043672, 10.952102 ], [ -75.040602, 10.953632 ], [ -75.039938, 10.953707 ], [ -75.032444, 10.956481 ], [ -75.031478, 10.957201 ], [ -75.030512, 10.957802 ], [ -75.029305, 10.958762 ], [ -75.028462, 10.96008 ], [ -75.026772, 10.961401 ], [ -75.02641, 10.961761 ], [ -75.024805, 10.964098 ], [ -75.022505, 10.966435 ], [ -75.016401, 10.973152 ], [ -75.015918, 10.973393 ], [ -75.015073, 10.974113 ], [ -75.012414, 10.975317 ], [ -75.011328, 10.976277 ], [ -75.011087, 10.976637 ], [ -75.010363, 10.977117 ], [ -75.009638, 10.977478 ], [ -75.008793, 10.978198 ], [ -75.006765, 10.97964 ], [ -75.005189, 10.980391 ], [ -75.001642, 10.981133 ], [ -74.999276, 10.981481 ], [ -74.995957, 10.981621 ], [ -74.992437, 10.982275 ], [ -74.989903, 10.982384 ], [ -74.987498, 10.982837 ], [ -74.985601, 10.982999 ], [ -74.981241, 10.983686 ], [ -74.979931, 10.984092 ], [ -74.977374, 10.984478 ], [ -74.974819, 10.985217 ], [ -74.972313, 10.985701 ], [ -74.969648, 10.986847 ], [ -74.968964, 10.987239 ], [ -74.966928, 10.987808 ], [ -74.963234, 10.989615 ], [ -74.960996, 10.990209 ], [ -74.959875, 10.990441 ], [ -74.959174, 10.990682 ], [ -74.958748, 10.991034 ], [ -74.958128, 10.991862 ], [ -74.957265, 10.993646 ], [ -74.95662, 10.994653 ], [ -74.955665, 10.995684 ], [ -74.955077, 10.996448 ], [ -74.954479, 10.997621 ], [ -74.95413, 10.99803 ], [ -74.953244, 10.999862 ], [ -74.952984, 11.00119 ], [ -74.952984, 11.001666 ], [ -74.953112, 11.001893 ], [ -74.953395, 11.001972 ], [ -74.953264, 11.002529 ], [ -74.953287, 11.00273 ], [ -74.953514, 11.003108 ], [ -74.9534, 11.003219 ], [ -74.953206, 11.00363 ], [ -74.952925, 11.003743 ], [ -74.95282, 11.00389 ], [ -74.95275, 11.004614 ], [ -74.9528, 11.004958 ], [ -74.952986, 11.005416 ], [ -74.952878, 11.005609 ], [ -74.952862, 11.005867 ], [ -74.953041, 11.006253 ], [ -74.953025, 11.006311 ], [ -74.95288, 11.006338 ], [ -74.952851, 11.006419 ], [ -74.952658, 11.007206 ], [ -74.95269, 11.007455 ], [ -74.952629, 11.007475 ], [ -74.952459, 11.007324 ], [ -74.952375, 11.007343 ], [ -74.951766, 11.007895 ], [ -74.951179, 11.008308 ], [ -74.950595, 11.00885 ], [ -74.950268, 11.009478 ], [ -74.950086, 11.009703 ], [ -74.949377, 11.009756 ], [ -74.94905, 11.009632 ], [ -74.948812, 11.009618 ], [ -74.947253, 11.010035 ], [ -74.946613, 11.010304 ], [ -74.944237, 11.013971 ], [ -74.94401, 11.014732 ], [ -74.943616, 11.01547 ], [ -74.942497, 11.016975 ], [ -74.942488, 11.017261 ], [ -74.942722, 11.017482 ], [ -74.942691, 11.017671 ], [ -74.942529, 11.017837 ], [ -74.942524, 11.017965 ], [ -74.942622, 11.018153 ], [ -74.942488, 11.018393 ], [ -74.94192, 11.018662 ], [ -74.941526, 11.018753 ], [ -74.940771, 11.018694 ], [ -74.940095, 11.018456 ], [ -74.939629, 11.018539 ], [ -74.939371, 11.018651 ], [ -74.938174, 11.01882 ], [ -74.936361, 11.019517 ], [ -74.936285, 11.019802 ], [ -74.9362, 11.019876 ], [ -74.936049, 11.019916 ], [ -74.935829, 11.019756 ], [ -74.935549, 11.019788 ], [ -74.935304, 11.019941 ], [ -74.934205, 11.020309 ], [ -74.933888, 11.020565 ], [ -74.932895, 11.020823 ], [ -74.93267, 11.021027 ], [ -74.932267, 11.021212 ], [ -74.931676, 11.021408 ], [ -74.929945, 11.022162 ], [ -74.929802, 11.022314 ], [ -74.929404, 11.022504 ], [ -74.928997, 11.022807 ], [ -74.928597, 11.022951 ], [ -74.92832, 11.023182 ], [ -74.928234, 11.023333 ], [ -74.928214, 11.023404 ], [ -74.928327, 11.023576 ], [ -74.92778, 11.023808 ], [ -74.92759, 11.024116 ], [ -74.927252, 11.024316 ], [ -74.92671, 11.024488 ], [ -74.926685, 11.024644 ], [ -74.926157, 11.02493 ], [ -74.925835, 11.025316 ], [ -74.925449, 11.025629 ], [ -74.925398, 11.025725 ], [ -74.925559, 11.025974 ], [ -74.925374, 11.025879 ], [ -74.92524, 11.025921 ], [ -74.924087, 11.026691 ], [ -74.922541, 11.02832 ], [ -74.921931, 11.029324 ], [ -74.921448, 11.030633 ], [ -74.921349, 11.031335 ], [ -74.9214, 11.031988 ], [ -74.921333, 11.03229 ], [ -74.921304, 11.033345 ], [ -74.921695, 11.035549 ], [ -74.921849, 11.036817 ], [ -74.921936, 11.038393 ], [ -74.922075, 11.039257 ], [ -74.922444, 11.039875 ], [ -74.922478, 11.040318 ], [ -74.922217, 11.042136 ], [ -74.922223, 11.042801 ], [ -74.921965, 11.044695 ], [ -74.921545, 11.045308 ], [ -74.921042, 11.045695 ], [ -74.920994, 11.045624 ], [ -74.920917, 11.045678 ], [ -74.920786, 11.045641 ], [ -74.920708, 11.045722 ], [ -74.920308, 11.04572 ], [ -74.920029, 11.045905 ], [ -74.919822, 11.04577 ], [ -74.919391, 11.045648 ], [ -74.918998, 11.045675 ], [ -74.918763, 11.045583 ], [ -74.918384, 11.045651 ], [ -74.918252, 11.045553 ], [ -74.91787, 11.045638 ], [ -74.917833, 11.045482 ], [ -74.917515, 11.045611 ], [ -74.917347, 11.045556 ], [ -74.91698, 11.045196 ], [ -74.916618, 11.045151 ], [ -74.915964, 11.044824 ], [ -74.91447, 11.044818 ], [ -74.914053, 11.044753 ], [ -74.912942, 11.044872 ], [ -74.912284, 11.044832 ], [ -74.911485, 11.044718 ], [ -74.909945, 11.044245 ], [ -74.908827, 11.044054 ], [ -74.907942, 11.044008 ], [ -74.906433, 11.044072 ], [ -74.905544, 11.043751 ], [ -74.904624, 11.043537 ], [ -74.903982, 11.043307 ], [ -74.902676, 11.043114 ], [ -74.901233, 11.043033 ], [ -74.89964, 11.043037 ], [ -74.898194, 11.043171 ], [ -74.897424, 11.043367 ], [ -74.895991, 11.043413 ], [ -74.894311, 11.043213 ], [ -74.893667, 11.043214 ], [ -74.889989, 11.043988 ], [ -74.889689, 11.044012 ], [ -74.888652, 11.043889 ], [ -74.887383, 11.044235 ], [ -74.88656, 11.044162 ], [ -74.884562, 11.044344 ], [ -74.882958, 11.044679 ], [ -74.8818, 11.045049 ], [ -74.880516, 11.045669 ], [ -74.880102, 11.04596 ], [ -74.878525, 11.04673 ], [ -74.877906, 11.047103 ], [ -74.875344, 11.047927 ], [ -74.874028, 11.048154 ], [ -74.873315, 11.048431 ], [ -74.871581, 11.048786 ], [ -74.869548, 11.049389 ], [ -74.868786, 11.04955 ], [ -74.866445, 11.050501 ], [ -74.86441, 11.051188 ], [ -74.86051, 11.051877 ], [ -74.859629, 11.052227 ], [ -74.857162, 11.053505 ], [ -74.855324, 11.054288 ], [ -74.853857, 11.055158 ], [ -74.852468, 11.055792 ], [ -74.851775, 11.055997 ], [ -74.85119, 11.05628 ], [ -74.849501, 11.057196 ], [ -74.848043, 11.058287 ], [ -74.847652, 11.058472 ], [ -74.847227, 11.058523 ], [ -74.846806, 11.058422 ], [ -74.846487, 11.058162 ], [ -74.846344, 11.057927 ], [ -74.846328, 11.057696 ], [ -74.845952, 11.057358 ], [ -74.845576, 11.057984 ], [ -74.845621, 11.058616 ], [ -74.845006, 11.060431 ], [ -74.843929, 11.062298 ], [ -74.843822, 11.062661 ], [ -74.843849, 11.063002 ], [ -74.844306, 11.063609 ], [ -74.844613, 11.064215 ], [ -74.845687, 11.065804 ], [ -74.84611, 11.0667 ], [ -74.847831, 11.074623 ], [ -74.848172, 11.074804 ], [ -74.848089, 11.075791 ], [ -74.848158, 11.07624 ], [ -74.848815, 11.079202 ], [ -74.848925, 11.079444 ], [ -74.848893, 11.079602 ], [ -74.849936, 11.084328 ], [ -74.850083, 11.08443 ], [ -74.850025, 11.084523 ], [ -74.850054, 11.084815 ], [ -74.851602, 11.091976 ], [ -74.851859, 11.092838 ], [ -74.852019, 11.093851 ], [ -74.852609, 11.096526 ], [ -74.852848, 11.0974 ], [ -74.85304, 11.097549 ], [ -74.85334, 11.097444 ], [ -74.853406, 11.097486 ], [ -74.852948, 11.09777 ], [ -74.852892, 11.097931 ], [ -74.85457, 11.10537 ], [ -74.851861, 11.105367 ], [ -74.851598, 11.103726 ], [ -74.851247, 11.102403 ], [ -74.850878, 11.101375 ], [ -74.850047, 11.099424 ], [ -74.849462, 11.097782 ] ] ] } }
]
}
