{
"type": "FeatureCollection",
"name": "ejes_estructurantes",
"crs": { "type": "name", "properties": { "name": "urn:ogc:def:crs:OGC:1.3:CRS84" } },
"xy_coordinate_resolution": 1e-06,
"features": [
{ "type": "Feature", "properties": { "Name": "CORREDOR METROPOLITANO DE TRANSPORTE" }, "geometry": { "type": "MultiLineString", "coordinates": [ [ [ -74.827602, 11.038815 ], [ -74.827771, 11.038733 ], [ -74.828076, 11.038534 ], [ -74.828453, 11.038329 ], [ -74.829485, 11.037804 ], [ -74.831183, 11.036874 ], [ -74.832318, 11.036217 ], [ -74.834643, 11.034823 ], [ -74.834831, 11.03474 ], [ -74.835029, 11.03467 ], [ -74.835476, 11.034582 ], [ -74.836513, 11.034576 ], [ -74.837023, 11.034549 ], [ -74.837405, 11.034479 ], [ -74.837667, 11.034385 ], [ -74.837885, 11.034272 ], [ -74.838234, 11.034037 ], [ -74.838908, 11.033392 ], [ -74.83921, 11.033078 ], [ -74.839473, 11.032843 ], [ -74.839639, 11.032732 ], [ -74.839988, 11.03255 ], [ -74.840244, 11.03246 ], [ -74.842359, 11.031884 ], [ -74.844039, 11.031448 ], [ -74.844632, 11.031271 ], [ -74.847763, 11.030433 ], [ -74.848787, 11.030191 ], [ -74.849148, 11.030074 ], [ -74.850118, 11.029885 ], [ -74.850579, 11.02985 ], [ -74.851848, 11.0299 ], [ -74.853681, 11.030043 ], [ -74.854127, 11.03014 ], [ -74.855172, 11.030416 ], [ -74.857141, 11.030864 ], [ -74.858123, 11.031105 ], [ -74.858437, 11.03114 ], [ -74.85883, 11.031101 ] ], [ [ -74.858787, 11.030987 ], [ -74.85847, 11.031002 ], [ -74.858155, 11.030972 ], [ -74.855353, 11.030308 ], [ -74.853598, 11.029931 ], [ -74.851568, 11.029788 ], [ -74.85077, 11.029747 ], [ -74.850391, 11.029758 ], [ -74.850102, 11.029786 ], [ -74.849819, 11.029827 ], [ -74.849362, 11.029926 ], [ -74.844752, 11.031148 ], [ -74.840195, 11.032379 ], [ -74.839965, 11.032469 ], [ -74.839695, 11.032587 ], [ -74.839375, 11.032807 ], [ -74.83903, 11.033116 ], [ -74.838258, 11.033894 ], [ -74.838108, 11.034024 ], [ -74.837911, 11.034157 ], [ -74.837762, 11.034232 ], [ -74.837392, 11.034379 ], [ -74.837226, 11.034421 ], [ -74.836905, 11.034468 ], [ -74.83542, 11.034491 ], [ -74.835038, 11.034565 ], [ -74.8346, 11.034734 ], [ -74.83194, 11.036328 ], [ -74.831156, 11.036775 ], [ -74.829306, 11.037779 ], [ -74.828408, 11.038237 ], [ -74.82764, 11.038674 ], [ -74.827561, 11.038706 ] ], [ [ -74.858251, 11.031047 ], [ -74.858904, 11.031036 ], [ -74.859429, 11.031079 ], [ -74.862816, 11.031839 ], [ -74.864954, 11.032254 ], [ -74.866394, 11.032347 ], [ -74.867193, 11.032184 ], [ -74.868081, 11.031212 ], [ -74.870553, 11.02799 ], [ -74.874123, 11.021239 ], [ -74.875378, 11.017328 ], [ -74.875059, 11.014579 ], [ -74.87461, 11.013007 ], [ -74.874307, 11.009375 ], [ -74.87358, 11.007557 ], [ -74.870918, 11.003113 ], [ -74.866371, 10.998048 ], [ -74.862994, 10.993607 ], [ -74.860905, 10.990386 ], [ -74.859137, 10.984485 ], [ -74.858216, 10.981628 ], [ -74.855712, 10.978372 ], [ -74.851022, 10.974311 ], [ -74.848034, 10.971839 ], [ -74.845157, 10.969105 ], [ -74.844089, 10.966695 ], [ -74.843126, 10.963057 ], [ -74.8428, 10.95897 ], [ -74.841805, 10.950314 ], [ -74.841852, 10.945629 ], [ -74.843837, 10.938108 ], [ -74.846344, 10.929839 ], [ -74.847516, 10.924702 ], [ -74.847424, 10.921951 ], [ -74.847631, 10.918976 ], [ -74.846332, 10.915786 ], [ -74.843065, 10.910601 ], [ -74.837306, 10.903795 ], [ -74.831918, 10.896318 ], [ -74.823424, 10.885067 ], [ -74.818801, 10.879369 ], [ -74.814483, 10.874487 ], [ -74.810545, 10.870198 ], [ -74.808197, 10.86746 ], [ -74.806833, 10.865758 ], [ -74.804486, 10.863281 ], [ -74.801693, 10.861699 ], [ -74.798638, 10.860304 ], [ -74.796005, 10.860171 ], [ -74.793449, 10.86052 ], [ -74.790896, 10.861279 ], [ -74.787963, 10.86137 ], [ -74.783638, 10.861432 ], [ -74.779464, 10.861531 ], [ -74.77676, 10.862327 ], [ -74.774364, 10.8642 ], [ -74.772392, 10.867743 ], [ -74.771403, 10.872359 ], [ -74.770302, 10.883296 ], [ -74.769811, 10.889396 ], [ -74.769776, 10.8962 ], [ -74.769848, 10.902036 ], [ -74.770551, 10.906271 ], [ -74.776696, 10.921218 ], [ -74.780367, 10.931309 ], [ -74.783288, 10.941553 ], [ -74.786039, 10.948675 ], [ -74.786744, 10.953206 ], [ -74.786164, 10.956928 ], [ -74.784394, 10.962886 ], [ -74.78141, 10.967291 ], [ -74.777918, 10.974747 ], [ -74.776213, 10.979144 ], [ -74.775485, 10.983238 ], [ -74.775965, 10.987919 ], [ -74.77802, 10.991774 ], [ -74.78174, 10.997254 ], [ -74.78531, 11.002587 ], [ -74.790083, 11.007912 ], [ -74.793572, 11.012428 ], [ -74.798057, 11.019762 ], [ -74.803364, 11.026125 ], [ -74.808817, 11.031521 ], [ -74.813732, 11.035283 ], [ -74.817358, 11.037492 ], [ -74.821355, 11.038658 ], [ -74.822692, 11.038873 ], [ -74.82428, 11.039073 ], [ -74.825669, 11.039311 ], [ -74.826443, 11.039028 ], [ -74.826864, 11.038787 ], [ -74.827339, 11.038789 ], [ -74.827511, 11.038775 ], [ -74.827641, 11.038745 ], [ -74.827997, 11.038529 ] ] ] } },
{ "type": "Feature", "properties": { "Name": "CORREDOR INTERCAMBIADOR" }, "geometry": { "type": "LineString", "coordinates": [ [ -74.827305, 11.038403 ], [ -74.829996, 11.035413 ], [ -74.833041, 11.031881 ], [ -74.833486, 11.030801 ], [ -74.835187, 11.02592 ], [ -74.838136, 11.019025 ], [ -74.83963, 11.014257 ], [ -74.840781, 11.011685 ], [ -74.84414, 11.013412 ], [ -74.847428, 11.015548 ], [ -74.851087, 11.01705 ], [ -74.854514, 11.017438 ], [ -74.857899, 11.017268 ], [ -74.867749, 11.015684 ], [ -74.870381, 11.015407 ], [ -74.872258, 11.014652 ], [ -74.87461, 11.013007 ] ] } },
{ "type": "Feature", "properties": { "Name": "CORREDOR METROPOLITANO DE TRANSPORTE CIRCUNVALAR" }, "geometry": { "type": "LineString", "coordinates": [ [ -74.841025, 11.01159 ], [ -74.842931, 11.006467 ], [ -74.843125, 11.004365 ], [ -74.843094, 11.002432 ], [ -74.842423, 11.000485 ], [ -74.841544, 10.998315 ], [ -74.840056, 10.994978 ], [ -74.838264, 10.99116 ], [ -74.83753, 10.988116 ], [ -74.837134, 10.984958 ], [ -74.837075, 10.98139 ], [ -74.837237, 10.977225 ], [ -74.838146, 10.972126 ], [ -74.838919, 10.969296 ], [ -74.839198, 10.965688 ], [ -74.837922, 10.960157 ], [ -74.83661, 10.954885 ], [ -74.835114, 10.950284 ], [ -74.835693, 10.941885 ], [ -74.835447, 10.937085 ], [ -74.834592, 10.932666 ], [ -74.832467, 10.929667 ], [ -74.828504, 10.927609 ], [ -74.818164, 10.922354 ], [ -74.815982, 10.922172 ], [ -74.811751, 10.922327 ], [ -74.804307, 10.923078 ], [ -74.797915, 10.923617 ], [ -74.794738, 10.923952 ], [ -74.791246, 10.925181 ], [ -74.78898, 10.926718 ], [ -74.785818, 10.929506 ], [ -74.78303, 10.932069 ], [ -74.781035, 10.933625 ] ] } },
{ "type": "Feature", "properties": { "Name": "CORREDOR PORTUARIO Y LOGISTICO" }, "geometry": { "type": "MultiLineString", "coordinates": [ [ [ -74.866055, 11.026823 ], [ -74.867377, 11.025736 ], [ -74.867547, 11.025634 ], [ -74.867717, 11.025558 ], [ -74.867903, 11.025501 ], [ -74.868096, 11.02547 ], [ -74.868423, 11.025483 ], [ -74.868794, 11.025538 ], [ -74.869019, 11.025544 ], [ -74.869243, 11.025524 ], [ -74.869463, 11.025481 ], [ -74.869677, 11.025413 ], [ -74.869882, 11.025322 ], [ -74.870075, 11.02521 ], [ -74.870255, 11.025077 ], [ -74.870418, 11.024925 ], [ -74.870563, 11.024756 ], [ -74.872901, 11.021744 ], [ -74.873148, 11.021481 ], [ -74.873546, 11.021196 ], [ -74.876065, 11.019749 ], [ -74.876383, 11.019545 ], [ -74.876679, 11.019297 ], [ -74.87682, 11.019143 ], [ -74.876989, 11.018913 ], [ -74.877106, 11.018706 ], [ -74.877195, 11.018505 ], [ -74.877273, 11.018256 ], [ -74.877338, 11.017862 ], [ -74.87729, 11.017389 ], [ -74.877145, 11.016704 ], [ -74.876122, 11.012627 ], [ -74.876077, 11.012364 ], [ -74.876044, 11.01197 ], [ -74.876054, 11.011555 ], [ -74.876083, 11.011295 ], [ -74.876141, 11.01099 ], [ -74.876227, 11.010679 ], [ -74.876337, 11.010379 ], [ -74.876555, 11.009938 ], [ -74.877126, 11.009035 ], [ -74.879408, 11.005539 ], [ -74.881109, 11.002831 ], [ -74.882523, 11.000693 ], [ -74.884148, 10.998406 ], [ -74.884438, 10.997924 ], [ -74.884829, 10.99721 ], [ -74.8855, 10.99606 ], [ -74.889195, 10.990263 ], [ -74.889458, 10.989796 ], [ -74.889612, 10.989472 ], [ -74.889706, 10.989225 ], [ -74.889776, 10.988943 ], [ -74.889804, 10.988757 ], [ -74.89014, 10.985986 ], [ -74.890552, 10.983266 ], [ -74.89096, 10.97983 ], [ -74.891175, 10.978477 ], [ -74.891428, 10.976556 ], [ -74.891589, 10.976033 ], [ -74.891932, 10.975252 ], [ -74.892239, 10.974744 ], [ -74.892975, 10.973839 ], [ -74.893342, 10.9735 ], [ -74.894021, 10.972978 ], [ -74.898442, 10.969742 ], [ -74.899789, 10.968736 ], [ -74.900175, 10.968386 ], [ -74.900407, 10.96814 ], [ -74.900712, 10.967714 ], [ -74.900956, 10.967254 ], [ -74.901096, 10.966817 ], [ -74.901194, 10.966327 ], [ -74.901236, 10.965888 ], [ -74.901235, 10.965419 ], [ -74.901124, 10.964868 ], [ -74.900967, 10.964342 ], [ -74.900381, 10.962824 ], [ -74.899613, 10.960475 ], [ -74.898732, 10.958637 ], [ -74.898305, 10.957665 ], [ -74.897058, 10.954593 ], [ -74.896656, 10.953519 ], [ -74.896523, 10.95308 ], [ -74.896454, 10.952779 ], [ -74.896401, 10.952388 ], [ -74.896352, 10.951852 ], [ -74.896215, 10.94761 ], [ -74.896154, 10.9468 ], [ -74.895875, 10.943733 ], [ -74.895735, 10.942487 ], [ -74.895746, 10.941774 ], [ -74.895785, 10.941397 ], [ -74.895872, 10.941 ], [ -74.896033, 10.94052 ], [ -74.897555, 10.936889 ], [ -74.89772, 10.936462 ], [ -74.898042, 10.935751 ], [ -74.898246, 10.935174 ], [ -74.898332, 10.934742 ], [ -74.898356, 10.934105 ], [ -74.898308, 10.933683 ], [ -74.898219, 10.933273 ], [ -74.898014, 10.932649 ], [ -74.89779, 10.932212 ], [ -74.89753, 10.931851 ], [ -74.897171, 10.931472 ], [ -74.894626, 10.929259 ], [ -74.893761, 10.92859 ], [ -74.891559, 10.926744 ], [ -74.891377, 10.926599 ], [ -74.890994, 10.926335 ], [ -74.890475, 10.92605 ], [ -74.890141, 10.925905 ], [ -74.889797, 10.925783 ], [ -74.888482, 10.925423 ] ], [ [ -74.884724, 10.92462 ], [ -74.88388, 10.92439 ], [ -74.883674, 10.924322 ], [ -74.883342, 10.92418 ], [ -74.882982, 10.923977 ], [ -74.88279, 10.923844 ], [ -74.882395, 10.923501 ], [ -74.882049, 10.923093 ], [ -74.881873, 10.922824 ], [ -74.881728, 10.922551 ], [ -74.881225, 10.92148 ], [ -74.881096, 10.921232 ], [ -74.880924, 10.920958 ], [ -74.880594, 10.920534 ], [ -74.880299, 10.920221 ], [ -74.880015, 10.919934 ], [ -74.879701, 10.919678 ], [ -74.879224, 10.919378 ], [ -74.878913, 10.919229 ], [ -74.877372, 10.918629 ], [ -74.8761, 10.918154 ], [ -74.875464, 10.917722 ], [ -74.875137, 10.917438 ], [ -74.874844, 10.917122 ], [ -74.87443, 10.916531 ], [ -74.874246, 10.916222 ], [ -74.874076, 10.915904 ], [ -74.873281, 10.914201 ], [ -74.87313, 10.913908 ], [ -74.872952, 10.913614 ], [ -74.87117, 10.910972 ], [ -74.870672, 10.910007 ], [ -74.869136, 10.906307 ], [ -74.868382, 10.904326 ], [ -74.866978, 10.900863 ], [ -74.866695, 10.900255 ], [ -74.86654, 10.899965 ], [ -74.866352, 10.899686 ], [ -74.865992, 10.89922 ], [ -74.865619, 10.898833 ], [ -74.86525, 10.898503 ], [ -74.864666, 10.898093 ], [ -74.86246, 10.896823 ], [ -74.860029, 10.895319 ], [ -74.859453, 10.894942 ], [ -74.859018, 10.894692 ], [ -74.857892, 10.894119 ], [ -74.857055, 10.893654 ], [ -74.853579, 10.891647 ], [ -74.85249, 10.890983 ], [ -74.850527, 10.889835 ], [ -74.848472, 10.8887 ], [ -74.847035, 10.887775 ], [ -74.845125, 10.886487 ], [ -74.844315, 10.886015 ], [ -74.841976, 10.884875 ], [ -74.841002, 10.884346 ], [ -74.836904, 10.881988 ], [ -74.836695, 10.881883 ], [ -74.836265, 10.881711 ], [ -74.832862, 10.880722 ], [ -74.83224, 10.880511 ], [ -74.831786, 10.880316 ], [ -74.831, 10.879797 ], [ -74.830707, 10.87944 ], [ -74.830269, 10.878734 ], [ -74.830056, 10.878306 ], [ -74.829909, 10.877828 ], [ -74.829828, 10.8775 ], [ -74.829015, 10.873723 ], [ -74.828794, 10.872031 ], [ -74.828691, 10.871457 ], [ -74.8286, 10.871095 ], [ -74.82816, 10.869914 ], [ -74.827524, 10.867206 ], [ -74.826846, 10.863999 ], [ -74.826339, 10.861726 ], [ -74.826194, 10.861146 ], [ -74.825432, 10.857447 ], [ -74.825228, 10.855914 ], [ -74.825081, 10.855109 ], [ -74.824946, 10.854765 ], [ -74.82449, 10.85329 ], [ -74.824153, 10.851944 ], [ -74.823844, 10.850535 ], [ -74.823367, 10.84849 ], [ -74.822983, 10.847352 ], [ -74.822559, 10.846396 ], [ -74.822141, 10.845611 ], [ -74.821782, 10.84501 ], [ -74.82128, 10.844286 ], [ -74.820652, 10.843505 ], [ -74.820212, 10.843011 ], [ -74.819652, 10.842455 ], [ -74.818995, 10.841881 ], [ -74.818177, 10.841251 ], [ -74.817064, 10.840529 ], [ -74.813952, 10.838702 ], [ -74.812699, 10.837831 ], [ -74.812164, 10.837488 ], [ -74.811927, 10.837352 ], [ -74.811025, 10.836947 ], [ -74.810039, 10.836425 ], [ -74.807909, 10.835205 ], [ -74.804763, 10.833353 ], [ -74.802893, 10.832389 ], [ -74.800587, 10.831283 ], [ -74.798137, 10.830052 ], [ -74.791271, 10.826667 ], [ -74.790463, 10.826278 ], [ -74.790054, 10.826138 ], [ -74.789483, 10.826004 ], [ -74.7887, 10.825898 ], [ -74.788214, 10.825886 ], [ -74.787491, 10.825952 ], [ -74.780449, 10.826978 ], [ -74.780087, 10.82702 ], [ -74.778558, 10.827084 ], [ -74.778281, 10.827136 ], [ -74.77719, 10.827423 ], [ -74.776527, 10.827576 ], [ -74.775449, 10.827776 ], [ -74.771021, 10.828411 ], [ -74.770783, 10.828417 ], [ -74.770154, 10.828361 ], [ -74.769174, 10.828073 ] ], [ [ -74.866411, 11.026396 ], [ -74.865616, 11.027108 ], [ -74.865412, 11.027611 ], [ -74.865306, 11.028801 ], [ -74.865632, 11.029747 ], [ -74.86669, 11.031795 ], [ -74.867215, 11.033055 ], [ -74.868849, 11.035582 ], [ -74.869544, 11.038292 ], [ -74.86956, 11.04082 ] ], [ [ -74.826467, 10.862922 ], [ -74.826908, 10.864821 ], [ -74.827758, 10.868671 ], [ -74.82802, 10.869943 ], [ -74.828183, 10.871003 ], [ -74.828305, 10.87165 ], [ -74.828465, 10.872332 ], [ -74.828849, 10.873757 ], [ -74.82947, 10.876398 ], [ -74.82979, 10.877893 ], [ -74.829938, 10.878393 ], [ -74.830141, 10.878847 ], [ -74.830301, 10.879121 ], [ -74.830601, 10.879531 ], [ -74.830943, 10.87989 ], [ -74.831304, 10.880149 ], [ -74.831707, 10.880394 ], [ -74.83219, 10.880612 ], [ -74.836202, 10.881786 ], [ -74.83666, 10.881961 ], [ -74.836864, 10.882064 ], [ -74.841883, 10.88497 ], [ -74.842952, 10.885687 ], [ -74.84331, 10.885943 ], [ -74.84441, 10.886666 ], [ -74.845508, 10.887255 ], [ -74.846982, 10.887981 ], [ -74.850509, 10.889998 ], [ -74.851482, 10.890535 ], [ -74.856919, 10.893749 ], [ -74.857779, 10.894302 ], [ -74.858717, 10.894977 ], [ -74.859147, 10.895264 ], [ -74.8609, 10.896114 ], [ -74.861248, 10.896299 ], [ -74.864522, 10.898185 ], [ -74.865153, 10.898633 ], [ -74.865506, 10.898931 ], [ -74.86585, 10.899274 ], [ -74.866229, 10.899761 ], [ -74.866422, 10.900054 ], [ -74.866714, 10.900595 ], [ -74.86686, 10.900914 ], [ -74.870357, 10.909618 ], [ -74.870653, 10.910325 ], [ -74.870842, 10.910729 ], [ -74.872371, 10.913401 ], [ -74.87273, 10.914082 ], [ -74.873682, 10.915717 ], [ -74.874029, 10.916353 ], [ -74.874236, 10.916681 ], [ -74.874466, 10.916993 ], [ -74.874719, 10.917287 ], [ -74.875056, 10.917575 ], [ -74.87541, 10.917842 ], [ -74.875779, 10.918088 ], [ -74.876073, 10.918251 ], [ -74.877337, 10.918747 ], [ -74.87853, 10.919171 ], [ -74.878859, 10.919312 ], [ -74.879176, 10.919471 ], [ -74.879425, 10.91962 ], [ -74.879649, 10.91977 ], [ -74.879956, 10.920008 ], [ -74.880234, 10.920287 ], [ -74.88052, 10.920607 ], [ -74.880827, 10.921002 ], [ -74.880994, 10.921261 ], [ -74.881356, 10.921962 ], [ -74.881521, 10.922409 ], [ -74.881691, 10.922785 ], [ -74.88177, 10.92293 ], [ -74.882108, 10.923424 ], [ -74.88234, 10.923686 ], [ -74.882543, 10.923881 ], [ -74.882866, 10.92414 ], [ -74.883264, 10.924391 ], [ -74.883661, 10.92458 ], [ -74.884071, 10.924723 ], [ -74.884516, 10.924853 ], [ -74.886375, 10.925328 ], [ -74.887992, 10.925657 ], [ -74.890259, 10.926201 ], [ -74.890635, 10.926351 ], [ -74.890992, 10.926527 ], [ -74.891396, 10.926792 ], [ -74.891641, 10.926978 ], [ -74.893688, 10.928679 ], [ -74.894373, 10.929305 ], [ -74.895167, 10.929895 ], [ -74.896098, 10.930643 ], [ -74.896994, 10.931405 ], [ -74.897473, 10.931897 ], [ -74.897727, 10.932248 ], [ -74.898006, 10.93283 ], [ -74.898148, 10.933289 ], [ -74.898282, 10.93411 ], [ -74.898259, 10.934734 ], [ -74.898175, 10.935156 ], [ -74.897974, 10.935725 ], [ -74.897692, 10.936348 ], [ -74.895927, 10.940522 ], [ -74.895659, 10.941282 ], [ -74.895631, 10.941414 ], [ -74.895588, 10.941768 ], [ -74.895566, 10.942133 ], [ -74.895755, 10.946829 ], [ -74.895835, 10.947636 ], [ -74.895904, 10.948681 ], [ -74.896245, 10.952414 ], [ -74.896354, 10.952957 ], [ -74.89652, 10.953485 ], [ -74.896952, 10.954631 ], [ -74.897723, 10.956518 ], [ -74.898535, 10.958705 ], [ -74.898996, 10.960331 ], [ -74.899107, 10.960654 ], [ -74.900192, 10.962787 ], [ -74.900424, 10.963325 ], [ -74.900931, 10.964621 ], [ -74.901065, 10.965155 ], [ -74.901121, 10.965843 ], [ -74.90109, 10.966282 ], [ -74.901004, 10.966755 ], [ -74.900859, 10.967198 ], [ -74.900641, 10.967613 ], [ -74.900282, 10.968107 ], [ -74.900024, 10.968394 ], [ -74.899704, 10.968673 ], [ -74.897293, 10.970406 ], [ -74.893945, 10.972876 ], [ -74.893234, 10.97344 ], [ -74.892877, 10.973776 ], [ -74.892125, 10.974688 ], [ -74.891932, 10.974988 ], [ -74.891804, 10.975233 ], [ -74.89147, 10.976004 ], [ -74.891304, 10.976533 ], [ -74.8898, 10.987948 ], [ -74.889638, 10.989012 ], [ -74.889498, 10.989441 ], [ -74.889368, 10.989748 ], [ -74.889122, 10.99021 ], [ -74.888816, 10.990654 ], [ -74.888341, 10.991421 ], [ -74.885387, 10.99599 ], [ -74.883833, 10.998157 ], [ -74.883135, 10.999429 ], [ -74.882358, 11.000707 ], [ -74.879287, 11.005464 ], [ -74.879052, 11.005858 ], [ -74.876439, 11.009926 ], [ -74.876251, 11.010312 ], [ -74.876133, 11.010628 ], [ -74.876042, 11.010953 ], [ -74.875985, 11.011255 ], [ -74.875951, 11.011556 ], [ -74.875945, 11.012021 ], [ -74.875975, 11.012363 ], [ -74.877142, 11.01737 ], [ -74.87717, 11.01772 ], [ -74.87714, 11.018126 ], [ -74.87703, 11.018516 ], [ -74.876921, 11.018746 ], [ -74.876817, 11.018915 ], [ -74.876672, 11.019102 ], [ -74.876416, 11.019349 ], [ -74.876239, 11.019477 ], [ -74.87407, 11.02067 ], [ -74.873672, 11.020902 ], [ -74.873295, 11.021165 ], [ -74.872944, 11.021489 ], [ -74.87035, 11.024734 ], [ -74.870193, 11.024907 ], [ -74.870013, 11.025058 ], [ -74.869814, 11.025184 ], [ -74.8696, 11.025282 ], [ -74.869374, 11.025352 ], [ -74.869141, 11.02539 ], [ -74.868904, 11.025398 ], [ -74.868291, 11.025327 ], [ -74.868103, 11.025327 ], [ -74.867873, 11.025361 ], [ -74.867663, 11.025416 ], [ -74.867408, 11.025532 ], [ -74.867176, 11.025685 ], [ -74.865926, 11.026721 ] ], [ [ -74.769203, 10.828224 ], [ -74.769571, 10.828346 ], [ -74.769946, 10.828439 ], [ -74.770329, 10.828502 ], [ -74.770715, 10.828534 ], [ -74.771035, 10.828509 ], [ -74.775463, 10.827865 ], [ -74.776567, 10.827721 ], [ -74.778617, 10.827502 ], [ -74.78047, 10.827133 ], [ -74.78359, 10.826622 ], [ -74.787544, 10.826038 ], [ -74.788107, 10.825988 ], [ -74.78868, 10.825991 ], [ -74.789204, 10.826049 ], [ -74.789742, 10.826153 ], [ -74.790347, 10.826324 ], [ -74.790655, 10.826452 ], [ -74.792244, 10.827253 ], [ -74.798069, 10.830119 ], [ -74.799231, 10.830721 ], [ -74.802824, 10.832495 ], [ -74.804704, 10.833442 ], [ -74.808957, 10.835913 ], [ -74.809965, 10.836532 ], [ -74.810849, 10.837143 ], [ -74.81182, 10.837783 ], [ -74.812492, 10.838131 ], [ -74.81384, 10.83879 ], [ -74.814941, 10.839433 ], [ -74.815737, 10.839861 ], [ -74.817015, 10.840606 ], [ -74.818123, 10.841324 ], [ -74.818936, 10.84195 ], [ -74.819589, 10.84252 ], [ -74.820145, 10.843072 ], [ -74.820581, 10.843562 ], [ -74.821207, 10.84434 ], [ -74.821704, 10.845059 ], [ -74.822061, 10.845655 ], [ -74.822477, 10.846435 ], [ -74.822898, 10.847384 ], [ -74.823279, 10.848515 ], [ -74.823755, 10.850554 ], [ -74.824346, 10.853295 ], [ -74.82459, 10.854852 ], [ -74.82463, 10.855204 ], [ -74.824824, 10.855988 ], [ -74.825275, 10.857428 ], [ -74.825492, 10.858254 ], [ -74.826251, 10.861902 ] ], [ [ -74.769084, 10.828116 ], [ -74.768386, 10.8279 ], [ -74.767801, 10.827649 ], [ -74.767385, 10.827356 ], [ -74.765972, 10.826564 ], [ -74.764843, 10.826741 ], [ -74.761237, 10.8267 ], [ -74.758045, 10.827338 ], [ -74.756792, 10.82826 ], [ -74.756532, 10.829703 ], [ -74.756958, 10.831665 ], [ -74.756768, 10.83306 ], [ -74.756201, 10.834313 ], [ -74.756012, 10.835637 ], [ -74.756721, 10.839113 ], [ -74.756792, 10.841714 ], [ -74.757289, 10.843676 ], [ -74.7584, 10.844906 ], [ -74.760244, 10.845568 ], [ -74.761781, 10.845473 ] ] ] } }
]
}
