{
"type": "FeatureCollection",
"name": "estructura_ecosistemica_y_morfologia_del_borde_urbano",
"crs": { "type": "name", "properties": { "name": "urn:ogc:def:crs:OGC:1.3:CRS84" } },
"xy_coordinate_resolution": 1e-06,
"features": [
{ "type": "Feature", "properties": { "NOMBRE": "ESTRUCTURA ECOSISTEMICA", "CLASE": "FRANJA DE AMORTIGUAMIENTO ECOLOGICO" }, "geometry": { "type": "Polygon", "coordinates": [ [ [ -74.854479, 11.033669 ], [ -74.853319, 11.033592 ], [ -74.851539, 11.034056 ], [ -74.850198, 11.034546 ], [ -74.849218, 11.035113 ], [ -74.848934, 11.037048 ], [ -74.848908, 11.038492 ], [ -74.848599, 11.038698 ], [ -74.848031, 11.03826 ], [ -74.847825, 11.03795 ], [ -74.847051, 11.037976 ], [ -74.846484, 11.039163 ], [ -74.846123, 11.040684 ], [ -74.845427, 11.040529 ], [ -74.845143, 11.039756 ], [ -74.845762, 11.038905 ], [ -74.846046, 11.037615 ], [ -74.846665, 11.036093 ], [ -74.847077, 11.034959 ], [ -74.847232, 11.034159 ], [ -74.848289, 11.033437 ], [ -74.848883, 11.032612 ], [ -74.84816, 11.031993 ], [ -74.84749, 11.031554 ], [ -74.845401, 11.032534 ], [ -74.844498, 11.032921 ], [ -74.84375, 11.032612 ], [ -74.843544, 11.032302 ], [ -74.842615, 11.032715 ], [ -74.841816, 11.033127 ], [ -74.840887, 11.033127 ], [ -74.839804, 11.03385 ], [ -74.838128, 11.036093 ], [ -74.837019, 11.03679 ], [ -74.836271, 11.036583 ], [ -74.835626, 11.036119 ], [ -74.835394, 11.03581 ], [ -74.834839, 11.035784 ], [ -74.834414, 11.036048 ], [ -74.834143, 11.036564 ], [ -74.833853, 11.037228 ], [ -74.833956, 11.038073 ], [ -74.834169, 11.038995 ], [ -74.834246, 11.039401 ], [ -74.834156, 11.03984 ], [ -74.833595, 11.040278 ], [ -74.832783, 11.041155 ], [ -74.832144, 11.041619 ], [ -74.831828, 11.041548 ], [ -74.83119, 11.041348 ], [ -74.831067, 11.041232 ], [ -74.83088, 11.041174 ], [ -74.830107, 11.040529 ], [ -74.828869, 11.039021 ], [ -74.827754, 11.038517 ], [ -74.827623, 11.038605 ], [ -74.827069, 11.038855 ], [ -74.826946, 11.038903 ], [ -74.826775, 11.038926 ], [ -74.826891, 11.038709 ], [ -74.826937, 11.038501 ], [ -74.827082, 11.037481 ], [ -74.82713, 11.03734 ], [ -74.827242, 11.037108 ], [ -74.827481, 11.036846 ], [ -74.829057, 11.035276 ], [ -74.830065, 11.034135 ], [ -74.830575, 11.033484 ], [ -74.83111, 11.032761 ], [ -74.830648, 11.032263 ], [ -74.828533, 11.031103 ], [ -74.82678, 11.03051 ], [ -74.823195, 11.030045 ], [ -74.821389, 11.030045 ], [ -74.819017, 11.029143 ], [ -74.821441, 11.025094 ], [ -74.822705, 11.021586 ], [ -74.824252, 11.022721 ], [ -74.826909, 11.025506 ], [ -74.829565, 11.027312 ], [ -74.831783, 11.027827 ], [ -74.832944, 11.027312 ], [ -74.83437, 11.026146 ], [ -74.835613, 11.026125 ], [ -74.838063, 11.025519 ], [ -74.840178, 11.025493 ], [ -74.842448, 11.025545 ], [ -74.849308, 11.026435 ], [ -74.851449, 11.026473 ], [ -74.851629, 11.027131 ], [ -74.851836, 11.028846 ], [ -74.851871, 11.029682 ], [ -74.8528, 11.029777 ], [ -74.85347, 11.029902 ], [ -74.856101, 11.030534 ], [ -74.855794, 11.031219 ], [ -74.854479, 11.033669 ] ] ] } },
{ "type": "Feature", "properties": { "NOMBRE": "MORFOLOGIA BORDE URBANO", "CLASE": "ZONA URBANA" }, "geometry": { "type": "Polygon", "coordinates": [ [ [ -74.83088, 11.041174 ], [ -74.830455, 11.041329 ], [ -74.829939, 11.041303 ], [ -74.829759, 11.041754 ], [ -74.830506, 11.042412 ], [ -74.831319, 11.043199 ], [ -74.831886, 11.043792 ], [ -74.832041, 11.044101 ], [ -74.831848, 11.044488 ], [ -74.831409, 11.044669 ], [ -74.831061, 11.044463 ], [ -74.83079, 11.044243 ], [ -74.830635, 11.044243 ], [ -74.830133, 11.044308 ], [ -74.830532, 11.044669 ], [ -74.830764, 11.044978 ], [ -74.830726, 11.045481 ], [ -74.830571, 11.045894 ], [ -74.830171, 11.046229 ], [ -74.829681, 11.046294 ], [ -74.827796, 11.047153 ], [ -74.827234, 11.046763 ], [ -74.826822, 11.0465 ], [ -74.825901, 11.045975 ], [ -74.824958, 11.045498 ], [ -74.822091, 11.044144 ], [ -74.821266, 11.043714 ], [ -74.82047, 11.043248 ], [ -74.819769, 11.042777 ], [ -74.819343, 11.042452 ], [ -74.817823, 11.041133 ], [ -74.817393, 11.040783 ], [ -74.816716, 11.040268 ], [ -74.815743, 11.039593 ], [ -74.815223, 11.03926 ], [ -74.814396, 11.038758 ], [ -74.813314, 11.038148 ], [ -74.811646, 11.037277 ], [ -74.807907, 11.035449 ], [ -74.806289, 11.034632 ], [ -74.804854, 11.033854 ], [ -74.803612, 11.033115 ], [ -74.802505, 11.032383 ], [ -74.801692, 11.031789 ], [ -74.800937, 11.03118 ], [ -74.800465, 11.030766 ], [ -74.799985, 11.030317 ], [ -74.799237, 11.029566 ], [ -74.798535, 11.028815 ], [ -74.796217, 11.026182 ], [ -74.795168, 11.025034 ], [ -74.794448, 11.024298 ], [ -74.793985, 11.023855 ], [ -74.793084, 11.023064 ], [ -74.792661, 11.022733 ], [ -74.792202, 11.022406 ], [ -74.791704, 11.02208 ], [ -74.791156, 11.021748 ], [ -74.790097, 11.02116 ], [ -74.788151, 11.02015 ], [ -74.787028, 11.019541 ], [ -74.786186, 11.019039 ], [ -74.785356, 11.018475 ], [ -74.784899, 11.018122 ], [ -74.784614, 11.017883 ], [ -74.784092, 11.017392 ], [ -74.78364, 11.016895 ], [ -74.783095, 11.016214 ], [ -74.78277, 11.015839 ], [ -74.78247, 11.01553 ], [ -74.781965, 11.015065 ], [ -74.781582, 11.014747 ], [ -74.781044, 11.01433 ], [ -74.779471, 11.013198 ], [ -74.778687, 11.012613 ], [ -74.778214, 11.012229 ], [ -74.777755, 11.011826 ], [ -74.77678, 11.010932 ], [ -74.775561, 11.009758 ], [ -74.774586, 11.008773 ], [ -74.773121, 11.007217 ], [ -74.772142, 11.006126 ], [ -74.771158, 11.004991 ], [ -74.770169, 11.003808 ], [ -74.768672, 11.001971 ], [ -74.767451, 11.00043 ], [ -74.766371, 10.999013 ], [ -74.765389, 10.997664 ], [ -74.764787, 10.996798 ], [ -74.763945, 10.995527 ], [ -74.76342, 10.994686 ], [ -74.762693, 10.993449 ], [ -74.762249, 10.992637 ], [ -74.76164, 10.991435 ], [ -74.761272, 10.990641 ], [ -74.760774, 10.989461 ], [ -74.760233, 10.988071 ], [ -74.759731, 10.986701 ], [ -74.759328, 10.985473 ], [ -74.759004, 10.984322 ], [ -74.758798, 10.98344 ], [ -74.75864, 10.982593 ], [ -74.758552, 10.981976 ], [ -74.75849, 10.981359 ], [ -74.758392, 10.9796 ], [ -74.758308, 10.978928 ], [ -74.758184, 10.978223 ], [ -74.757988, 10.97736 ], [ -74.75777, 10.976554 ], [ -74.757463, 10.975539 ], [ -74.756699, 10.973156 ], [ -74.756458, 10.97234 ], [ -74.756278, 10.971667 ], [ -74.756107, 10.970922 ], [ -74.755972, 10.970176 ], [ -74.755883, 10.969468 ], [ -74.755843, 10.968882 ], [ -74.755837, 10.968247 ], [ -74.755869, 10.967699 ], [ -74.756113, 10.965738 ], [ -74.756154, 10.965244 ], [ -74.756167, 10.964795 ], [ -74.756153, 10.964487 ], [ -74.756112, 10.964129 ], [ -74.755878, 10.962697 ], [ -74.755852, 10.962314 ], [ -74.755861, 10.961979 ], [ -74.755923, 10.961583 ], [ -74.756293, 10.960244 ], [ -74.756635, 10.958752 ], [ -74.756903, 10.957366 ], [ -74.757124, 10.955967 ], [ -74.757299, 10.954554 ], [ -74.757429, 10.953124 ], [ -74.757515, 10.951588 ], [ -74.757544, 10.950322 ], [ -74.759253, 10.950322 ], [ -74.762631, 10.950374 ], [ -74.764288, 10.950761 ], [ -74.765481, 10.951219 ], [ -74.766448, 10.951244 ], [ -74.767235, 10.951045 ], [ -74.768015, 10.950574 ], [ -74.769453, 10.949948 ], [ -74.770672, 10.949542 ], [ -74.771864, 10.949168 ], [ -74.772864, 10.949329 ], [ -74.773554, 10.949329 ], [ -74.774534, 10.949142 ], [ -74.774869, 10.94891 ], [ -74.775133, 10.948491 ], [ -74.775469, 10.947479 ], [ -74.778125, 10.941225 ], [ -74.779814, 10.937292 ], [ -74.780511, 10.935357 ], [ -74.780717, 10.934003 ], [ -74.781349, 10.932933 ], [ -74.78318, 10.931411 ], [ -74.785527, 10.92918 ], [ -74.787642, 10.927104 ], [ -74.78928, 10.925905 ], [ -74.790801, 10.925157 ], [ -74.792839, 10.924306 ], [ -74.79507, 10.923854 ], [ -74.796334, 10.923661 ], [ -74.799132, 10.923493 ], [ -74.806701, 10.922965 ], [ -74.811795, 10.922758 ], [ -74.814697, 10.922578 ], [ -74.816244, 10.922771 ], [ -74.817547, 10.923171 ], [ -74.820151, 10.92437 ], [ -74.822034, 10.925337 ], [ -74.826406, 10.927401 ], [ -74.830506, 10.929309 ], [ -74.831512, 10.929812 ], [ -74.832247, 10.930483 ], [ -74.832866, 10.931218 ], [ -74.833472, 10.932017 ], [ -74.83404, 10.933333 ], [ -74.834298, 10.934467 ], [ -74.834425, 10.935732 ], [ -74.834994, 10.936208 ], [ -74.835974, 10.939149 ], [ -74.835897, 10.941263 ], [ -74.838141, 10.941392 ], [ -74.840745, 10.940902 ], [ -74.843608, 10.939767 ], [ -74.846548, 10.939071 ], [ -74.848199, 10.939355 ], [ -74.849798, 10.938633 ], [ -74.851294, 10.938684 ], [ -74.854157, 10.938272 ], [ -74.85622, 10.937653 ], [ -74.858232, 10.936595 ], [ -74.859934, 10.934867 ], [ -74.861378, 10.933294 ], [ -74.863596, 10.930766 ], [ -74.862539, 10.929993 ], [ -74.862668, 10.928548 ], [ -74.860811, 10.926408 ], [ -74.859521, 10.924138 ], [ -74.859263, 10.920734 ], [ -74.862023, 10.917819 ], [ -74.867878, 10.913177 ], [ -74.872443, 10.913512 ], [ -74.872829, 10.914028 ], [ -74.874145, 10.916401 ], [ -74.875073, 10.917562 ], [ -74.875821, 10.918103 ], [ -74.876827, 10.918516 ], [ -74.87773, 10.919135 ], [ -74.879097, 10.921043 ], [ -74.879174, 10.922101 ], [ -74.878684, 10.923158 ], [ -74.877807, 10.923829 ], [ -74.876234, 10.92437 ], [ -74.874093, 10.925144 ], [ -74.871462, 10.927207 ], [ -74.868935, 10.930251 ], [ -74.863725, 10.93479 ], [ -74.867697, 10.937214 ], [ -74.866923, 10.938865 ], [ -74.864086, 10.939226 ], [ -74.863106, 10.940619 ], [ -74.857484, 10.94 ], [ -74.854698, 10.940154 ], [ -74.850366, 10.941599 ], [ -74.846187, 10.944642 ], [ -74.844434, 10.946293 ], [ -74.840668, 10.946189 ], [ -74.838553, 10.948046 ], [ -74.836284, 10.950574 ], [ -74.83528, 10.953403 ], [ -74.835897, 10.955461 ], [ -74.838321, 10.963921 ], [ -74.838396, 10.96596 ], [ -74.839404, 10.96708 ], [ -74.839533, 10.970433 ], [ -74.839662, 10.972316 ], [ -74.841261, 10.973115 ], [ -74.8417, 10.975049 ], [ -74.843686, 10.97554 ], [ -74.846368, 10.976133 ], [ -74.848638, 10.975772 ], [ -74.850366, 10.975849 ], [ -74.852712, 10.974198 ], [ -74.855008, 10.972625 ], [ -74.858154, 10.972058 ], [ -74.862358, 10.970459 ], [ -74.870534, 10.966203 ], [ -74.874764, 10.963418 ], [ -74.88704, 10.95795 ], [ -74.888484, 10.956093 ], [ -74.890058, 10.951193 ], [ -74.892637, 10.951502 ], [ -74.895074, 10.952689 ], [ -74.89657, 10.953437 ], [ -74.897511, 10.955616 ], [ -74.898221, 10.957537 ], [ -74.897782, 10.961084 ], [ -74.891231, 10.962296 ], [ -74.880554, 10.968228 ], [ -74.873797, 10.97122 ], [ -74.869773, 10.972303 ], [ -74.865543, 10.975294 ], [ -74.85662, 10.979988 ], [ -74.850378, 10.980865 ], [ -74.844962, 10.982206 ], [ -74.838721, 10.985714 ], [ -74.836258, 10.986759 ], [ -74.836542, 10.988048 ], [ -74.836916, 10.989441 ], [ -74.83778, 10.991633 ], [ -74.838257, 10.992923 ], [ -74.838953, 10.994689 ], [ -74.842022, 11.003291 ], [ -74.842138, 11.003768 ], [ -74.842151, 11.004774 ], [ -74.8417, 11.007598 ], [ -74.841442, 11.008694 ], [ -74.84159, 11.009348 ], [ -74.841642, 11.010344 ], [ -74.841977, 11.01144 ], [ -74.842699, 11.01224 ], [ -74.844878, 11.013465 ], [ -74.847883, 11.015038 ], [ -74.84934, 11.0138 ], [ -74.850591, 11.014213 ], [ -74.851378, 11.013439 ], [ -74.851997, 11.013968 ], [ -74.850514, 11.016496 ], [ -74.850746, 11.016599 ], [ -74.853248, 11.016947 ], [ -74.855311, 11.016663 ], [ -74.858006, 11.016134 ], [ -74.859631, 11.01558 ], [ -74.86141, 11.012098 ], [ -74.864273, 11.012872 ], [ -74.863242, 11.015399 ], [ -74.864892, 11.015219 ], [ -74.866915, 11.014727 ], [ -74.867077, 11.014603 ], [ -74.867274, 11.014389 ], [ -74.867561, 11.014175 ], [ -74.868152, 11.013807 ], [ -74.868519, 11.013603 ], [ -74.868634, 11.013514 ], [ -74.868705, 11.013435 ], [ -74.868904, 11.013178 ], [ -74.869262, 11.012484 ], [ -74.869386, 11.012177 ], [ -74.869762, 11.011551 ], [ -74.869845, 11.011443 ], [ -74.870023, 11.011323 ], [ -74.870343, 11.010969 ], [ -74.87052, 11.010688 ], [ -74.870647, 11.010451 ], [ -74.87113, 11.009711 ], [ -74.871245, 11.009472 ], [ -74.871698, 11.008976 ], [ -74.873496, 11.010159 ], [ -74.874616, 11.011013 ], [ -74.87263, 11.015064 ], [ -74.868116, 11.01576 ], [ -74.860129, 11.016782 ], [ -74.857471, 11.017166 ], [ -74.855408, 11.017437 ], [ -74.852803, 11.017592 ], [ -74.851926, 11.017605 ], [ -74.850301, 11.017231 ], [ -74.848766, 11.016779 ], [ -74.847412, 11.016805 ], [ -74.841661, 11.017024 ], [ -74.838146, 11.01677 ], [ -74.836994, 11.019576 ], [ -74.835994, 11.022121 ], [ -74.83437, 11.026146 ], [ -74.832944, 11.027312 ], [ -74.831783, 11.027827 ], [ -74.829565, 11.027312 ], [ -74.826909, 11.025506 ], [ -74.824252, 11.022721 ], [ -74.822705, 11.021586 ], [ -74.821441, 11.025094 ], [ -74.819017, 11.029143 ], [ -74.821389, 11.030045 ], [ -74.823195, 11.030045 ], [ -74.82678, 11.03051 ], [ -74.828533, 11.031103 ], [ -74.830648, 11.032263 ], [ -74.83111, 11.032761 ], [ -74.830575, 11.033484 ], [ -74.830065, 11.034135 ], [ -74.829057, 11.035276 ], [ -74.827481, 11.036846 ], [ -74.827242, 11.037108 ], [ -74.82713, 11.03734 ], [ -74.827082, 11.037481 ], [ -74.826937, 11.038501 ], [ -74.826891, 11.038709 ], [ -74.826775, 11.038926 ], [ -74.826946, 11.038903 ], [ -74.827069, 11.038855 ], [ -74.827623, 11.038605 ], [ -74.827754, 11.038517 ], [ -74.828869, 11.039021 ], [ -74.830107, 11.040529 ], [ -74.83088, 11.041174 ] ] ] } },
{ "type": "Feature", "properties": { "NOMBRE": "INFRAESTRUCTURA DE PROTECCION", "CLASE": "FRANJA DE AMORTIGUAMIENTO ECOLOGICO" }, "geometry": { "type": "Polygon", "coordinates": [ [ [ -74.830171, 11.046229 ], [ -74.830803, 11.046932 ], [ -74.831538, 11.047048 ], [ -74.832699, 11.047435 ], [ -74.83315, 11.047164 ], [ -74.833086, 11.046197 ], [ -74.833756, 11.045462 ], [ -74.83453, 11.04563 ], [ -74.835497, 11.045991 ], [ -74.835923, 11.046623 ], [ -74.835832, 11.047551 ], [ -74.835536, 11.048737 ], [ -74.836387, 11.049692 ], [ -74.836851, 11.050388 ], [ -74.837161, 11.051678 ], [ -74.83747, 11.052864 ], [ -74.838166, 11.053612 ], [ -74.839508, 11.05436 ], [ -74.840255, 11.054308 ], [ -74.840874, 11.054463 ], [ -74.841132, 11.055417 ], [ -74.841803, 11.056243 ], [ -74.841339, 11.05681 ], [ -74.841081, 11.057635 ], [ -74.842293, 11.058796 ], [ -74.842757, 11.059492 ], [ -74.843092, 11.060395 ], [ -74.843822, 11.062661 ], [ -74.843855, 11.062815 ], [ -74.843849, 11.063002 ], [ -74.84402, 11.063241 ], [ -74.844101, 11.0634 ], [ -74.844306, 11.063609 ], [ -74.844364, 11.063805 ], [ -74.844534, 11.064027 ], [ -74.844613, 11.064215 ], [ -74.845687, 11.065804 ], [ -74.845884, 11.066133 ], [ -74.846014, 11.066488 ], [ -74.84611, 11.0667 ], [ -74.846149, 11.066854 ], [ -74.846585, 11.068953 ], [ -74.846967, 11.070603 ], [ -74.847654, 11.073902 ], [ -74.847737, 11.07407 ], [ -74.847803, 11.074363 ], [ -74.847831, 11.074623 ], [ -74.848172, 11.074804 ], [ -74.848196, 11.074967 ], [ -74.848122, 11.075435 ], [ -74.848089, 11.075791 ], [ -74.848158, 11.07624 ], [ -74.848314, 11.076849 ], [ -74.848651, 11.078455 ], [ -74.848731, 11.078649 ], [ -74.848767, 11.078991 ], [ -74.848815, 11.079202 ], [ -74.848925, 11.079444 ], [ -74.848923, 11.079542 ], [ -74.848893, 11.079602 ], [ -74.849107, 11.080469 ], [ -74.849479, 11.082163 ], [ -74.849715, 11.083313 ], [ -74.849843, 11.083827 ], [ -74.849936, 11.084328 ], [ -74.849966, 11.084385 ], [ -74.850083, 11.08443 ], [ -74.850025, 11.084523 ], [ -74.850054, 11.084815 ], [ -74.851602, 11.091976 ], [ -74.851683, 11.092329 ], [ -74.851859, 11.092838 ], [ -74.851937, 11.093239 ], [ -74.851945, 11.093383 ], [ -74.852019, 11.093851 ], [ -74.852609, 11.096526 ], [ -74.852746, 11.097059 ], [ -74.852836, 11.097285 ], [ -74.852848, 11.0974 ], [ -74.85304, 11.097549 ], [ -74.853137, 11.09752 ], [ -74.853241, 11.097514 ], [ -74.85334, 11.097444 ], [ -74.853406, 11.097486 ], [ -74.853332, 11.097546 ], [ -74.853176, 11.097631 ], [ -74.853082, 11.097657 ], [ -74.853012, 11.097738 ], [ -74.852948, 11.09777 ], [ -74.852913, 11.097826 ], [ -74.852892, 11.097931 ], [ -74.853164, 11.099088 ], [ -74.854238, 11.10404 ], [ -74.854447, 11.104793 ], [ -74.85457, 11.10537 ], [ -74.851861, 11.105367 ], [ -74.851751, 11.104539 ], [ -74.851598, 11.103726 ], [ -74.851402, 11.102927 ], [ -74.851247, 11.102403 ], [ -74.851072, 11.101885 ], [ -74.850878, 11.101375 ], [ -74.850322, 11.100099 ], [ -74.849872, 11.098965 ], [ -74.849462, 11.097782 ], [ -74.84909, 11.096547 ], [ -74.848753, 11.095254 ], [ -74.848393, 11.09361 ], [ -74.848095, 11.091968 ], [ -74.847865, 11.090454 ], [ -74.847653, 11.088803 ], [ -74.847474, 11.08719 ], [ -74.846874, 11.0809 ], [ -74.846731, 11.079542 ], [ -74.846421, 11.077066 ], [ -74.846149, 11.075329 ], [ -74.845951, 11.074246 ], [ -74.845734, 11.0732 ], [ -74.845495, 11.072184 ], [ -74.845237, 11.071208 ], [ -74.844959, 11.070267 ], [ -74.844658, 11.069358 ], [ -74.844419, 11.068696 ], [ -74.844079, 11.067838 ], [ -74.843525, 11.0666 ], [ -74.84274, 11.065029 ], [ -74.841758, 11.063166 ], [ -74.840801, 11.061472 ], [ -74.840006, 11.060161 ], [ -74.83905, 11.058699 ], [ -74.838246, 11.057568 ], [ -74.837351, 11.056392 ], [ -74.836424, 11.055244 ], [ -74.835141, 11.053761 ], [ -74.834148, 11.052689 ], [ -74.833472, 11.051996 ], [ -74.832788, 11.05132 ], [ -74.832095, 11.050664 ], [ -74.831394, 11.050027 ], [ -74.83033, 11.049109 ], [ -74.829612, 11.048523 ], [ -74.828889, 11.047958 ], [ -74.827796, 11.047153 ], [ -74.829681, 11.046294 ], [ -74.830171, 11.046229 ] ] ] } },
{ "type": "Feature", "properties": { "NOMBRE": "CIENAGA DE MALLORQUIN", "CLASE": "FRANJA DE AMORTIGUAMIENTO ECOLOGICO" }, "geometry": { "type": "Polygon", "coordinates": [ [ [ -74.854479, 11.033669 ], [ -74.855859, 11.033998 ], [ -74.857252, 11.035262 ], [ -74.857355, 11.03503 ], [ -74.857535, 11.033766 ], [ -74.85849, 11.03294 ], [ -74.859702, 11.032811 ], [ -74.860837, 11.032966 ], [ -74.861765, 11.033637 ], [ -74.86112, 11.034488 ], [ -74.85996, 11.03503 ], [ -74.859186, 11.035416 ], [ -74.858361, 11.035468 ], [ -74.857974, 11.035752 ], [ -74.858515, 11.036267 ], [ -74.860063, 11.036448 ], [ -74.861095, 11.036061 ], [ -74.862126, 11.035984 ], [ -74.863261, 11.036706 ], [ -74.864551, 11.037867 ], [ -74.865402, 11.039053 ], [ -74.866949, 11.040471 ], [ -74.8682, 11.04149 ], [ -74.868742, 11.042535 ], [ -74.869025, 11.043902 ], [ -74.869606, 11.04492 ], [ -74.869893, 11.046058 ], [ -74.868239, 11.046055 ], [ -74.86633, 11.046674 ], [ -74.863828, 11.04737 ], [ -74.862797, 11.048247 ], [ -74.862539, 11.048841 ], [ -74.861817, 11.04866 ], [ -74.860811, 11.048634 ], [ -74.858, 11.05013 ], [ -74.852764, 11.053431 ], [ -74.849721, 11.055753 ], [ -74.847425, 11.057996 ], [ -74.847014, 11.058506 ], [ -74.846806, 11.058422 ], [ -74.846487, 11.058162 ], [ -74.846344, 11.057927 ], [ -74.84631, 11.057742 ], [ -74.846328, 11.057696 ], [ -74.845952, 11.057358 ], [ -74.845927, 11.057458 ], [ -74.845875, 11.05756 ], [ -74.845799, 11.05767 ], [ -74.845662, 11.057793 ], [ -74.845576, 11.057984 ], [ -74.845621, 11.058616 ], [ -74.845253, 11.05976 ], [ -74.845006, 11.060431 ], [ -74.844389, 11.061509 ], [ -74.844052, 11.062028 ], [ -74.843929, 11.062298 ], [ -74.843874, 11.06245 ], [ -74.843822, 11.062661 ], [ -74.843092, 11.060395 ], [ -74.842757, 11.059492 ], [ -74.842293, 11.058796 ], [ -74.841081, 11.057635 ], [ -74.841339, 11.05681 ], [ -74.841803, 11.056243 ], [ -74.841132, 11.055417 ], [ -74.840874, 11.054463 ], [ -74.840255, 11.054308 ], [ -74.839508, 11.05436 ], [ -74.838166, 11.053612 ], [ -74.83747, 11.052864 ], [ -74.837161, 11.051678 ], [ -74.836851, 11.050388 ], [ -74.836387, 11.049692 ], [ -74.835536, 11.048737 ], [ -74.835832, 11.047551 ], [ -74.835923, 11.046623 ], [ -74.835497, 11.045991 ], [ -74.83453, 11.04563 ], [ -74.833756, 11.045462 ], [ -74.833086, 11.046197 ], [ -74.83315, 11.047164 ], [ -74.832699, 11.047435 ], [ -74.831538, 11.047048 ], [ -74.830803, 11.046932 ], [ -74.830171, 11.046229 ], [ -74.830571, 11.045894 ], [ -74.830726, 11.045481 ], [ -74.830764, 11.044978 ], [ -74.830532, 11.044669 ], [ -74.830133, 11.044308 ], [ -74.830635, 11.044243 ], [ -74.83079, 11.044243 ], [ -74.831061, 11.044463 ], [ -74.831409, 11.044669 ], [ -74.831848, 11.044488 ], [ -74.832041, 11.044101 ], [ -74.831886, 11.043792 ], [ -74.831319, 11.043199 ], [ -74.830506, 11.042412 ], [ -74.829759, 11.041754 ], [ -74.829939, 11.041303 ], [ -74.830455, 11.041329 ], [ -74.83088, 11.041174 ], [ -74.831067, 11.041232 ], [ -74.83119, 11.041348 ], [ -74.831828, 11.041548 ], [ -74.832144, 11.041619 ], [ -74.832783, 11.041155 ], [ -74.833595, 11.040278 ], [ -74.834156, 11.03984 ], [ -74.834246, 11.039401 ], [ -74.834169, 11.038995 ], [ -74.833956, 11.038073 ], [ -74.833853, 11.037228 ], [ -74.834143, 11.036564 ], [ -74.834414, 11.036048 ], [ -74.834839, 11.035784 ], [ -74.835394, 11.03581 ], [ -74.835626, 11.036119 ], [ -74.836271, 11.036583 ], [ -74.837019, 11.03679 ], [ -74.838128, 11.036093 ], [ -74.839804, 11.03385 ], [ -74.840887, 11.033127 ], [ -74.841816, 11.033127 ], [ -74.842615, 11.032715 ], [ -74.843544, 11.032302 ], [ -74.84375, 11.032612 ], [ -74.844498, 11.032921 ], [ -74.845401, 11.032534 ], [ -74.84749, 11.031554 ], [ -74.84816, 11.031993 ], [ -74.848883, 11.032612 ], [ -74.848289, 11.033437 ], [ -74.847232, 11.034159 ], [ -74.847077, 11.034959 ], [ -74.846665, 11.036093 ], [ -74.846046, 11.037615 ], [ -74.845762, 11.038905 ], [ -74.845143, 11.039756 ], [ -74.845427, 11.040529 ], [ -74.846123, 11.040684 ], [ -74.846484, 11.039163 ], [ -74.847051, 11.037976 ], [ -74.847825, 11.03795 ], [ -74.848031, 11.03826 ], [ -74.848599, 11.038698 ], [ -74.848908, 11.038492 ], [ -74.848934, 11.037048 ], [ -74.849218, 11.035113 ], [ -74.850198, 11.034546 ], [ -74.851539, 11.034056 ], [ -74.853319, 11.033592 ], [ -74.854479, 11.033669 ] ] ] } }
]
}
