{
"type": "FeatureCollection",
"name": "faixa_de_risco_tecnologico_e_amortecimento_cetesb",
"crs": { "type": "name", "properties": { "name": "urn:ogc:def:crs:OGC:1.3:CRS84" } },
"xy_coordinate_resolution": 1e-06,
"features": [
{ "type": "Feature", "properties": { "orgao": "CETESB / Defesa Civil SP", "classifica": "Fundo de Amortecimento e Risco Tecnológico Químico", "norma": "Resoluções SMA / Licenciamento Ambiental Industrial", "impacto": "Gases industriais, risco de vazamentos químicos e material particulado" }, "geometry": { "type": "Polygon", "coordinates": [ [ [ -46.42953, -23.919047 ], [ -46.433943, -23.873853 ], [ -46.399236, -23.842566 ], [ -46.315791, -23.843301 ], [ -46.316293, -23.892966 ], [ -46.42953, -23.919047 ] ] ] } }
]
}
