{
"type": "FeatureCollection",
"name": "franja_interface_urbano_rural_amb_mpios",
"crs": { "type": "name", "properties": { "name": "urn:ogc:def:crs:OGC:1.3:CRS84" } },
"xy_coordinate_resolution": 1e-06,
"features": [
{ "type": "Feature", "properties": { "NOMBRE": "FRANJA INTERFACE", "Area_Ha": 146.17648628808001, "MpCodigo": "08758", "MpNombre": "Soledad" }, "geometry": { "type": "Polygon", "coordinates": [ [ [ -74.824868, 10.90911 ], [ -74.827034, 10.903154 ], [ -74.828388, 10.899093 ], [ -74.829741, 10.896927 ], [ -74.832449, 10.89422 ], [ -74.837304, 10.892422 ], [ -74.837124, 10.892926 ], [ -74.836928, 10.893373 ], [ -74.836748, 10.89393 ], [ -74.836591, 10.894758 ], [ -74.836453, 10.895683 ], [ -74.836376, 10.896667 ], [ -74.836359, 10.897265 ], [ -74.83639, 10.89762 ], [ -74.836486, 10.898014 ], [ -74.836519, 10.89822 ], [ -74.836514, 10.898646 ], [ -74.836459, 10.899229 ], [ -74.836343, 10.89984 ], [ -74.836076, 10.900822 ], [ -74.835914, 10.900982 ], [ -74.835164, 10.901433 ], [ -74.834999, 10.901506 ], [ -74.834741, 10.901773 ], [ -74.834492, 10.902138 ], [ -74.834379, 10.902441 ], [ -74.833826, 10.903647 ], [ -74.83357, 10.903975 ], [ -74.833473, 10.904128 ], [ -74.833416, 10.904301 ], [ -74.833316, 10.904423 ], [ -74.832824, 10.904759 ], [ -74.832424, 10.905006 ], [ -74.832129, 10.90522 ], [ -74.832129, 10.905177 ], [ -74.830772, 10.906145 ], [ -74.830601, 10.906329 ], [ -74.830494, 10.906525 ], [ -74.830329, 10.906966 ], [ -74.830239, 10.907135 ], [ -74.829947, 10.907369 ], [ -74.829757, 10.907501 ], [ -74.829572, 10.907597 ], [ -74.828743, 10.907901 ], [ -74.828438, 10.908061 ], [ -74.828257, 10.908275 ], [ -74.828131, 10.90847 ], [ -74.828102, 10.908569 ], [ -74.828042, 10.909075 ], [ -74.828057, 10.909756 ], [ -74.828113, 10.910005 ], [ -74.828395, 10.910782 ], [ -74.828423, 10.911033 ], [ -74.828396, 10.911201 ], [ -74.828273, 10.911422 ], [ -74.827914, 10.911742 ], [ -74.827739, 10.911919 ], [ -74.827562, 10.912176 ], [ -74.827415, 10.912473 ], [ -74.827297, 10.912781 ], [ -74.827164, 10.913357 ], [ -74.827075, 10.913494 ], [ -74.826766, 10.913728 ], [ -74.826566, 10.91392 ], [ -74.826537, 10.914003 ], [ -74.826544, 10.914057 ], [ -74.826427, 10.913922 ], [ -74.825042, 10.914873 ], [ -74.824126, 10.915224 ], [ -74.822326, 10.916218 ], [ -74.821792, 10.916692 ], [ -74.821258, 10.917903 ], [ -74.820927, 10.918043 ], [ -74.824868, 10.90911 ] ] ] } },
{ "type": "Feature", "properties": { "NOMBRE": "FRANJA INTERFACE", "Area_Ha": 9308.74538185651, "MpCodigo": "08296", "MpNombre": "Galapa" }, "geometry": { "type": "Polygon", "coordinates": [ [ [ -74.839758, 10.891513 ], [ -74.845173, 10.889076 ], [ -74.851399, 10.884203 ], [ -74.856272, 10.879059 ], [ -74.85925, 10.875269 ], [ -74.860875, 10.87175 ], [ -74.863041, 10.865523 ], [ -74.865206, 10.861733 ], [ -74.86575, 10.860991 ], [ -74.866148, 10.860981 ], [ -74.866554, 10.860998 ], [ -74.86685, 10.860986 ], [ -74.867164, 10.860799 ], [ -74.867381, 10.86059 ], [ -74.867526, 10.86038 ], [ -74.867742, 10.859931 ], [ -74.867978, 10.859631 ], [ -74.868128, 10.859475 ], [ -74.86843, 10.85923 ], [ -74.868865, 10.858918 ], [ -74.869167, 10.858725 ], [ -74.8693, 10.858695 ], [ -74.869535, 10.858587 ], [ -74.869614, 10.858521 ], [ -74.869801, 10.858269 ], [ -74.869903, 10.858066 ], [ -74.869999, 10.857784 ], [ -74.870215, 10.857264 ], [ -74.870335, 10.856893 ], [ -74.870474, 10.856653 ], [ -74.87063, 10.856336 ], [ -74.870787, 10.85612 ], [ -74.87095, 10.85594 ], [ -74.871125, 10.855653 ], [ -74.871173, 10.855527 ], [ -74.87125, 10.85521 ], [ -74.87125, 10.854959 ], [ -74.871279, 10.854678 ], [ -74.871363, 10.854492 ], [ -74.871478, 10.854343 ], [ -74.871568, 10.854193 ], [ -74.87161, 10.854091 ], [ -74.871664, 10.853924 ], [ -74.871664, 10.853816 ], [ -74.871694, 10.853648 ], [ -74.871695, 10.853446 ], [ -74.872132, 10.853088 ], [ -74.874622, 10.852937 ], [ -74.876144, 10.852888 ], [ -74.88071, 10.852966 ], [ -74.882115, 10.852442 ], [ -74.883864, 10.851857 ], [ -74.88568, 10.85137 ], [ -74.88804, 10.850589 ], [ -74.889005, 10.85025 ], [ -74.889493, 10.850136 ], [ -74.891207, 10.849829 ], [ -74.891957, 10.850017 ], [ -74.892366, 10.850072 ], [ -74.892787, 10.850251 ], [ -74.892958, 10.850767 ], [ -74.89346, 10.85163 ], [ -74.894053, 10.85228 ], [ -74.894349, 10.852795 ], [ -74.89536, 10.852658 ], [ -74.895117, 10.851255 ], [ -74.895376, 10.850368 ], [ -74.896032, 10.849232 ], [ -74.899515, 10.843643 ], [ -74.899764, 10.843867 ], [ -74.901008, 10.845205 ], [ -74.901228, 10.845392 ], [ -74.901565, 10.845608 ], [ -74.901796, 10.845804 ], [ -74.901976, 10.846168 ], [ -74.902022, 10.846464 ], [ -74.902034, 10.847159 ], [ -74.901996, 10.847927 ], [ -74.901974, 10.848189 ], [ -74.901908, 10.848601 ], [ -74.901894, 10.848971 ], [ -74.901929, 10.849049 ], [ -74.902133, 10.849174 ], [ -74.902475, 10.849264 ], [ -74.902615, 10.84927 ], [ -74.902861, 10.849224 ], [ -74.902963, 10.849187 ], [ -74.903107, 10.849211 ], [ -74.903205, 10.849247 ], [ -74.903471, 10.849399 ], [ -74.903784, 10.849491 ], [ -74.904226, 10.849523 ], [ -74.904442, 10.849521 ], [ -74.905076, 10.849441 ], [ -74.905216, 10.849495 ], [ -74.905964, 10.84859 ], [ -74.906206, 10.848406 ], [ -74.906703, 10.84798 ], [ -74.907052, 10.847768 ], [ -74.907224, 10.847719 ], [ -74.907502, 10.847682 ], [ -74.907715, 10.847541 ], [ -74.907874, 10.847372 ], [ -74.908077, 10.847211 ], [ -74.908778, 10.846816 ], [ -74.909865, 10.846153 ], [ -74.910034, 10.845963 ], [ -74.910291, 10.84571 ], [ -74.910443, 10.845494 ], [ -74.910737, 10.84496 ], [ -74.910863, 10.844911 ], [ -74.911207, 10.844874 ], [ -74.911881, 10.844938 ], [ -74.912242, 10.844889 ], [ -74.91238, 10.844907 ], [ -74.912508, 10.844961 ], [ -74.912661, 10.845114 ], [ -74.912786, 10.845387 ], [ -74.912918, 10.845555 ], [ -74.91305, 10.845688 ], [ -74.913367, 10.845934 ], [ -74.913378, 10.84597 ], [ -74.913643, 10.845947 ], [ -74.913926, 10.845897 ], [ -74.913987, 10.845864 ], [ -74.914097, 10.845953 ], [ -74.914217, 10.846091 ], [ -74.914267, 10.846268 ], [ -74.914288, 10.846494 ], [ -74.91421, 10.846985 ], [ -74.914266, 10.84745 ], [ -74.91446, 10.847589 ], [ -74.914991, 10.84771 ], [ -74.917307, 10.847669 ], [ -74.918173, 10.847701 ], [ -74.919129, 10.847874 ], [ -74.919695, 10.848099 ], [ -74.920137, 10.848203 ], [ -74.920898, 10.848446 ], [ -74.921001, 10.848678 ], [ -74.920927, 10.848973 ], [ -74.920348, 10.849771 ], [ -74.920221, 10.849912 ], [ -74.920125, 10.850185 ], [ -74.920125, 10.850354 ], [ -74.920215, 10.850494 ], [ -74.920328, 10.850612 ], [ -74.9205, 10.850943 ], [ -74.92059, 10.851076 ], [ -74.920687, 10.851179 ], [ -74.920762, 10.851296 ], [ -74.920979, 10.85151 ], [ -74.921173, 10.85173 ], [ -74.921435, 10.851951 ], [ -74.921817, 10.852333 ], [ -74.922026, 10.852443 ], [ -74.92216, 10.852561 ], [ -74.922377, 10.852671 ], [ -74.922766, 10.852942 ], [ -74.922958, 10.853176 ], [ -74.923295, 10.853691 ], [ -74.923453, 10.854133 ], [ -74.923484, 10.854354 ], [ -74.923492, 10.854612 ], [ -74.923433, 10.854974 ], [ -74.923464, 10.855313 ], [ -74.923569, 10.855556 ], [ -74.923704, 10.855688 ], [ -74.923779, 10.855791 ], [ -74.923988, 10.855916 ], [ -74.924175, 10.856063 ], [ -74.924631, 10.856357 ], [ -74.924892, 10.856444 ], [ -74.925302, 10.856495 ], [ -74.925645, 10.856494 ], [ -74.926272, 10.856389 ], [ -74.926741, 10.856336 ], [ -74.927054, 10.856247 ], [ -74.927658, 10.856112 ], [ -74.928135, 10.855927 ], [ -74.928306, 10.855808 ], [ -74.928433, 10.855646 ], [ -74.928477, 10.855447 ], [ -74.928491, 10.855262 ], [ -74.928393, 10.854894 ], [ -74.928322, 10.85475 ], [ -74.928198, 10.854575 ], [ -74.928197, 10.854296 ], [ -74.928391, 10.854015 ], [ -74.928832, 10.85377 ], [ -74.929221, 10.853611 ], [ -74.929793, 10.853422 ], [ -74.931218, 10.853448 ], [ -74.931518, 10.853413 ], [ -74.932505, 10.853426 ], [ -74.932688, 10.853679 ], [ -74.9328, 10.853766 ], [ -74.932943, 10.853822 ], [ -74.933173, 10.853952 ], [ -74.933446, 10.854167 ], [ -74.933787, 10.854359 ], [ -74.934762, 10.854656 ], [ -74.935042, 10.854918 ], [ -74.935218, 10.855203 ], [ -74.935507, 10.855525 ], [ -74.935974, 10.85625 ], [ -74.936157, 10.856741 ], [ -74.936477, 10.857006 ], [ -74.936674, 10.857107 ], [ -74.936957, 10.857426 ], [ -74.93709, 10.857487 ], [ -74.937262, 10.8575 ], [ -74.937514, 10.857479 ], [ -74.938164, 10.857467 ], [ -74.938347, 10.8575 ], [ -74.938494, 10.857488 ], [ -74.938691, 10.857447 ], [ -74.938815, 10.857447 ], [ -74.93895, 10.857487 ], [ -74.939159, 10.857584 ], [ -74.939327, 10.857691 ], [ -74.939481, 10.857838 ], [ -74.939573, 10.857876 ], [ -74.939727, 10.85788 ], [ -74.939855, 10.857955 ], [ -74.940014, 10.858097 ], [ -74.940294, 10.858389 ], [ -74.940379, 10.858429 ], [ -74.94057, 10.858434 ], [ -74.940647, 10.85832 ], [ -74.940737, 10.858293 ], [ -74.941173, 10.858328 ], [ -74.941524, 10.858336 ], [ -74.941655, 10.858411 ], [ -74.942472, 10.858498 ], [ -74.942657, 10.858342 ], [ -74.942765, 10.858305 ], [ -74.942937, 10.858316 ], [ -74.943179, 10.858234 ], [ -74.943307, 10.858254 ], [ -74.943422, 10.858353 ], [ -74.94379, 10.858291 ], [ -74.943905, 10.858305 ], [ -74.944015, 10.858343 ], [ -74.944337, 10.858308 ], [ -74.944814, 10.85842 ], [ -74.944816, 10.858511 ], [ -74.944873, 10.858733 ], [ -74.944996, 10.859546 ], [ -74.94409, 10.860634 ], [ -74.943735, 10.860709 ], [ -74.943434, 10.860923 ], [ -74.942968, 10.861154 ], [ -74.942752, 10.861585 ], [ -74.942632, 10.862016 ], [ -74.942439, 10.862136 ], [ -74.942246, 10.862232 ], [ -74.941957, 10.862759 ], [ -74.941982, 10.863118 ], [ -74.941959, 10.863572 ], [ -74.942102, 10.863808 ], [ -74.942322, 10.864036 ], [ -74.94242, 10.864288 ], [ -74.942433, 10.864541 ], [ -74.942324, 10.864842 ], [ -74.941693, 10.865127 ], [ -74.940585, 10.865509 ], [ -74.94032, 10.865873 ], [ -74.939668, 10.866329 ], [ -74.939213, 10.866633 ], [ -74.93888, 10.866793 ], [ -74.938412, 10.866979 ], [ -74.938219, 10.867147 ], [ -74.938026, 10.867362 ], [ -74.937809, 10.867554 ], [ -74.937592, 10.867794 ], [ -74.937374, 10.867962 ], [ -74.936723, 10.868586 ], [ -74.936385, 10.868802 ], [ -74.936022, 10.868946 ], [ -74.935815, 10.868995 ], [ -74.935522, 10.868957 ], [ -74.935248, 10.868781 ], [ -74.93486, 10.868758 ], [ -74.934449, 10.868807 ], [ -74.934111, 10.868952 ], [ -74.933846, 10.869359 ], [ -74.933629, 10.869742 ], [ -74.93343, 10.869955 ], [ -74.934018, 10.870387 ], [ -74.934309, 10.870625 ], [ -74.934697, 10.871007 ], [ -74.93494, 10.871317 ], [ -74.935258, 10.87205 ], [ -74.935258, 10.872369 ], [ -74.935065, 10.87268 ], [ -74.934848, 10.872944 ], [ -74.934632, 10.873471 ], [ -74.934415, 10.873926 ], [ -74.934222, 10.874165 ], [ -74.933981, 10.874381 ], [ -74.933546, 10.874502 ], [ -74.933086, 10.87448 ], [ -74.932723, 10.874481 ], [ -74.932384, 10.874372 ], [ -74.932079, 10.874447 ], [ -74.931853, 10.874698 ], [ -74.931509, 10.874973 ], [ -74.930728, 10.875429 ], [ -74.930806, 10.875675 ], [ -74.930673, 10.875734 ], [ -74.930309, 10.876281 ], [ -74.93014, 10.876592 ], [ -74.929823, 10.877389 ], [ -74.929841, 10.877747 ], [ -74.929902, 10.878028 ], [ -74.92983, 10.878291 ], [ -74.929564, 10.878804 ], [ -74.92951, 10.879135 ], [ -74.929479, 10.879693 ], [ -74.929472, 10.880038 ], [ -74.92957, 10.880373 ], [ -74.929586, 10.880597 ], [ -74.929553, 10.880722 ], [ -74.929645, 10.881066 ], [ -74.929476, 10.881521 ], [ -74.929332, 10.881761 ], [ -74.929398, 10.882012 ], [ -74.929569, 10.882499 ], [ -74.929965, 10.88329 ], [ -74.930039, 10.8836 ], [ -74.930048, 10.883851 ], [ -74.929778, 10.884752 ], [ -74.929825, 10.885042 ], [ -74.929927, 10.885327 ], [ -74.930065, 10.885525 ], [ -74.930088, 10.885759 ], [ -74.929988, 10.88629 ], [ -74.930155, 10.886176 ], [ -74.930315, 10.886163 ], [ -74.930572, 10.886213 ], [ -74.931016, 10.886363 ], [ -74.931762, 10.886383 ], [ -74.931962, 10.886539 ], [ -74.93219, 10.886794 ], [ -74.932612, 10.887592 ], [ -74.932842, 10.888678 ], [ -74.932843, 10.889158 ], [ -74.932747, 10.88951 ], [ -74.932037, 10.890088 ], [ -74.931488, 10.890473 ], [ -74.931296, 10.890953 ], [ -74.931169, 10.891945 ], [ -74.93077, 10.892459 ], [ -74.930139, 10.893013 ], [ -74.929634, 10.893327 ], [ -74.92952, 10.893911 ], [ -74.92951, 10.894255 ], [ -74.92941, 10.894492 ], [ -74.929031, 10.894726 ], [ -74.92837, 10.895319 ], [ -74.928244, 10.895685 ], [ -74.928127, 10.896479 ], [ -74.927986, 10.897804 ], [ -74.927955, 10.898285 ], [ -74.928064, 10.89875 ], [ -74.928146, 10.899407 ], [ -74.928122, 10.899917 ], [ -74.924532, 10.935102 ], [ -74.923759, 10.936249 ], [ -74.923802, 10.936277 ], [ -74.923639, 10.936521 ], [ -74.923157, 10.937142 ], [ -74.922931, 10.937541 ], [ -74.922769, 10.937937 ], [ -74.922752, 10.938371 ], [ -74.922807, 10.939226 ], [ -74.922824, 10.940342 ], [ -74.922887, 10.941814 ], [ -74.922872, 10.942064 ], [ -74.922845, 10.942211 ], [ -74.92278, 10.942331 ], [ -74.922626, 10.942552 ], [ -74.921732, 10.943533 ], [ -74.921238, 10.944031 ], [ -74.921102, 10.944128 ], [ -74.919188, 10.945035 ], [ -74.9184, 10.945287 ], [ -74.916334, 10.946343 ], [ -74.915407, 10.946798 ], [ -74.911935, 10.948456 ], [ -74.910513, 10.949152 ], [ -74.907715, 10.950464 ], [ -74.905394, 10.950053 ], [ -74.902363, 10.950062 ], [ -74.901477, 10.949958 ], [ -74.900173, 10.949728 ], [ -74.898951, 10.949758 ], [ -74.898084, 10.94989 ], [ -74.89702, 10.950243 ], [ -74.896547, 10.950297 ], [ -74.896297, 10.950271 ], [ -74.895942, 10.950103 ], [ -74.894944, 10.950262 ], [ -74.894143, 10.950511 ], [ -74.893065, 10.950462 ], [ -74.892355, 10.950451 ], [ -74.892288, 10.950074 ], [ -74.892221, 10.949529 ], [ -74.892246, 10.948893 ], [ -74.8924, 10.947723 ], [ -74.892307, 10.947269 ], [ -74.8922, 10.946425 ], [ -74.892277, 10.945789 ], [ -74.892311, 10.945625 ], [ -74.892179, 10.945701 ], [ -74.892077, 10.945711 ], [ -74.886095, 10.945502 ], [ -74.885889, 10.945433 ], [ -74.884413, 10.945433 ], [ -74.883733, 10.945376 ], [ -74.88373, 10.945434 ], [ -74.882679, 10.945371 ], [ -74.881562, 10.945279 ], [ -74.881575, 10.94522 ], [ -74.880752, 10.945185 ], [ -74.879452, 10.94504 ], [ -74.879406, 10.945137 ], [ -74.878397, 10.945197 ], [ -74.877634, 10.945174 ], [ -74.877903, 10.944844 ], [ -74.874213, 10.942433 ], [ -74.870586, 10.940025 ], [ -74.869057, 10.939046 ], [ -74.859476, 10.937292 ], [ -74.858303, 10.937094 ], [ -74.858158, 10.937082 ], [ -74.857516, 10.937096 ], [ -74.85519, 10.937697 ], [ -74.85352, 10.938253 ], [ -74.852009, 10.938492 ], [ -74.851023, 10.93859 ], [ -74.85017, 10.93859 ], [ -74.849813, 10.937424 ], [ -74.84935, 10.936738 ], [ -74.848957, 10.935839 ], [ -74.847959, 10.934438 ], [ -74.847004, 10.933242 ], [ -74.843611, 10.929271 ], [ -74.843226, 10.928768 ], [ -74.842762, 10.928353 ], [ -74.841699, 10.927731 ], [ -74.841263, 10.927557 ], [ -74.840701, 10.927371 ], [ -74.839274, 10.926855 ], [ -74.838389, 10.926383 ], [ -74.839027, 10.92462 ], [ -74.838984, 10.924619 ], [ -74.839177, 10.92425 ], [ -74.839641, 10.923284 ], [ -74.840345, 10.921758 ], [ -74.840016, 10.921714 ], [ -74.839887, 10.921677 ], [ -74.839306, 10.921381 ], [ -74.838833, 10.921219 ], [ -74.838717, 10.921166 ], [ -74.835968, 10.919188 ], [ -74.83514, 10.91857 ], [ -74.834778, 10.918406 ], [ -74.834719, 10.918421 ], [ -74.834421, 10.918364 ], [ -74.833638, 10.917921 ], [ -74.833791, 10.917223 ], [ -74.833778, 10.9172 ], [ -74.833675, 10.917183 ], [ -74.833596, 10.917101 ], [ -74.833473, 10.916924 ], [ -74.833178, 10.916595 ], [ -74.832399, 10.915869 ], [ -74.832156, 10.915703 ], [ -74.83191, 10.915707 ], [ -74.831811, 10.915623 ], [ -74.831639, 10.915574 ], [ -74.831098, 10.915633 ], [ -74.829754, 10.915089 ], [ -74.82889, 10.914926 ], [ -74.828652, 10.914913 ], [ -74.828282, 10.914789 ], [ -74.827761, 10.914733 ], [ -74.827508, 10.914638 ], [ -74.827225, 10.914433 ], [ -74.826949, 10.914204 ], [ -74.82668, 10.914075 ], [ -74.826544, 10.914057 ], [ -74.826537, 10.914003 ], [ -74.826566, 10.91392 ], [ -74.826766, 10.913728 ], [ -74.827075, 10.913494 ], [ -74.827164, 10.913357 ], [ -74.827297, 10.912781 ], [ -74.827415, 10.912473 ], [ -74.827562, 10.912176 ], [ -74.827739, 10.911919 ], [ -74.827914, 10.911742 ], [ -74.828273, 10.911422 ], [ -74.828396, 10.911201 ], [ -74.828423, 10.911033 ], [ -74.828395, 10.910782 ], [ -74.828113, 10.910005 ], [ -74.828057, 10.909756 ], [ -74.828042, 10.909075 ], [ -74.828102, 10.908569 ], [ -74.828131, 10.90847 ], [ -74.828257, 10.908275 ], [ -74.828438, 10.908061 ], [ -74.828743, 10.907901 ], [ -74.829572, 10.907597 ], [ -74.829757, 10.907501 ], [ -74.829947, 10.907369 ], [ -74.830239, 10.907135 ], [ -74.830329, 10.906966 ], [ -74.830494, 10.906525 ], [ -74.830601, 10.906329 ], [ -74.830772, 10.906145 ], [ -74.832129, 10.905177 ], [ -74.832129, 10.90522 ], [ -74.832424, 10.905006 ], [ -74.832824, 10.904759 ], [ -74.833316, 10.904423 ], [ -74.833416, 10.904301 ], [ -74.833473, 10.904128 ], [ -74.83357, 10.903975 ], [ -74.833826, 10.903647 ], [ -74.834379, 10.902441 ], [ -74.834492, 10.902138 ], [ -74.834741, 10.901773 ], [ -74.834999, 10.901506 ], [ -74.835164, 10.901433 ], [ -74.835914, 10.900982 ], [ -74.836076, 10.900822 ], [ -74.836343, 10.89984 ], [ -74.836459, 10.899229 ], [ -74.836514, 10.898646 ], [ -74.836519, 10.89822 ], [ -74.836486, 10.898014 ], [ -74.83639, 10.89762 ], [ -74.836359, 10.897265 ], [ -74.836376, 10.896667 ], [ -74.836453, 10.895683 ], [ -74.836591, 10.894758 ], [ -74.836748, 10.89393 ], [ -74.836928, 10.893373 ], [ -74.837124, 10.892926 ], [ -74.837304, 10.892422 ], [ -74.839758, 10.891513 ] ] ] } },
{ "type": "Feature", "properties": { "NOMBRE": "FRANJA INTERFACE", "Area_Ha": 2412.44043853624, "MpCodigo": "08573", "MpNombre": "Puerto Colombia" }, "geometry": { "type": "MultiPolygon", "coordinates": [ [ [ [ -74.838644, 11.01574 ], [ -74.839434, 11.013793 ], [ -74.839594, 11.013554 ], [ -74.839769, 11.01341 ], [ -74.839955, 11.013296 ], [ -74.840243, 11.013159 ], [ -74.841425, 11.012715 ], [ -74.841829, 11.012656 ], [ -74.842136, 11.012695 ], [ -74.842522, 11.012812 ], [ -74.84793, 11.015718 ], [ -74.848924, 11.016239 ], [ -74.84952, 11.016503 ], [ -74.850016, 11.016689 ], [ -74.85065, 11.016893 ], [ -74.851422, 11.017068 ], [ -74.852291, 11.017192 ], [ -74.853217, 11.017244 ], [ -74.854045, 11.017225 ], [ -74.857248, 11.016835 ], [ -74.859812, 11.0165 ], [ -74.860129, 11.016782 ], [ -74.865292, 11.016781 ], [ -74.865714, 11.01613 ], [ -74.865905, 11.015795 ], [ -74.866101, 11.015608 ], [ -74.866231, 11.015509 ], [ -74.866259, 11.015436 ], [ -74.866259, 11.015332 ], [ -74.866283, 11.015256 ], [ -74.866345, 11.015162 ], [ -74.866432, 11.015076 ], [ -74.866552, 11.015001 ], [ -74.866748, 11.014825 ], [ -74.866778, 11.014823 ], [ -74.867077, 11.014603 ], [ -74.867274, 11.014389 ], [ -74.867561, 11.014175 ], [ -74.868152, 11.013807 ], [ -74.868519, 11.013603 ], [ -74.868634, 11.013514 ], [ -74.868705, 11.013435 ], [ -74.868904, 11.013178 ], [ -74.869262, 11.012484 ], [ -74.869386, 11.012177 ], [ -74.869762, 11.011551 ], [ -74.869845, 11.011443 ], [ -74.870023, 11.011323 ], [ -74.870343, 11.010969 ], [ -74.87052, 11.010688 ], [ -74.870647, 11.010451 ], [ -74.87113, 11.009711 ], [ -74.871245, 11.009472 ], [ -74.871698, 11.008976 ], [ -74.873496, 11.010159 ], [ -74.874616, 11.011013 ], [ -74.878142, 11.007353 ], [ -74.876708, 11.009591 ], [ -74.876402, 11.010104 ], [ -74.876263, 11.010411 ], [ -74.876184, 11.010633 ], [ -74.876087, 11.011003 ], [ -74.876035, 11.011275 ], [ -74.876004, 11.011601 ], [ -74.875999, 11.0119 ], [ -74.876024, 11.012251 ], [ -74.876145, 11.012952 ], [ -74.87667, 11.015043 ], [ -74.87675, 11.015446 ], [ -74.877061, 11.016741 ], [ -74.877251, 11.016821 ], [ -74.877369, 11.016818 ], [ -74.877413, 11.016791 ], [ -74.877566, 11.016595 ], [ -74.877753, 11.016452 ], [ -74.877843, 11.016421 ], [ -74.88301, 11.015553 ], [ -74.88347, 11.015437 ], [ -74.883921, 11.01528 ], [ -74.884371, 11.015151 ], [ -74.884793, 11.014968 ], [ -74.884953, 11.014863 ], [ -74.885156, 11.014701 ], [ -74.885679, 11.014234 ], [ -74.885908, 11.014105 ], [ -74.887656, 11.013353 ], [ -74.88792, 11.013254 ], [ -74.888234, 11.01318 ], [ -74.888406, 11.013163 ], [ -74.888584, 11.013167 ], [ -74.888882, 11.013201 ], [ -74.889565, 11.013401 ], [ -74.890504, 11.013711 ], [ -74.890742, 11.013765 ], [ -74.890938, 11.013778 ], [ -74.892431, 11.013641 ], [ -74.892718, 11.01357 ], [ -74.893202, 11.013421 ], [ -74.893453, 11.013375 ], [ -74.893641, 11.013389 ], [ -74.893718, 11.013407 ], [ -74.893922, 11.013502 ], [ -74.894114, 11.013646 ], [ -74.894292, 11.01383 ], [ -74.8945, 11.014015 ], [ -74.89485, 11.014227 ], [ -74.894988, 11.014292 ], [ -74.895463, 11.014642 ], [ -74.895634, 11.014708 ], [ -74.896453, 11.01487 ], [ -74.89683, 11.014902 ], [ -74.897319, 11.014884 ], [ -74.899849, 11.014546 ], [ -74.899582, 11.016666 ], [ -74.89875, 11.0175 ], [ -74.897919, 11.02 ], [ -74.897087, 11.024167 ], [ -74.896667, 11.024584 ], [ -74.894165, 11.025416 ], [ -74.892914, 11.026668 ], [ -74.892082, 11.028334 ], [ -74.889168, 11.03125 ], [ -74.887497, 11.032084 ], [ -74.884163, 11.032917 ], [ -74.883331, 11.03375 ], [ -74.881668, 11.034583 ], [ -74.881248, 11.035 ], [ -74.880836, 11.035833 ], [ -74.881668, 11.0375 ], [ -74.880836, 11.039167 ], [ -74.881248, 11.04 ], [ -74.8825, 11.04125 ], [ -74.881668, 11.042083 ], [ -74.878334, 11.042917 ], [ -74.876663, 11.04375 ], [ -74.876251, 11.044167 ], [ -74.87617, 11.04449 ], [ -74.875351, 11.044787 ], [ -74.872924, 11.045524 ], [ -74.872857, 11.045502 ], [ -74.872771, 11.045295 ], [ -74.872693, 11.045327 ], [ -74.872568, 11.045453 ], [ -74.872542, 11.045541 ], [ -74.872466, 11.045666 ], [ -74.870904, 11.046187 ], [ -74.869882, 11.046143 ], [ -74.869978, 11.04569 ], [ -74.870128, 11.045489 ], [ -74.870259, 11.045179 ], [ -74.870403, 11.044998 ], [ -74.870475, 11.044856 ], [ -74.87039, 11.044843 ], [ -74.870338, 11.044785 ], [ -74.870527, 11.044488 ], [ -74.87056, 11.044384 ], [ -74.870534, 11.04432 ], [ -74.870475, 11.044242 ], [ -74.870508, 11.044197 ], [ -74.870625, 11.044106 ], [ -74.870658, 11.043971 ], [ -74.870573, 11.043867 ], [ -74.87039, 11.043867 ], [ -74.870312, 11.043803 ], [ -74.870331, 11.043667 ], [ -74.870508, 11.043357 ], [ -74.870802, 11.04304 ], [ -74.871018, 11.042775 ], [ -74.871103, 11.042697 ], [ -74.871456, 11.042523 ], [ -74.871639, 11.042238 ], [ -74.871659, 11.042116 ], [ -74.871665, 11.041973 ], [ -74.8716, 11.041696 ], [ -74.871476, 11.041392 ], [ -74.871299, 11.041069 ], [ -74.871161, 11.040655 ], [ -74.871096, 11.040539 ], [ -74.871018, 11.040481 ], [ -74.870965, 11.040306 ], [ -74.870775, 11.040086 ], [ -74.870736, 11.039964 ], [ -74.870684, 11.039873 ], [ -74.870664, 11.039789 ], [ -74.870664, 11.039628 ], [ -74.870697, 11.03946 ], [ -74.870775, 11.039324 ], [ -74.870828, 11.039039 ], [ -74.870965, 11.038613 ], [ -74.871024, 11.038354 ], [ -74.871187, 11.038089 ], [ -74.871246, 11.037863 ], [ -74.871397, 11.037456 ], [ -74.871495, 11.037314 ], [ -74.871547, 11.037081 ], [ -74.871907, 11.03628 ], [ -74.871985, 11.036008 ], [ -74.872281, 11.035173 ], [ -74.872482, 11.034738 ], [ -74.872565, 11.034495 ], [ -74.872598, 11.034332 ], [ -74.872598, 11.034252 ], [ -74.872728, 11.034083 ], [ -74.872927, 11.033947 ], [ -74.873121, 11.03351 ], [ -74.873259, 11.032748 ], [ -74.873504, 11.031607 ], [ -74.873502, 11.031528 ], [ -74.873189, 11.03132 ], [ -74.872938, 11.031249 ], [ -74.872844, 11.031162 ], [ -74.871857, 11.029797 ], [ -74.87178, 11.02971 ], [ -74.871744, 11.029639 ], [ -74.871888, 11.029494 ], [ -74.87197, 11.029371 ], [ -74.872194, 11.028869 ], [ -74.87228, 11.028743 ], [ -74.872284, 11.02867 ], [ -74.871275, 11.027434 ], [ -74.871193, 11.027304 ], [ -74.868648, 11.026692 ], [ -74.868275, 11.026582 ], [ -74.868333, 11.026486 ], [ -74.868811, 11.025888 ], [ -74.869991, 11.02446 ], [ -74.871505, 11.022601 ], [ -74.871776, 11.022248 ], [ -74.870168, 11.021098 ], [ -74.869994, 11.021331 ], [ -74.869634, 11.021891 ], [ -74.869131, 11.022579 ], [ -74.868772, 11.022946 ], [ -74.867879, 11.023728 ], [ -74.867726, 11.023836 ], [ -74.867596, 11.024068 ], [ -74.867069, 11.024471 ], [ -74.86657, 11.025173 ], [ -74.866293, 11.02492 ], [ -74.865938, 11.025267 ], [ -74.865801, 11.025253 ], [ -74.865161, 11.025301 ], [ -74.86484, 11.024799 ], [ -74.864593, 11.024716 ], [ -74.863916, 11.025904 ], [ -74.863765, 11.026251 ], [ -74.863501, 11.026576 ], [ -74.862333, 11.027665 ], [ -74.862177, 11.027847 ], [ -74.860907, 11.028363 ], [ -74.860764, 11.028388 ], [ -74.860402, 11.028325 ], [ -74.860389, 11.028483 ], [ -74.85975, 11.030149 ], [ -74.859317, 11.031335 ], [ -74.85521, 11.030313 ], [ -74.85347, 11.029902 ], [ -74.8528, 11.029777 ], [ -74.851871, 11.029682 ], [ -74.851149, 11.029696 ], [ -74.850435, 11.029748 ], [ -74.849951, 11.029843 ], [ -74.845288, 11.031071 ], [ -74.841427, 11.032122 ], [ -74.840676, 11.032313 ], [ -74.840304, 11.032416 ], [ -74.839872, 11.032585 ], [ -74.839337, 11.03293 ], [ -74.838325, 11.033981 ], [ -74.837923, 11.034275 ], [ -74.837596, 11.034451 ], [ -74.837403, 11.034503 ], [ -74.836696, 11.034562 ], [ -74.835498, 11.034547 ], [ -74.835089, 11.034598 ], [ -74.834502, 11.034878 ], [ -74.833475, 11.035473 ], [ -74.831556, 11.036538 ], [ -74.830532, 11.037072 ], [ -74.83042, 11.03709 ], [ -74.829815, 11.037363 ], [ -74.829197, 11.037685 ], [ -74.828089, 11.038291 ], [ -74.827623, 11.038605 ], [ -74.826946, 11.038903 ], [ -74.826775, 11.038926 ], [ -74.826891, 11.038709 ], [ -74.826937, 11.038501 ], [ -74.827082, 11.037481 ], [ -74.82713, 11.03734 ], [ -74.827242, 11.037108 ], [ -74.827481, 11.036846 ], [ -74.829057, 11.035276 ], [ -74.830065, 11.034135 ], [ -74.830875, 11.033087 ], [ -74.831213, 11.032617 ], [ -74.831876, 11.031601 ], [ -74.832407, 11.030658 ], [ -74.832819, 11.029847 ], [ -74.833232, 11.028915 ], [ -74.834594, 11.025597 ], [ -74.835994, 11.022121 ], [ -74.836994, 11.019576 ], [ -74.837913, 11.017329 ], [ -74.838589, 11.015719 ], [ -74.838644, 11.01574 ] ] ], [ [ [ -74.9184, 10.945287 ], [ -74.919941, 10.946966 ], [ -74.920024, 10.947271 ], [ -74.92, 10.947493 ], [ -74.919917, 10.947704 ], [ -74.919882, 10.947874 ], [ -74.919864, 10.948062 ], [ -74.919888, 10.94822 ], [ -74.919941, 10.948413 ], [ -74.920042, 10.948612 ], [ -74.920196, 10.948999 ], [ -74.920392, 10.949708 ], [ -74.920428, 10.949907 ], [ -74.920861, 10.950241 ], [ -74.92111, 10.950545 ], [ -74.921169, 10.950733 ], [ -74.921228, 10.950844 ], [ -74.921335, 10.950932 ], [ -74.921561, 10.951078 ], [ -74.921768, 10.951166 ], [ -74.922106, 10.951218 ], [ -74.922278, 10.951289 ], [ -74.922456, 10.951505 ], [ -74.922604, 10.951623 ], [ -74.923013, 10.951734 ], [ -74.923209, 10.951816 ], [ -74.923434, 10.95195 ], [ -74.923606, 10.952097 ], [ -74.924181, 10.952747 ], [ -74.924916, 10.950837 ], [ -74.925438, 10.950901 ], [ -74.92622, 10.951159 ], [ -74.926451, 10.951194 ], [ -74.92673, 10.951188 ], [ -74.927424, 10.951082 ], [ -74.92785, 10.951053 ], [ -74.928337, 10.95107 ], [ -74.928799, 10.951164 ], [ -74.929155, 10.951275 ], [ -74.92954, 10.951433 ], [ -74.929714, 10.951537 ], [ -74.929169, 10.952083 ], [ -74.93, 10.952916 ], [ -74.926247, 10.956666 ], [ -74.925835, 10.959167 ], [ -74.926247, 10.961666 ], [ -74.927086, 10.963333 ], [ -74.927498, 10.965834 ], [ -74.927498, 10.96717 ], [ -74.926676, 10.96682 ], [ -74.926149, 10.966632 ], [ -74.925327, 10.966674 ], [ -74.924895, 10.966622 ], [ -74.924557, 10.966664 ], [ -74.924199, 10.966768 ], [ -74.923883, 10.96707 ], [ -74.923472, 10.967529 ], [ -74.923093, 10.967852 ], [ -74.92264, 10.968091 ], [ -74.922239, 10.968237 ], [ -74.922056, 10.968377 ], [ -74.921784, 10.96868 ], [ -74.921435, 10.969201 ], [ -74.921232, 10.969744 ], [ -74.920956, 10.970354 ], [ -74.920513, 10.970979 ], [ -74.920094, 10.971533 ], [ -74.919491, 10.972218 ], [ -74.920818, 10.972546 ], [ -74.920418, 10.974166 ], [ -74.919201, 10.975384 ], [ -74.918232, 10.975943 ], [ -74.915665, 10.977226 ], [ -74.91375, 10.9775 ], [ -74.910835, 10.977083 ], [ -74.908333, 10.97625 ], [ -74.907913, 10.975834 ], [ -74.907501, 10.976251 ], [ -74.904999, 10.977083 ], [ -74.904587, 10.9775 ], [ -74.903748, 10.981667 ], [ -74.902916, 10.983333 ], [ -74.902496, 10.984583 ], [ -74.902916, 10.985833 ], [ -74.903748, 10.986667 ], [ -74.904167, 10.989584 ], [ -74.903884, 10.991555 ], [ -74.903187, 10.992312 ], [ -74.901258, 10.99296 ], [ -74.89835, 10.997812 ], [ -74.888607, 10.991082 ], [ -74.888795, 10.990795 ], [ -74.888396, 10.991402 ], [ -74.888133, 10.991809 ], [ -74.885311, 10.996229 ], [ -74.882156, 11.001114 ], [ -74.876306, 10.996841 ], [ -74.876393, 10.996782 ], [ -74.876543, 10.996638 ], [ -74.87675, 10.996224 ], [ -74.876755, 10.996002 ], [ -74.876658, 10.995745 ], [ -74.8766, 10.995666 ], [ -74.876525, 10.995575 ], [ -74.876433, 10.995501 ], [ -74.876239, 10.995435 ], [ -74.87604, 10.995401 ], [ -74.875873, 10.995418 ], [ -74.875776, 10.995457 ], [ -74.875665, 10.995592 ], [ -74.875604, 10.99561 ], [ -74.875224, 10.995422 ], [ -74.875193, 10.99534 ], [ -74.87529, 10.995253 ], [ -74.875433, 10.995215 ], [ -74.875462, 10.99513 ], [ -74.875454, 10.995069 ], [ -74.875401, 10.995033 ], [ -74.875352, 10.994943 ], [ -74.875546, 10.994717 ], [ -74.875798, 10.994568 ], [ -74.875943, 10.994542 ], [ -74.876234, 10.994416 ], [ -74.876269, 10.994355 ], [ -74.876433, 10.994246 ], [ -74.876525, 10.994237 ], [ -74.876622, 10.994294 ], [ -74.876706, 10.994268 ], [ -74.876803, 10.994132 ], [ -74.877006, 10.993958 ], [ -74.877015, 10.993867 ], [ -74.876988, 10.993801 ], [ -74.8769, 10.993727 ], [ -74.876838, 10.993549 ], [ -74.876785, 10.993557 ], [ -74.876715, 10.993479 ], [ -74.876644, 10.993435 ], [ -74.876552, 10.993435 ], [ -74.87641, 10.993466 ], [ -74.876238, 10.993431 ], [ -74.876216, 10.993344 ], [ -74.87626, 10.99329 ], [ -74.87626, 10.993231 ], [ -74.876208, 10.993152 ], [ -74.876137, 10.993091 ], [ -74.875956, 10.992821 ], [ -74.875934, 10.992769 ], [ -74.875923, 10.992655 ], [ -74.875844, 10.992483 ], [ -74.875879, 10.992056 ], [ -74.875954, 10.991788 ], [ -74.876032, 10.991717 ], [ -74.876211, 10.99144 ], [ -74.876419, 10.991019 ], [ -74.876514, 10.990687 ], [ -74.876475, 10.990515 ], [ -74.876419, 10.99036 ], [ -74.876284, 10.990222 ], [ -74.876206, 10.990189 ], [ -74.876032, 10.990216 ], [ -74.875746, 10.990443 ], [ -74.875639, 10.990499 ], [ -74.875309, 10.990593 ], [ -74.875129, 10.990698 ], [ -74.874984, 10.990759 ], [ -74.874866, 10.990765 ], [ -74.874776, 10.990743 ], [ -74.874664, 10.990687 ], [ -74.874546, 10.990477 ], [ -74.87447, 10.990429 ], [ -74.874373, 10.990338 ], [ -74.874339, 10.99025 ], [ -74.874339, 10.990178 ], [ -74.874395, 10.990039 ], [ -74.874485, 10.989923 ], [ -74.874535, 10.989768 ], [ -74.874591, 10.989663 ], [ -74.874759, 10.989408 ], [ -74.874899, 10.989275 ], [ -74.874967, 10.989092 ], [ -74.875045, 10.988987 ], [ -74.875056, 10.988843 ], [ -74.875045, 10.988782 ], [ -74.874995, 10.988655 ], [ -74.874714, 10.988367 ], [ -74.874479, 10.988306 ], [ -74.874378, 10.988206 ], [ -74.874176, 10.988162 ], [ -74.873997, 10.988145 ], [ -74.873902, 10.988051 ], [ -74.873829, 10.987924 ], [ -74.873845, 10.987752 ], [ -74.873879, 10.987636 ], [ -74.873929, 10.987503 ], [ -74.874127, 10.987358 ], [ -74.874355, 10.987326 ], [ -74.874456, 10.987364 ], [ -74.874843, 10.987314 ], [ -74.875135, 10.987309 ], [ -74.875499, 10.987204 ], [ -74.875645, 10.987115 ], [ -74.875807, 10.987054 ], [ -74.875942, 10.986971 ], [ -74.876009, 10.98691 ], [ -74.876093, 10.986788 ], [ -74.876161, 10.986556 ], [ -74.876206, 10.986531 ], [ -74.876475, 10.986229 ], [ -74.876618, 10.986051 ], [ -74.876725, 10.985873 ], [ -74.876761, 10.985642 ], [ -74.876598, 10.9855 ], [ -74.876472, 10.985323 ], [ -74.876544, 10.985216 ], [ -74.876597, 10.985038 ], [ -74.876849, 10.984966 ], [ -74.877118, 10.98493 ], [ -74.877228, 10.984814 ], [ -74.877324, 10.984858 ], [ -74.877417, 10.984841 ], [ -74.877408, 10.984658 ], [ -74.877366, 10.984492 ], [ -74.87745, 10.984476 ], [ -74.877517, 10.984484 ], [ -74.877551, 10.984368 ], [ -74.877551, 10.98421 ], [ -74.87761, 10.984169 ], [ -74.877694, 10.984152 ], [ -74.877643, 10.983903 ], [ -74.877719, 10.983795 ], [ -74.877962, 10.983787 ], [ -74.878105, 10.983662 ], [ -74.878198, 10.983637 ], [ -74.878349, 10.983521 ], [ -74.878475, 10.983455 ], [ -74.8785, 10.98338 ], [ -74.878424, 10.983339 ], [ -74.878433, 10.983164 ], [ -74.878592, 10.982998 ], [ -74.878903, 10.982882 ], [ -74.879004, 10.982882 ], [ -74.879121, 10.982832 ], [ -74.879306, 10.982782 ], [ -74.879558, 10.982749 ], [ -74.879659, 10.982816 ], [ -74.879777, 10.982832 ], [ -74.879911, 10.982766 ], [ -74.879944, 10.9826 ], [ -74.879852, 10.982567 ], [ -74.87981, 10.982484 ], [ -74.87986, 10.982384 ], [ -74.879827, 10.982268 ], [ -74.879659, 10.982201 ], [ -74.879743, 10.981986 ], [ -74.879743, 10.981886 ], [ -74.879793, 10.981836 ], [ -74.879869, 10.981828 ], [ -74.880138, 10.981596 ], [ -74.88018, 10.98162 ], [ -74.880322, 10.981512 ], [ -74.880415, 10.981554 ], [ -74.880474, 10.981637 ], [ -74.880558, 10.981687 ], [ -74.880759, 10.98162 ], [ -74.880818, 10.981595 ], [ -74.881087, 10.981413 ], [ -74.881196, 10.981321 ], [ -74.881288, 10.981272 ], [ -74.881381, 10.981321 ], [ -74.881481, 10.981438 ], [ -74.881574, 10.981454 ], [ -74.88175, 10.981454 ], [ -74.881851, 10.981296 ], [ -74.881977, 10.981371 ], [ -74.882053, 10.981355 ], [ -74.882145, 10.98128 ], [ -74.882225, 10.981186 ], [ -74.882288, 10.981031 ], [ -74.882346, 10.980948 ], [ -74.882414, 10.98094 ], [ -74.882472, 10.980989 ], [ -74.882691, 10.980989 ], [ -74.882808, 10.980948 ], [ -74.882943, 10.980848 ], [ -74.883111, 10.980823 ], [ -74.883212, 10.980724 ], [ -74.883203, 10.980632 ], [ -74.882892, 10.980483 ], [ -74.882808, 10.980359 ], [ -74.882842, 10.980159 ], [ -74.882713, 10.980064 ], [ -74.882645, 10.979989 ], [ -74.882607, 10.979905 ], [ -74.882384, 10.979748 ], [ -74.88214, 10.979335 ], [ -74.88214, 10.979267 ], [ -74.882193, 10.979183 ], [ -74.882376, 10.979017 ], [ -74.882497, 10.979075 ], [ -74.882579, 10.979075 ], [ -74.882641, 10.979024 ], [ -74.882672, 10.978967 ], [ -74.882723, 10.978916 ], [ -74.882797, 10.97892 ], [ -74.882934, 10.978994 ], [ -74.88309, 10.979021 ], [ -74.883114, 10.979048 ], [ -74.883321, 10.979055 ], [ -74.883434, 10.979032 ], [ -74.883692, 10.979028 ], [ -74.88377, 10.979047 ], [ -74.883813, 10.979001 ], [ -74.883848, 10.978905 ], [ -74.883844, 10.978827 ], [ -74.883786, 10.978758 ], [ -74.883696, 10.978716 ], [ -74.883594, 10.978716 ], [ -74.883481, 10.978681 ], [ -74.883379, 10.978627 ], [ -74.883215, 10.978461 ], [ -74.883083, 10.978422 ], [ -74.882981, 10.978368 ], [ -74.882926, 10.978314 ], [ -74.882793, 10.978079 ], [ -74.882786, 10.977951 ], [ -74.88275, 10.977894 ], [ -74.882481, 10.977747 ], [ -74.882219, 10.977531 ], [ -74.882196, 10.977461 ], [ -74.882192, 10.976913 ], [ -74.882297, 10.976579 ], [ -74.882301, 10.976057 ], [ -74.882367, 10.975896 ], [ -74.882387, 10.975719 ], [ -74.882416, 10.975675 ], [ -74.882457, 10.975649 ], [ -74.882433, 10.975467 ], [ -74.882444, 10.97535 ], [ -74.882562, 10.974974 ], [ -74.8826, 10.97491 ], [ -74.88277, 10.974754 ], [ -74.882962, 10.974545 ], [ -74.883023, 10.974587 ], [ -74.882998, 10.974412 ], [ -74.883158, 10.974521 ], [ -74.884919, 10.977075 ], [ -74.886832, 10.978955 ], [ -74.887146, 10.979919 ], [ -74.888257, 10.980662 ], [ -74.892035, 10.983019 ], [ -74.893854, 10.983014 ], [ -74.895849, 10.98222 ], [ -74.896598, 10.980157 ], [ -74.897348, 10.97884 ], [ -74.898365, 10.977478 ], [ -74.904433, 10.973647 ], [ -74.905316, 10.971891 ], [ -74.905315, 10.971628 ], [ -74.908734, 10.972495 ], [ -74.909308, 10.971441 ], [ -74.908286, 10.970787 ], [ -74.907576, 10.970701 ], [ -74.906865, 10.970308 ], [ -74.90633, 10.969696 ], [ -74.905707, 10.96904 ], [ -74.904771, 10.96742 ], [ -74.904014, 10.966414 ], [ -74.902192, 10.965279 ], [ -74.899034, 10.962613 ], [ -74.900227, 10.960681 ], [ -74.90524, 10.96036 ], [ -74.905229, 10.960335 ], [ -74.90527, 10.960333 ], [ -74.905332, 10.960272 ], [ -74.905393, 10.960116 ], [ -74.905384, 10.959708 ], [ -74.905439, 10.959526 ], [ -74.90554, 10.95939 ], [ -74.905833, 10.959399 ], [ -74.906035, 10.959327 ], [ -74.906081, 10.959272 ], [ -74.90609, 10.959136 ], [ -74.906155, 10.958918 ], [ -74.906311, 10.958719 ], [ -74.906568, 10.958628 ], [ -74.9071, 10.958328 ], [ -74.907155, 10.958183 ], [ -74.907219, 10.958083 ], [ -74.907284, 10.957902 ], [ -74.907375, 10.957838 ], [ -74.90766, 10.957847 ], [ -74.907789, 10.957775 ], [ -74.908211, 10.957376 ], [ -74.908367, 10.957366 ], [ -74.908624, 10.957448 ], [ -74.908854, 10.957711 ], [ -74.909046, 10.957838 ], [ -74.909469, 10.95792 ], [ -74.910607, 10.957965 ], [ -74.911865, 10.957937 ], [ -74.911846, 10.957874 ], [ -74.914763, 10.956746 ], [ -74.915209, 10.956348 ], [ -74.915862, 10.955988 ], [ -74.916168, 10.955628 ], [ -74.916533, 10.955571 ], [ -74.916782, 10.955286 ], [ -74.917435, 10.954907 ], [ -74.917703, 10.954641 ], [ -74.917972, 10.954091 ], [ -74.917914, 10.953522 ], [ -74.917837, 10.953086 ], [ -74.917837, 10.952574 ], [ -74.918106, 10.952081 ], [ -74.918719, 10.950318 ], [ -74.919045, 10.949768 ], [ -74.91914, 10.949278 ], [ -74.919105, 10.948818 ], [ -74.918973, 10.948614 ], [ -74.918953, 10.948038 ], [ -74.918876, 10.947704 ], [ -74.918838, 10.947426 ], [ -74.918856, 10.947129 ], [ -74.918761, 10.946572 ], [ -74.918704, 10.946387 ], [ -74.918515, 10.946072 ], [ -74.918401, 10.945831 ], [ -74.918401, 10.945571 ], [ -74.918419, 10.945441 ], [ -74.9184, 10.945287 ] ] ] ] } },
{ "type": "Feature", "properties": { "NOMBRE": "FRANJA INTERFACE", "Area_Ha": 6720.1452412966601, "MpCodigo": "08001", "MpNombre": "Barranquilla" }, "geometry": { "type": "MultiPolygon", "coordinates": [ [ [ [ -74.828544, 11.011026 ], [ -74.8291, 11.011236 ], [ -74.829875, 11.011434 ], [ -74.830763, 11.011521 ], [ -74.831113, 11.011606 ], [ -74.831476, 11.011727 ], [ -74.832513, 11.012152 ], [ -74.833275, 11.012543 ], [ -74.835659, 11.01418 ], [ -74.836971, 11.014983 ], [ -74.837198, 11.015163 ], [ -74.838589, 11.015719 ], [ -74.836994, 11.019576 ], [ -74.835748, 11.022734 ], [ -74.834135, 11.026724 ], [ -74.833232, 11.028915 ], [ -74.832819, 11.029847 ], [ -74.832407, 11.030658 ], [ -74.831876, 11.031601 ], [ -74.831213, 11.032617 ], [ -74.830875, 11.033087 ], [ -74.830065, 11.034135 ], [ -74.829057, 11.035276 ], [ -74.827481, 11.036846 ], [ -74.827242, 11.037108 ], [ -74.82713, 11.03734 ], [ -74.827082, 11.037481 ], [ -74.826937, 11.038501 ], [ -74.826891, 11.038709 ], [ -74.826775, 11.038926 ], [ -74.826946, 11.038903 ], [ -74.827623, 11.038605 ], [ -74.828089, 11.038291 ], [ -74.829197, 11.037685 ], [ -74.829815, 11.037363 ], [ -74.83042, 11.03709 ], [ -74.830532, 11.037072 ], [ -74.831556, 11.036538 ], [ -74.833475, 11.035473 ], [ -74.834502, 11.034878 ], [ -74.835089, 11.034598 ], [ -74.835498, 11.034547 ], [ -74.836696, 11.034562 ], [ -74.837403, 11.034503 ], [ -74.837596, 11.034451 ], [ -74.837923, 11.034275 ], [ -74.838325, 11.033981 ], [ -74.839337, 11.03293 ], [ -74.839872, 11.032585 ], [ -74.840304, 11.032416 ], [ -74.840676, 11.032313 ], [ -74.841427, 11.032122 ], [ -74.845288, 11.031071 ], [ -74.849951, 11.029843 ], [ -74.850435, 11.029748 ], [ -74.851149, 11.029696 ], [ -74.851871, 11.029682 ], [ -74.8528, 11.029777 ], [ -74.85347, 11.029902 ], [ -74.85521, 11.030313 ], [ -74.859317, 11.031335 ], [ -74.85975, 11.030149 ], [ -74.860389, 11.028483 ], [ -74.860402, 11.028325 ], [ -74.860764, 11.028388 ], [ -74.860907, 11.028363 ], [ -74.862177, 11.027847 ], [ -74.862333, 11.027665 ], [ -74.863501, 11.026576 ], [ -74.863765, 11.026251 ], [ -74.863916, 11.025904 ], [ -74.864593, 11.024716 ], [ -74.86484, 11.024799 ], [ -74.865161, 11.025301 ], [ -74.865801, 11.025253 ], [ -74.865938, 11.025267 ], [ -74.866293, 11.02492 ], [ -74.86657, 11.025173 ], [ -74.867069, 11.024471 ], [ -74.867596, 11.024068 ], [ -74.867726, 11.023836 ], [ -74.867879, 11.023728 ], [ -74.868772, 11.022946 ], [ -74.869131, 11.022579 ], [ -74.869634, 11.021891 ], [ -74.869994, 11.021331 ], [ -74.870168, 11.021098 ], [ -74.871776, 11.022248 ], [ -74.871505, 11.022601 ], [ -74.869991, 11.02446 ], [ -74.868811, 11.025888 ], [ -74.868333, 11.026486 ], [ -74.868275, 11.026582 ], [ -74.868648, 11.026692 ], [ -74.871193, 11.027304 ], [ -74.871275, 11.027434 ], [ -74.872284, 11.02867 ], [ -74.87228, 11.028743 ], [ -74.872194, 11.028869 ], [ -74.87197, 11.029371 ], [ -74.871888, 11.029494 ], [ -74.871744, 11.029639 ], [ -74.87178, 11.02971 ], [ -74.871857, 11.029797 ], [ -74.872844, 11.031162 ], [ -74.872938, 11.031249 ], [ -74.873189, 11.03132 ], [ -74.873502, 11.031528 ], [ -74.873504, 11.031607 ], [ -74.873259, 11.032748 ], [ -74.873121, 11.03351 ], [ -74.872927, 11.033947 ], [ -74.872728, 11.034083 ], [ -74.872598, 11.034252 ], [ -74.872598, 11.034332 ], [ -74.872565, 11.034495 ], [ -74.872482, 11.034738 ], [ -74.872281, 11.035173 ], [ -74.871985, 11.036008 ], [ -74.871907, 11.03628 ], [ -74.871547, 11.037081 ], [ -74.871495, 11.037314 ], [ -74.871397, 11.037456 ], [ -74.871246, 11.037863 ], [ -74.871187, 11.038089 ], [ -74.871024, 11.038354 ], [ -74.870965, 11.038613 ], [ -74.870828, 11.039039 ], [ -74.870775, 11.039324 ], [ -74.870697, 11.03946 ], [ -74.870664, 11.039628 ], [ -74.870664, 11.039789 ], [ -74.870684, 11.039873 ], [ -74.870736, 11.039964 ], [ -74.870775, 11.040086 ], [ -74.870965, 11.040306 ], [ -74.871018, 11.040481 ], [ -74.871096, 11.040539 ], [ -74.871161, 11.040655 ], [ -74.871299, 11.041069 ], [ -74.871476, 11.041392 ], [ -74.8716, 11.041696 ], [ -74.871665, 11.041973 ], [ -74.871659, 11.042116 ], [ -74.871639, 11.042238 ], [ -74.871456, 11.042523 ], [ -74.871103, 11.042697 ], [ -74.871018, 11.042775 ], [ -74.870802, 11.04304 ], [ -74.870508, 11.043357 ], [ -74.870331, 11.043667 ], [ -74.870312, 11.043803 ], [ -74.87039, 11.043867 ], [ -74.870573, 11.043867 ], [ -74.870658, 11.043971 ], [ -74.870625, 11.044106 ], [ -74.870508, 11.044197 ], [ -74.870475, 11.044242 ], [ -74.870534, 11.04432 ], [ -74.87056, 11.044384 ], [ -74.870527, 11.044488 ], [ -74.870338, 11.044785 ], [ -74.87039, 11.044843 ], [ -74.870475, 11.044856 ], [ -74.870403, 11.044998 ], [ -74.870259, 11.045179 ], [ -74.870128, 11.045489 ], [ -74.869978, 11.04569 ], [ -74.869882, 11.046143 ], [ -74.867223, 11.04561 ], [ -74.866719, 11.04476 ], [ -74.866561, 11.042356 ], [ -74.864977, 11.039549 ], [ -74.86325, 11.03713 ], [ -74.861321, 11.036353 ], [ -74.859219, 11.036497 ], [ -74.857491, 11.036381 ], [ -74.856426, 11.03523 ], [ -74.855043, 11.034135 ], [ -74.853489, 11.033761 ], [ -74.851761, 11.033905 ], [ -74.849976, 11.03451 ], [ -74.849141, 11.035561 ], [ -74.849069, 11.037893 ], [ -74.848723, 11.039275 ], [ -74.848018, 11.040456 ], [ -74.847039, 11.041161 ], [ -74.845743, 11.041104 ], [ -74.845383, 11.040225 ], [ -74.845513, 11.03857 ], [ -74.846348, 11.035863 ], [ -74.845993, 11.035732 ], [ -74.845128, 11.035876 ], [ -74.84414, 11.036 ], [ -74.843769, 11.035691 ], [ -74.843337, 11.034806 ], [ -74.843152, 11.034167 ], [ -74.841587, 11.034373 ], [ -74.839507, 11.03532 ], [ -74.838436, 11.036515 ], [ -74.837551, 11.036659 ], [ -74.83403, 11.039995 ], [ -74.832279, 11.044041 ], [ -74.832176, 11.044324 ], [ -74.831528, 11.044803 ], [ -74.830807, 11.045621 ], [ -74.830498, 11.045858 ], [ -74.829546, 11.046929 ], [ -74.829316, 11.046805 ], [ -74.822701, 11.042242 ], [ -74.824784, 11.039173 ], [ -74.824413, 11.039143 ], [ -74.826493, 11.035538 ], [ -74.827846, 11.030124 ], [ -74.828929, 11.025522 ], [ -74.828929, 11.018483 ], [ -74.828388, 11.01361 ], [ -74.828015, 11.011746 ], [ -74.828177, 11.01153 ], [ -74.828404, 11.011187 ], [ -74.828544, 11.011026 ] ] ], [ [ [ -74.840339, 11.011538 ], [ -74.840402, 11.011417 ], [ -74.841585, 11.008191 ], [ -74.841831, 11.00701 ], [ -74.841935, 11.006441 ], [ -74.842043, 11.005663 ], [ -74.842169, 11.005037 ], [ -74.842232, 11.00421 ], [ -74.84216, 11.003798 ], [ -74.842026, 11.003186 ], [ -74.841681, 11.0023 ], [ -74.841424, 11.001518 ], [ -74.840178, 10.998146 ], [ -74.839602, 10.99653 ], [ -74.839087, 10.995176 ], [ -74.83849, 10.993503 ], [ -74.838166, 10.992736 ], [ -74.837867, 10.991789 ], [ -74.837105, 10.989827 ], [ -74.836752, 10.988726 ], [ -74.836629, 10.988291 ], [ -74.836374, 10.987083 ], [ -74.836294, 10.98662 ], [ -74.836176, 10.9854 ], [ -74.836142, 10.984782 ], [ -74.83614, 10.984098 ], [ -74.83616, 10.983076 ], [ -74.836135, 10.981506 ], [ -74.835594, 10.981566 ], [ -74.835082, 10.981686 ], [ -74.834745, 10.981704 ], [ -74.834758, 10.981395 ], [ -74.834892, 10.980304 ], [ -74.834203, 10.980468 ], [ -74.834229, 10.979545 ], [ -74.834205, 10.978415 ], [ -74.834008, 10.978383 ], [ -74.83395, 10.978116 ], [ -74.833867, 10.977452 ], [ -74.833665, 10.976098 ], [ -74.833477, 10.97552 ], [ -74.832211, 10.975944 ], [ -74.831956, 10.975274 ], [ -74.830898, 10.973148 ], [ -74.830445, 10.972196 ], [ -74.830213, 10.971105 ], [ -74.830101, 10.9707 ], [ -74.829901, 10.969402 ], [ -74.829219, 10.969576 ], [ -74.829121, 10.968824 ], [ -74.828964, 10.967854 ], [ -74.828839, 10.967413 ], [ -74.828709, 10.967126 ], [ -74.828382, 10.967248 ], [ -74.828262, 10.967269 ], [ -74.828146, 10.96652 ], [ -74.827994, 10.965894 ], [ -74.827904, 10.964849 ], [ -74.827736, 10.964006 ], [ -74.827576, 10.963522 ], [ -74.827536, 10.963347 ], [ -74.827374, 10.962951 ], [ -74.827155, 10.962564 ], [ -74.826712, 10.9616 ], [ -74.826577, 10.961398 ], [ -74.826045, 10.960964 ], [ -74.825912, 10.960874 ], [ -74.825637, 10.960753 ], [ -74.825245, 10.960609 ], [ -74.825282, 10.960536 ], [ -74.825508, 10.960284 ], [ -74.826133, 10.959702 ], [ -74.825482, 10.958904 ], [ -74.8247, 10.9579 ], [ -74.824375, 10.957375 ], [ -74.823799, 10.956698 ], [ -74.823699, 10.956558 ], [ -74.823659, 10.956414 ], [ -74.823632, 10.956102 ], [ -74.823625, 10.955638 ], [ -74.823632, 10.95505 ], [ -74.823729, 10.952324 ], [ -74.821735, 10.952236 ], [ -74.821699, 10.95089 ], [ -74.821759, 10.948466 ], [ -74.821784, 10.945741 ], [ -74.818346, 10.946885 ], [ -74.818129, 10.9464 ], [ -74.817934, 10.945889 ], [ -74.817766, 10.945607 ], [ -74.817501, 10.945342 ], [ -74.817809, 10.944915 ], [ -74.817851, 10.944821 ], [ -74.818105, 10.943961 ], [ -74.817988, 10.943942 ], [ -74.817712, 10.943863 ], [ -74.817441, 10.943897 ], [ -74.817309, 10.943847 ], [ -74.817068, 10.943683 ], [ -74.817224, 10.94326 ], [ -74.81744, 10.94258 ], [ -74.817489, 10.942516 ], [ -74.817616, 10.942136 ], [ -74.817999, 10.941267 ], [ -74.81764, 10.941072 ], [ -74.817932, 10.940566 ], [ -74.81828, 10.940078 ], [ -74.817752, 10.939709 ], [ -74.817559, 10.939556 ], [ -74.816443, 10.938244 ], [ -74.816375, 10.938138 ], [ -74.815739, 10.93736 ], [ -74.814976, 10.936309 ], [ -74.815043, 10.936286 ], [ -74.815603, 10.936233 ], [ -74.815557, 10.936029 ], [ -74.815494, 10.935861 ], [ -74.815286, 10.935478 ], [ -74.814903, 10.934882 ], [ -74.814853, 10.934756 ], [ -74.814739, 10.934545 ], [ -74.814598, 10.934396 ], [ -74.814194, 10.93424 ], [ -74.81406, 10.934172 ], [ -74.813782, 10.934007 ], [ -74.813263, 10.933652 ], [ -74.813109, 10.933563 ], [ -74.81268, 10.933364 ], [ -74.813769, 10.930768 ], [ -74.817288, 10.923729 ], [ -74.820807, 10.918314 ], [ -74.820927, 10.918043 ], [ -74.821258, 10.917903 ], [ -74.821792, 10.916692 ], [ -74.822326, 10.916218 ], [ -74.824126, 10.915224 ], [ -74.825042, 10.914873 ], [ -74.826427, 10.913922 ], [ -74.826544, 10.914057 ], [ -74.82668, 10.914075 ], [ -74.826949, 10.914204 ], [ -74.827225, 10.914433 ], [ -74.827508, 10.914638 ], [ -74.827761, 10.914733 ], [ -74.828282, 10.914789 ], [ -74.828652, 10.914913 ], [ -74.82889, 10.914926 ], [ -74.829754, 10.915089 ], [ -74.831098, 10.915633 ], [ -74.831639, 10.915574 ], [ -74.831811, 10.915623 ], [ -74.83191, 10.915707 ], [ -74.832156, 10.915703 ], [ -74.832399, 10.915869 ], [ -74.833178, 10.916595 ], [ -74.833473, 10.916924 ], [ -74.833596, 10.917101 ], [ -74.833675, 10.917183 ], [ -74.833778, 10.9172 ], [ -74.833791, 10.917223 ], [ -74.833638, 10.917921 ], [ -74.834421, 10.918364 ], [ -74.834719, 10.918421 ], [ -74.834778, 10.918406 ], [ -74.83514, 10.91857 ], [ -74.835968, 10.919188 ], [ -74.838717, 10.921166 ], [ -74.838833, 10.921219 ], [ -74.839306, 10.921381 ], [ -74.839887, 10.921677 ], [ -74.840016, 10.921714 ], [ -74.840345, 10.921758 ], [ -74.839641, 10.923284 ], [ -74.839177, 10.92425 ], [ -74.838984, 10.924619 ], [ -74.839027, 10.92462 ], [ -74.838389, 10.926383 ], [ -74.839274, 10.926855 ], [ -74.840701, 10.927371 ], [ -74.841263, 10.927557 ], [ -74.841699, 10.927731 ], [ -74.842762, 10.928353 ], [ -74.843226, 10.928768 ], [ -74.843611, 10.929271 ], [ -74.847004, 10.933242 ], [ -74.847959, 10.934438 ], [ -74.848957, 10.935839 ], [ -74.84935, 10.936738 ], [ -74.849813, 10.937424 ], [ -74.85017, 10.93859 ], [ -74.851023, 10.93859 ], [ -74.852009, 10.938492 ], [ -74.85352, 10.938253 ], [ -74.85519, 10.937697 ], [ -74.857516, 10.937096 ], [ -74.858158, 10.937082 ], [ -74.858303, 10.937094 ], [ -74.859476, 10.937292 ], [ -74.869057, 10.939046 ], [ -74.870586, 10.940025 ], [ -74.874213, 10.942433 ], [ -74.877903, 10.944844 ], [ -74.877634, 10.945174 ], [ -74.878397, 10.945197 ], [ -74.879406, 10.945137 ], [ -74.879452, 10.94504 ], [ -74.880752, 10.945185 ], [ -74.881575, 10.94522 ], [ -74.881562, 10.945279 ], [ -74.882679, 10.945371 ], [ -74.88373, 10.945434 ], [ -74.883733, 10.945376 ], [ -74.884413, 10.945433 ], [ -74.885889, 10.945433 ], [ -74.886095, 10.945502 ], [ -74.892077, 10.945711 ], [ -74.892179, 10.945701 ], [ -74.892311, 10.945625 ], [ -74.892277, 10.945789 ], [ -74.8922, 10.946425 ], [ -74.892307, 10.947269 ], [ -74.8924, 10.947723 ], [ -74.892246, 10.948893 ], [ -74.892221, 10.949529 ], [ -74.892288, 10.950074 ], [ -74.892355, 10.950451 ], [ -74.893065, 10.950462 ], [ -74.894143, 10.950511 ], [ -74.894944, 10.950262 ], [ -74.895942, 10.950103 ], [ -74.896297, 10.950271 ], [ -74.896547, 10.950297 ], [ -74.89702, 10.950243 ], [ -74.898084, 10.94989 ], [ -74.898951, 10.949758 ], [ -74.900173, 10.949728 ], [ -74.901477, 10.949958 ], [ -74.902363, 10.950062 ], [ -74.905394, 10.950053 ], [ -74.907715, 10.950464 ], [ -74.910513, 10.949152 ], [ -74.911935, 10.948456 ], [ -74.915407, 10.946798 ], [ -74.916334, 10.946343 ], [ -74.9184, 10.945287 ], [ -74.918419, 10.945441 ], [ -74.918401, 10.945571 ], [ -74.918401, 10.945831 ], [ -74.918515, 10.946072 ], [ -74.918704, 10.946387 ], [ -74.918761, 10.946572 ], [ -74.918856, 10.947129 ], [ -74.918838, 10.947426 ], [ -74.918876, 10.947704 ], [ -74.918953, 10.948038 ], [ -74.918973, 10.948614 ], [ -74.919105, 10.948818 ], [ -74.91914, 10.949278 ], [ -74.919045, 10.949768 ], [ -74.918719, 10.950318 ], [ -74.918106, 10.952081 ], [ -74.917837, 10.952574 ], [ -74.917837, 10.953086 ], [ -74.917914, 10.953522 ], [ -74.917972, 10.954091 ], [ -74.917703, 10.954641 ], [ -74.917435, 10.954907 ], [ -74.916782, 10.955286 ], [ -74.916533, 10.955571 ], [ -74.916168, 10.955628 ], [ -74.915862, 10.955988 ], [ -74.915209, 10.956348 ], [ -74.914763, 10.956746 ], [ -74.911846, 10.957874 ], [ -74.911865, 10.957937 ], [ -74.910607, 10.957965 ], [ -74.909469, 10.95792 ], [ -74.909046, 10.957838 ], [ -74.908854, 10.957711 ], [ -74.908624, 10.957448 ], [ -74.908367, 10.957366 ], [ -74.908211, 10.957376 ], [ -74.907789, 10.957775 ], [ -74.90766, 10.957847 ], [ -74.907375, 10.957838 ], [ -74.907284, 10.957902 ], [ -74.907219, 10.958083 ], [ -74.907155, 10.958183 ], [ -74.9071, 10.958328 ], [ -74.906568, 10.958628 ], [ -74.906311, 10.958719 ], [ -74.906155, 10.958918 ], [ -74.90609, 10.959136 ], [ -74.906081, 10.959272 ], [ -74.906035, 10.959327 ], [ -74.905833, 10.959399 ], [ -74.90554, 10.95939 ], [ -74.905439, 10.959526 ], [ -74.905384, 10.959708 ], [ -74.905393, 10.960116 ], [ -74.905332, 10.960272 ], [ -74.90527, 10.960333 ], [ -74.905229, 10.960335 ], [ -74.90524, 10.96036 ], [ -74.900227, 10.960681 ], [ -74.899034, 10.962613 ], [ -74.902192, 10.965279 ], [ -74.904014, 10.966414 ], [ -74.904771, 10.96742 ], [ -74.905707, 10.96904 ], [ -74.90633, 10.969696 ], [ -74.906865, 10.970308 ], [ -74.907576, 10.970701 ], [ -74.908286, 10.970787 ], [ -74.909308, 10.971441 ], [ -74.908734, 10.972495 ], [ -74.905315, 10.971628 ], [ -74.905316, 10.971891 ], [ -74.904433, 10.973647 ], [ -74.898365, 10.977478 ], [ -74.897348, 10.97884 ], [ -74.896598, 10.980157 ], [ -74.895849, 10.98222 ], [ -74.893854, 10.983014 ], [ -74.892035, 10.983019 ], [ -74.888257, 10.980662 ], [ -74.887146, 10.979919 ], [ -74.886832, 10.978955 ], [ -74.884919, 10.977075 ], [ -74.883158, 10.974521 ], [ -74.882998, 10.974412 ], [ -74.883023, 10.974587 ], [ -74.882962, 10.974545 ], [ -74.88277, 10.974754 ], [ -74.8826, 10.97491 ], [ -74.882562, 10.974974 ], [ -74.882444, 10.97535 ], [ -74.882433, 10.975467 ], [ -74.882457, 10.975649 ], [ -74.882416, 10.975675 ], [ -74.882387, 10.975719 ], [ -74.882367, 10.975896 ], [ -74.882301, 10.976057 ], [ -74.882297, 10.976579 ], [ -74.882192, 10.976913 ], [ -74.882196, 10.977461 ], [ -74.882219, 10.977531 ], [ -74.882481, 10.977747 ], [ -74.88275, 10.977894 ], [ -74.882786, 10.977951 ], [ -74.882793, 10.978079 ], [ -74.882926, 10.978314 ], [ -74.882981, 10.978368 ], [ -74.883083, 10.978422 ], [ -74.883215, 10.978461 ], [ -74.883379, 10.978627 ], [ -74.883481, 10.978681 ], [ -74.883594, 10.978716 ], [ -74.883696, 10.978716 ], [ -74.883786, 10.978758 ], [ -74.883844, 10.978827 ], [ -74.883848, 10.978905 ], [ -74.883813, 10.979001 ], [ -74.88377, 10.979047 ], [ -74.883692, 10.979028 ], [ -74.883434, 10.979032 ], [ -74.883321, 10.979055 ], [ -74.883114, 10.979048 ], [ -74.88309, 10.979021 ], [ -74.882934, 10.978994 ], [ -74.882797, 10.97892 ], [ -74.882723, 10.978916 ], [ -74.882672, 10.978967 ], [ -74.882641, 10.979024 ], [ -74.882579, 10.979075 ], [ -74.882497, 10.979075 ], [ -74.882376, 10.979017 ], [ -74.882193, 10.979183 ], [ -74.88214, 10.979267 ], [ -74.88214, 10.979335 ], [ -74.882384, 10.979748 ], [ -74.882607, 10.979905 ], [ -74.882645, 10.979989 ], [ -74.882713, 10.980064 ], [ -74.882842, 10.980159 ], [ -74.882808, 10.980359 ], [ -74.882892, 10.980483 ], [ -74.883203, 10.980632 ], [ -74.883212, 10.980724 ], [ -74.883111, 10.980823 ], [ -74.882943, 10.980848 ], [ -74.882808, 10.980948 ], [ -74.882691, 10.980989 ], [ -74.882472, 10.980989 ], [ -74.882414, 10.98094 ], [ -74.882346, 10.980948 ], [ -74.882288, 10.981031 ], [ -74.882225, 10.981186 ], [ -74.882145, 10.98128 ], [ -74.882053, 10.981355 ], [ -74.881977, 10.981371 ], [ -74.881851, 10.981296 ], [ -74.88175, 10.981454 ], [ -74.881574, 10.981454 ], [ -74.881481, 10.981438 ], [ -74.881381, 10.981321 ], [ -74.881288, 10.981272 ], [ -74.881196, 10.981321 ], [ -74.881087, 10.981413 ], [ -74.880818, 10.981595 ], [ -74.880759, 10.98162 ], [ -74.880558, 10.981687 ], [ -74.880474, 10.981637 ], [ -74.880415, 10.981554 ], [ -74.880322, 10.981512 ], [ -74.88018, 10.98162 ], [ -74.880138, 10.981596 ], [ -74.879869, 10.981828 ], [ -74.879793, 10.981836 ], [ -74.879743, 10.981886 ], [ -74.879743, 10.981986 ], [ -74.879659, 10.982201 ], [ -74.879827, 10.982268 ], [ -74.87986, 10.982384 ], [ -74.87981, 10.982484 ], [ -74.879852, 10.982567 ], [ -74.879944, 10.9826 ], [ -74.879911, 10.982766 ], [ -74.879777, 10.982832 ], [ -74.879659, 10.982816 ], [ -74.879558, 10.982749 ], [ -74.879306, 10.982782 ], [ -74.879121, 10.982832 ], [ -74.879004, 10.982882 ], [ -74.878903, 10.982882 ], [ -74.878592, 10.982998 ], [ -74.878433, 10.983164 ], [ -74.878424, 10.983339 ], [ -74.8785, 10.98338 ], [ -74.878475, 10.983455 ], [ -74.878349, 10.983521 ], [ -74.878198, 10.983637 ], [ -74.878105, 10.983662 ], [ -74.877962, 10.983787 ], [ -74.877719, 10.983795 ], [ -74.877643, 10.983903 ], [ -74.877694, 10.984152 ], [ -74.87761, 10.984169 ], [ -74.877551, 10.98421 ], [ -74.877551, 10.984368 ], [ -74.877517, 10.984484 ], [ -74.87745, 10.984476 ], [ -74.877366, 10.984492 ], [ -74.877408, 10.984658 ], [ -74.877417, 10.984841 ], [ -74.877324, 10.984858 ], [ -74.877228, 10.984814 ], [ -74.877118, 10.98493 ], [ -74.876849, 10.984966 ], [ -74.876597, 10.985038 ], [ -74.876544, 10.985216 ], [ -74.876472, 10.985323 ], [ -74.876598, 10.9855 ], [ -74.876761, 10.985642 ], [ -74.876725, 10.985873 ], [ -74.876618, 10.986051 ], [ -74.876475, 10.986229 ], [ -74.876206, 10.986531 ], [ -74.876161, 10.986556 ], [ -74.876093, 10.986788 ], [ -74.876009, 10.98691 ], [ -74.875942, 10.986971 ], [ -74.875807, 10.987054 ], [ -74.875645, 10.987115 ], [ -74.875499, 10.987204 ], [ -74.875342, 10.987253 ], [ -74.875135, 10.987309 ], [ -74.874843, 10.987314 ], [ -74.874456, 10.987364 ], [ -74.874355, 10.987326 ], [ -74.874127, 10.987358 ], [ -74.873929, 10.987503 ], [ -74.873845, 10.987752 ], [ -74.873829, 10.987924 ], [ -74.873902, 10.988051 ], [ -74.873997, 10.988145 ], [ -74.874176, 10.988162 ], [ -74.874378, 10.988206 ], [ -74.874479, 10.988306 ], [ -74.874714, 10.988367 ], [ -74.874995, 10.988655 ], [ -74.875056, 10.988843 ], [ -74.875045, 10.988987 ], [ -74.874967, 10.989092 ], [ -74.874899, 10.989275 ], [ -74.874759, 10.989408 ], [ -74.874686, 10.989513 ], [ -74.874535, 10.989768 ], [ -74.874485, 10.989923 ], [ -74.874395, 10.990039 ], [ -74.874339, 10.990178 ], [ -74.874339, 10.99025 ], [ -74.874373, 10.990338 ], [ -74.87447, 10.990429 ], [ -74.874546, 10.990477 ], [ -74.874664, 10.990687 ], [ -74.874776, 10.990743 ], [ -74.874866, 10.990765 ], [ -74.874984, 10.990759 ], [ -74.875129, 10.990698 ], [ -74.875309, 10.990593 ], [ -74.875639, 10.990499 ], [ -74.875746, 10.990443 ], [ -74.876032, 10.990216 ], [ -74.876206, 10.990189 ], [ -74.876284, 10.990222 ], [ -74.876419, 10.99036 ], [ -74.876475, 10.990515 ], [ -74.876514, 10.990687 ], [ -74.876419, 10.991019 ], [ -74.876279, 10.991324 ], [ -74.876099, 10.991623 ], [ -74.876032, 10.991717 ], [ -74.875954, 10.991788 ], [ -74.875879, 10.992056 ], [ -74.875844, 10.992483 ], [ -74.875923, 10.992655 ], [ -74.875934, 10.992769 ], [ -74.875956, 10.992821 ], [ -74.876137, 10.993091 ], [ -74.876208, 10.993152 ], [ -74.87626, 10.993231 ], [ -74.87626, 10.99329 ], [ -74.876216, 10.993344 ], [ -74.876238, 10.993431 ], [ -74.87641, 10.993466 ], [ -74.876552, 10.993435 ], [ -74.876644, 10.993435 ], [ -74.876715, 10.993479 ], [ -74.876785, 10.993557 ], [ -74.876838, 10.993549 ], [ -74.8769, 10.993727 ], [ -74.876988, 10.993801 ], [ -74.877015, 10.993867 ], [ -74.877006, 10.993958 ], [ -74.876803, 10.994132 ], [ -74.876706, 10.994268 ], [ -74.876622, 10.994294 ], [ -74.876525, 10.994237 ], [ -74.876433, 10.994246 ], [ -74.876269, 10.994355 ], [ -74.876234, 10.994416 ], [ -74.875943, 10.994542 ], [ -74.875798, 10.994568 ], [ -74.875546, 10.994717 ], [ -74.875352, 10.994943 ], [ -74.875401, 10.995033 ], [ -74.875454, 10.995069 ], [ -74.875462, 10.99513 ], [ -74.875433, 10.995215 ], [ -74.87529, 10.995253 ], [ -74.875193, 10.99534 ], [ -74.875224, 10.995422 ], [ -74.875604, 10.99561 ], [ -74.875665, 10.995592 ], [ -74.875776, 10.995457 ], [ -74.875873, 10.995418 ], [ -74.87604, 10.995401 ], [ -74.876239, 10.995435 ], [ -74.876433, 10.995501 ], [ -74.876525, 10.995575 ], [ -74.876658, 10.995745 ], [ -74.876755, 10.996002 ], [ -74.87675, 10.996224 ], [ -74.876543, 10.996638 ], [ -74.876393, 10.996782 ], [ -74.876306, 10.996841 ], [ -74.882156, 11.001114 ], [ -74.878142, 11.007353 ], [ -74.874616, 11.011013 ], [ -74.873496, 11.010159 ], [ -74.871698, 11.008976 ], [ -74.871245, 11.009472 ], [ -74.87113, 11.009711 ], [ -74.870647, 11.010451 ], [ -74.87052, 11.010688 ], [ -74.870343, 11.010969 ], [ -74.870023, 11.011323 ], [ -74.869845, 11.011443 ], [ -74.869762, 11.011551 ], [ -74.869386, 11.012177 ], [ -74.869262, 11.012484 ], [ -74.868904, 11.013178 ], [ -74.868705, 11.013435 ], [ -74.868634, 11.013514 ], [ -74.868519, 11.013603 ], [ -74.868152, 11.013807 ], [ -74.867561, 11.014175 ], [ -74.867274, 11.014389 ], [ -74.867077, 11.014603 ], [ -74.866778, 11.014823 ], [ -74.866748, 11.014825 ], [ -74.866552, 11.015001 ], [ -74.866432, 11.015076 ], [ -74.866345, 11.015162 ], [ -74.866283, 11.015256 ], [ -74.866259, 11.015332 ], [ -74.866259, 11.015436 ], [ -74.866231, 11.015509 ], [ -74.866101, 11.015608 ], [ -74.865905, 11.015795 ], [ -74.865714, 11.01613 ], [ -74.865292, 11.016781 ], [ -74.860129, 11.016782 ], [ -74.859812, 11.0165 ], [ -74.857248, 11.016835 ], [ -74.854045, 11.017225 ], [ -74.853217, 11.017244 ], [ -74.852291, 11.017192 ], [ -74.851422, 11.017068 ], [ -74.85065, 11.016893 ], [ -74.850016, 11.016689 ], [ -74.84952, 11.016503 ], [ -74.848924, 11.016239 ], [ -74.84793, 11.015718 ], [ -74.842522, 11.012812 ], [ -74.842136, 11.012695 ], [ -74.841829, 11.012656 ], [ -74.841425, 11.012715 ], [ -74.840243, 11.013159 ], [ -74.839955, 11.013296 ], [ -74.839679, 11.013475 ], [ -74.83953, 11.013636 ], [ -74.839434, 11.013793 ], [ -74.840339, 11.011538 ] ] ], [ [ [ -74.872924, 11.045524 ], [ -74.872466, 11.045666 ], [ -74.872542, 11.045541 ], [ -74.872568, 11.045453 ], [ -74.872693, 11.045327 ], [ -74.872771, 11.045295 ], [ -74.872857, 11.045502 ], [ -74.872924, 11.045524 ] ] ] ] } }
]
}
