{
"type": "FeatureCollection",
"name": "franja_de_interfaz_localizada_sombreada_fig_43",
"crs": { "type": "name", "properties": { "name": "urn:ogc:def:crs:OGC:1.3:CRS84" } },
"xy_coordinate_resolution": 1e-06,
"features": [
{ "type": "Feature", "properties": { "nombre": "Franja de Interfaz Cerro-Quebrada Localizada (AMV)", "categoria": "Franja de Interfaz Periurbana y Riesgo", "morfologia": "Borde superior de cerros, matorral esclerófilo y cabecera de quebradas", "area_ha": 3480.0 }, "geometry": { "type": "Polygon", "coordinates": [ [ [ -71.670198, -32.991394 ], [ -71.627829, -33.005818 ], [ -71.607237, -33.0333 ], [ -71.597598, -33.069567 ], [ -71.614318, -33.091759 ], [ -71.651513, -33.081956 ], [ -71.682938, -33.058743 ], [ -71.692403, -33.017966 ], [ -71.670198, -32.991394 ] ] ] } }
]
}
