{
"type": "FeatureCollection",
"name": "franja_interface_urbano_rural_amb",
"crs": { "type": "name", "properties": { "name": "urn:ogc:def:crs:OGC:1.3:CRS84" } },
"xy_coordinate_resolution": 1e-06,
"features": [
{ "type": "Feature", "properties": { "id": null, "NOMBRE": "UFP_1", "Id_2": "POMCA_211", "AH": 2, "NOMAH": "Magdalena Cauca", "ZH": 29, "NOMZH": "Bajo Magdalena", "SZH": 2909, "NOMSZH": "Cienaga Mallorquin", "Cod_POMCA": "2909", "Nom_POMCA": "Cienaga Mallorquin - SZH", "Jurisd_Dpt": "Atlantico", "Car_Lider": "CRA", "Car_CC": "CRA 100", "Fuente_Fin": "Recursos Propios de la Corporación", "Fase": "6", "Nom_Fase": "Aprobado", "Res_Adop": "CRA: 072 de 2017", "Año_Res": 2017, "Area_Ha": 1942.8772113267901, "Observacio": null, "Fecha_Ingr": "2021-05-06", "Fecha_Reco": "2021-04-30" }, "geometry": { "type": "Polygon", "coordinates": [ [ [ -74.828015, 11.011746 ], [ -74.828177, 11.01153 ], [ -74.828404, 11.011187 ], [ -74.828544, 11.011026 ], [ -74.8291, 11.011236 ], [ -74.829875, 11.011434 ], [ -74.830763, 11.011521 ], [ -74.831113, 11.011606 ], [ -74.831476, 11.011727 ], [ -74.832513, 11.012152 ], [ -74.833275, 11.012543 ], [ -74.835659, 11.01418 ], [ -74.836971, 11.014983 ], [ -74.837198, 11.015163 ], [ -74.838644, 11.01574 ], [ -74.840339, 11.011538 ], [ -74.8425, 11.012702 ], [ -74.84421, 11.013648 ], [ -74.845081, 11.014098 ], [ -74.848619, 11.015995 ], [ -74.848979, 11.016182 ], [ -74.849465, 11.016409 ], [ -74.850152, 11.01665 ], [ -74.850645, 11.016794 ], [ -74.851192, 11.016931 ], [ -74.851703, 11.017025 ], [ -74.852459, 11.017118 ], [ -74.853456, 11.017158 ], [ -74.85419, 11.017125 ], [ -74.858758, 11.016531 ], [ -74.86086, 11.016272 ], [ -74.862379, 11.016107 ], [ -74.869491, 11.015185 ], [ -74.870938, 11.01502 ], [ -74.874292, 11.014559 ], [ -74.876485, 11.014312 ], [ -74.87667, 11.015043 ], [ -74.87675, 11.015446 ], [ -74.877061, 11.016741 ], [ -74.877251, 11.016821 ], [ -74.877369, 11.016818 ], [ -74.87746, 11.016743 ], [ -74.877566, 11.016595 ], [ -74.87767, 11.016508 ], [ -74.877753, 11.016452 ], [ -74.877843, 11.016421 ], [ -74.88301, 11.015553 ], [ -74.88347, 11.015437 ], [ -74.883921, 11.01528 ], [ -74.884371, 11.015151 ], [ -74.884793, 11.014968 ], [ -74.884953, 11.014863 ], [ -74.885156, 11.014701 ], [ -74.885679, 11.014234 ], [ -74.885908, 11.014105 ], [ -74.887656, 11.013353 ], [ -74.88792, 11.013254 ], [ -74.888084, 11.01321 ], [ -74.888406, 11.013163 ], [ -74.888738, 11.013178 ], [ -74.888882, 11.013201 ], [ -74.889565, 11.013401 ], [ -74.890504, 11.013711 ], [ -74.890647, 11.013748 ], [ -74.890841, 11.013774 ], [ -74.891119, 11.013768 ], [ -74.892431, 11.013641 ], [ -74.892718, 11.01357 ], [ -74.893202, 11.013421 ], [ -74.893453, 11.013375 ], [ -74.893641, 11.013389 ], [ -74.893718, 11.013407 ], [ -74.893922, 11.013502 ], [ -74.894114, 11.013646 ], [ -74.894292, 11.01383 ], [ -74.8945, 11.014015 ], [ -74.89485, 11.014227 ], [ -74.894988, 11.014292 ], [ -74.895463, 11.014642 ], [ -74.895634, 11.014708 ], [ -74.896453, 11.01487 ], [ -74.89683, 11.014902 ], [ -74.897319, 11.014884 ], [ -74.899849, 11.014546 ], [ -74.899582, 11.016666 ], [ -74.89875, 11.0175 ], [ -74.897919, 11.02 ], [ -74.897087, 11.024167 ], [ -74.896667, 11.024584 ], [ -74.894165, 11.025416 ], [ -74.892914, 11.026668 ], [ -74.892082, 11.028334 ], [ -74.889168, 11.03125 ], [ -74.887497, 11.032084 ], [ -74.884163, 11.032917 ], [ -74.883331, 11.03375 ], [ -74.881668, 11.034583 ], [ -74.881248, 11.035 ], [ -74.880836, 11.035833 ], [ -74.881668, 11.0375 ], [ -74.880836, 11.039167 ], [ -74.881248, 11.04 ], [ -74.8825, 11.04125 ], [ -74.881668, 11.042083 ], [ -74.878334, 11.042917 ], [ -74.876663, 11.04375 ], [ -74.876251, 11.044167 ], [ -74.87617, 11.04449 ], [ -74.875351, 11.044787 ], [ -74.872572, 11.045631 ], [ -74.870904, 11.046187 ], [ -74.869895, 11.046146 ], [ -74.867223, 11.04561 ], [ -74.866719, 11.04476 ], [ -74.866561, 11.042356 ], [ -74.864977, 11.039549 ], [ -74.86325, 11.03713 ], [ -74.861321, 11.036353 ], [ -74.859219, 11.036497 ], [ -74.857491, 11.036381 ], [ -74.856426, 11.03523 ], [ -74.855043, 11.034135 ], [ -74.853489, 11.033761 ], [ -74.851761, 11.033905 ], [ -74.849976, 11.03451 ], [ -74.849141, 11.035561 ], [ -74.849069, 11.037893 ], [ -74.848723, 11.039275 ], [ -74.848018, 11.040456 ], [ -74.847039, 11.041161 ], [ -74.845743, 11.041104 ], [ -74.845383, 11.040225 ], [ -74.845513, 11.03857 ], [ -74.846348, 11.035863 ], [ -74.845993, 11.035732 ], [ -74.845128, 11.035876 ], [ -74.84414, 11.036 ], [ -74.843769, 11.035691 ], [ -74.843337, 11.034806 ], [ -74.843152, 11.034167 ], [ -74.841587, 11.034373 ], [ -74.839507, 11.03532 ], [ -74.838436, 11.036515 ], [ -74.837551, 11.036659 ], [ -74.83403, 11.039995 ], [ -74.832279, 11.044041 ], [ -74.832176, 11.044324 ], [ -74.831528, 11.044803 ], [ -74.830807, 11.045621 ], [ -74.830498, 11.045858 ], [ -74.829546, 11.046929 ], [ -74.829316, 11.046805 ], [ -74.822701, 11.042242 ], [ -74.824784, 11.039173 ], [ -74.824413, 11.039143 ], [ -74.826493, 11.035538 ], [ -74.827846, 11.030124 ], [ -74.828929, 11.025522 ], [ -74.828929, 11.018483 ], [ -74.828388, 11.01361 ], [ -74.828015, 11.011746 ] ] ] } },
{ "type": "Feature", "properties": { "id": null, "NOMBRE": "UFP_2", "Id_2": "POMCA_211", "AH": 2, "NOMAH": "Magdalena Cauca", "ZH": 29, "NOMZH": "Bajo Magdalena", "SZH": 2909, "NOMSZH": "Cienaga Mallorquin", "Cod_POMCA": "2909", "Nom_POMCA": "Cienaga Mallorquin - SZH", "Jurisd_Dpt": "Atlantico", "Car_Lider": "CRA", "Car_CC": "CRA 100", "Fuente_Fin": "Recursos Propios de la Corporación", "Fase": "6", "Nom_Fase": "Aprobado", "Res_Adop": "CRA: 072 de 2017", "Año_Res": 2017, "Area_Ha": 6099.2123910291402, "Observacio": null, "Fecha_Ingr": "2021-05-06", "Fecha_Reco": "2021-04-30" }, "geometry": { "type": "Polygon", "coordinates": [ [ [ -74.837258, 10.892438 ], [ -74.836554, 10.894579 ], [ -74.836466, 10.895064 ], [ -74.836366, 10.895869 ], [ -74.836255, 10.896467 ], [ -74.836252, 10.896588 ], [ -74.836359, 10.897343 ], [ -74.836553, 10.898084 ], [ -74.836553, 10.898292 ], [ -74.836483, 10.898958 ], [ -74.836401, 10.899425 ], [ -74.836369, 10.899746 ], [ -74.836262, 10.90008 ], [ -74.836083, 10.900738 ], [ -74.836022, 10.900805 ], [ -74.835969, 10.90083 ], [ -74.835817, 10.900827 ], [ -74.835675, 10.900877 ], [ -74.835365, 10.901093 ], [ -74.835057, 10.901368 ], [ -74.834637, 10.901805 ], [ -74.834301, 10.902469 ], [ -74.833928, 10.903299 ], [ -74.833808, 10.903524 ], [ -74.833568, 10.903855 ], [ -74.833504, 10.903975 ], [ -74.833425, 10.904184 ], [ -74.833318, 10.90433 ], [ -74.833171, 10.904435 ], [ -74.832542, 10.904785 ], [ -74.832358, 10.904976 ], [ -74.832188, 10.905112 ], [ -74.8319, 10.905301 ], [ -74.831447, 10.905722 ], [ -74.830781, 10.906203 ], [ -74.830707, 10.906272 ], [ -74.830568, 10.906452 ], [ -74.830526, 10.906571 ], [ -74.830466, 10.906825 ], [ -74.830416, 10.906941 ], [ -74.830242, 10.907259 ], [ -74.830184, 10.907316 ], [ -74.829808, 10.907474 ], [ -74.829435, 10.90771 ], [ -74.828985, 10.907865 ], [ -74.82859, 10.907925 ], [ -74.82844, 10.908022 ], [ -74.828351, 10.908123 ], [ -74.828187, 10.908369 ], [ -74.828125, 10.908499 ], [ -74.828097, 10.908642 ], [ -74.82807, 10.909353 ], [ -74.828075, 10.909538 ], [ -74.828125, 10.909988 ], [ -74.828233, 10.910319 ], [ -74.828251, 10.910335 ], [ -74.828427, 10.910762 ], [ -74.828481, 10.910961 ], [ -74.828497, 10.911046 ], [ -74.828467, 10.911166 ], [ -74.828394, 10.911348 ], [ -74.828299, 10.911457 ], [ -74.827944, 10.911727 ], [ -74.827827, 10.911778 ], [ -74.827744, 10.911833 ], [ -74.827671, 10.911936 ], [ -74.827539, 10.912157 ], [ -74.827324, 10.912665 ], [ -74.827275, 10.912844 ], [ -74.827224, 10.913142 ], [ -74.827174, 10.913299 ], [ -74.827103, 10.913429 ], [ -74.827001, 10.913552 ], [ -74.826714, 10.91383 ], [ -74.826464, 10.914048 ], [ -74.826677, 10.913863 ], [ -74.827619, 10.914464 ], [ -74.827847, 10.91459 ], [ -74.828296, 10.914771 ], [ -74.829401, 10.914856 ], [ -74.830186, 10.915075 ], [ -74.830914, 10.915349 ], [ -74.831741, 10.915557 ], [ -74.832119, 10.915619 ], [ -74.832288, 10.915693 ], [ -74.832362, 10.915753 ], [ -74.832559, 10.915971 ], [ -74.833106, 10.916513 ], [ -74.833368, 10.916893 ], [ -74.83348, 10.917112 ], [ -74.833617, 10.917187 ], [ -74.833765, 10.917199 ], [ -74.83389, 10.917231 ], [ -74.833976, 10.917282 ], [ -74.834001, 10.917329 ], [ -74.834002, 10.917458 ], [ -74.83398, 10.917589 ], [ -74.833941, 10.917705 ], [ -74.833918, 10.917918 ], [ -74.833954, 10.918001 ], [ -74.834144, 10.918111 ], [ -74.834623, 10.918327 ], [ -74.835407, 10.918768 ], [ -74.836196, 10.919369 ], [ -74.836329, 10.91944 ], [ -74.83685, 10.919779 ], [ -74.837133, 10.919981 ], [ -74.83806, 10.920742 ], [ -74.83866, 10.921119 ], [ -74.839195, 10.921384 ], [ -74.839665, 10.921568 ], [ -74.840038, 10.921686 ], [ -74.840444, 10.921756 ], [ -74.843923, 10.925897 ], [ -74.84552, 10.928165 ], [ -74.847447, 10.930599 ], [ -74.850534, 10.934566 ], [ -74.849394, 10.935406 ], [ -74.849226, 10.935161 ], [ -74.848807, 10.93545 ], [ -74.849801, 10.937663 ], [ -74.851833, 10.936199 ], [ -74.852551, 10.937086 ], [ -74.853262, 10.938057 ], [ -74.853635, 10.938431 ], [ -74.855119, 10.93805 ], [ -74.855334, 10.938372 ], [ -74.85717, 10.939261 ], [ -74.857484, 10.939357 ], [ -74.859004, 10.939616 ], [ -74.860053, 10.939812 ], [ -74.860364, 10.93854 ], [ -74.861864, 10.938929 ], [ -74.86361, 10.939201 ], [ -74.867554, 10.939461 ], [ -74.875271, 10.944183 ], [ -74.881145, 10.947005 ], [ -74.887019, 10.948617 ], [ -74.891108, 10.950863 ], [ -74.896348, 10.952821 ], [ -74.896513, 10.953196 ], [ -74.896578, 10.953456 ], [ -74.89703, 10.954639 ], [ -74.897667, 10.956201 ], [ -74.898163, 10.957507 ], [ -74.89839, 10.958044 ], [ -74.89898, 10.959608 ], [ -74.900326, 10.962869 ], [ -74.900912, 10.964352 ], [ -74.901038, 10.964723 ], [ -74.901107, 10.96504 ], [ -74.901171, 10.96545 ], [ -74.901168, 10.966069 ], [ -74.901139, 10.966404 ], [ -74.901046, 10.966774 ], [ -74.90088, 10.967253 ], [ -74.900614, 10.967746 ], [ -74.900318, 10.968146 ], [ -74.89984, 10.968603 ], [ -74.899303, 10.96901 ], [ -74.89583, 10.971583 ], [ -74.894786, 10.972332 ], [ -74.893951, 10.972908 ], [ -74.893541, 10.973231 ], [ -74.893145, 10.973559 ], [ -74.892566, 10.974185 ], [ -74.892285, 10.974542 ], [ -74.892105, 10.974801 ], [ -74.891965, 10.975056 ], [ -74.891615, 10.975809 ], [ -74.891349, 10.976546 ], [ -74.891223, 10.977284 ], [ -74.890892, 10.979959 ], [ -74.890129, 10.985757 ], [ -74.889859, 10.987978 ], [ -74.889722, 10.988863 ], [ -74.889632, 10.989295 ], [ -74.889452, 10.989741 ], [ -74.889316, 10.989986 ], [ -74.888133, 10.991809 ], [ -74.885311, 10.996229 ], [ -74.879395, 11.005389 ], [ -74.876708, 11.009591 ], [ -74.876402, 11.010104 ], [ -74.876263, 11.010411 ], [ -74.876184, 11.010633 ], [ -74.876087, 11.011003 ], [ -74.876035, 11.011275 ], [ -74.876004, 11.011601 ], [ -74.875999, 11.0119 ], [ -74.876024, 11.012251 ], [ -74.876145, 11.012952 ], [ -74.876485, 11.014312 ], [ -74.874292, 11.014559 ], [ -74.870938, 11.01502 ], [ -74.869491, 11.015185 ], [ -74.862379, 11.016107 ], [ -74.86086, 11.016272 ], [ -74.858758, 11.016531 ], [ -74.85419, 11.017125 ], [ -74.853456, 11.017158 ], [ -74.852459, 11.017118 ], [ -74.851703, 11.017025 ], [ -74.851192, 11.016931 ], [ -74.850645, 11.016794 ], [ -74.850152, 11.01665 ], [ -74.849465, 11.016409 ], [ -74.848979, 11.016182 ], [ -74.848619, 11.015995 ], [ -74.845081, 11.014098 ], [ -74.84421, 11.013648 ], [ -74.8425, 11.012702 ], [ -74.840339, 11.011538 ], [ -74.840402, 11.011417 ], [ -74.841585, 11.008191 ], [ -74.841831, 11.00701 ], [ -74.841935, 11.006441 ], [ -74.842043, 11.005663 ], [ -74.842169, 11.005037 ], [ -74.842232, 11.00421 ], [ -74.84216, 11.003798 ], [ -74.842026, 11.003186 ], [ -74.841681, 11.0023 ], [ -74.841424, 11.001518 ], [ -74.840178, 10.998146 ], [ -74.839602, 10.99653 ], [ -74.839087, 10.995176 ], [ -74.83849, 10.993503 ], [ -74.838166, 10.992736 ], [ -74.837867, 10.991789 ], [ -74.837105, 10.989827 ], [ -74.836752, 10.988726 ], [ -74.836629, 10.988291 ], [ -74.836374, 10.987083 ], [ -74.836294, 10.98662 ], [ -74.836176, 10.9854 ], [ -74.836142, 10.984782 ], [ -74.83614, 10.984098 ], [ -74.83616, 10.983076 ], [ -74.836135, 10.981506 ], [ -74.835594, 10.981566 ], [ -74.835082, 10.981686 ], [ -74.834745, 10.981704 ], [ -74.834758, 10.981395 ], [ -74.834892, 10.980304 ], [ -74.834203, 10.980468 ], [ -74.834229, 10.979545 ], [ -74.834205, 10.978415 ], [ -74.834008, 10.978383 ], [ -74.83395, 10.978116 ], [ -74.833867, 10.977452 ], [ -74.833665, 10.976098 ], [ -74.833477, 10.97552 ], [ -74.832211, 10.975944 ], [ -74.831956, 10.975274 ], [ -74.830898, 10.973148 ], [ -74.830445, 10.972196 ], [ -74.830213, 10.971105 ], [ -74.830101, 10.9707 ], [ -74.829901, 10.969402 ], [ -74.829219, 10.969576 ], [ -74.829121, 10.968824 ], [ -74.828964, 10.967854 ], [ -74.828839, 10.967413 ], [ -74.828709, 10.967126 ], [ -74.828382, 10.967248 ], [ -74.828262, 10.967269 ], [ -74.828146, 10.96652 ], [ -74.827994, 10.965894 ], [ -74.827904, 10.964849 ], [ -74.827736, 10.964006 ], [ -74.827576, 10.963522 ], [ -74.827536, 10.963347 ], [ -74.827374, 10.962951 ], [ -74.827155, 10.962564 ], [ -74.826712, 10.9616 ], [ -74.826577, 10.961398 ], [ -74.826045, 10.960964 ], [ -74.825912, 10.960874 ], [ -74.825637, 10.960753 ], [ -74.825245, 10.960609 ], [ -74.825282, 10.960536 ], [ -74.825508, 10.960284 ], [ -74.826133, 10.959702 ], [ -74.825482, 10.958904 ], [ -74.8247, 10.9579 ], [ -74.824375, 10.957375 ], [ -74.823799, 10.956698 ], [ -74.823699, 10.956558 ], [ -74.823659, 10.956414 ], [ -74.823632, 10.956102 ], [ -74.823625, 10.955638 ], [ -74.823632, 10.95505 ], [ -74.823729, 10.952324 ], [ -74.821735, 10.952236 ], [ -74.821699, 10.95089 ], [ -74.821759, 10.948466 ], [ -74.821784, 10.945741 ], [ -74.818346, 10.946885 ], [ -74.818129, 10.9464 ], [ -74.817934, 10.945889 ], [ -74.817766, 10.945607 ], [ -74.817501, 10.945342 ], [ -74.817809, 10.944915 ], [ -74.817851, 10.944821 ], [ -74.818105, 10.943961 ], [ -74.817988, 10.943942 ], [ -74.817712, 10.943863 ], [ -74.817441, 10.943897 ], [ -74.817309, 10.943847 ], [ -74.817068, 10.943683 ], [ -74.817224, 10.94326 ], [ -74.81744, 10.94258 ], [ -74.817489, 10.942516 ], [ -74.817616, 10.942136 ], [ -74.817999, 10.941267 ], [ -74.81764, 10.941072 ], [ -74.817932, 10.940566 ], [ -74.81828, 10.940078 ], [ -74.817752, 10.939709 ], [ -74.817559, 10.939556 ], [ -74.816443, 10.938244 ], [ -74.816375, 10.938138 ], [ -74.815739, 10.93736 ], [ -74.814976, 10.936309 ], [ -74.815043, 10.936286 ], [ -74.815603, 10.936233 ], [ -74.815557, 10.936029 ], [ -74.815494, 10.935861 ], [ -74.815286, 10.935478 ], [ -74.814903, 10.934882 ], [ -74.814853, 10.934756 ], [ -74.814739, 10.934545 ], [ -74.814598, 10.934396 ], [ -74.814194, 10.93424 ], [ -74.81406, 10.934172 ], [ -74.813782, 10.934007 ], [ -74.813263, 10.933652 ], [ -74.813109, 10.933563 ], [ -74.81268, 10.933364 ], [ -74.813769, 10.930768 ], [ -74.817288, 10.923729 ], [ -74.820807, 10.918314 ], [ -74.824868, 10.90911 ], [ -74.827034, 10.903154 ], [ -74.828388, 10.899093 ], [ -74.829741, 10.896927 ], [ -74.832449, 10.89422 ], [ -74.837258, 10.892438 ] ] ] } },
{ "type": "Feature", "properties": { "id": null, "NOMBRE": "UFP_3", "Id_2": "POMCA_211", "AH": 2, "NOMAH": "Magdalena Cauca", "ZH": 29, "NOMZH": "Bajo Magdalena", "SZH": 2909, "NOMSZH": "Cienaga Mallorquin", "Cod_POMCA": "2909", "Nom_POMCA": "Cienaga Mallorquin - SZH", "Jurisd_Dpt": "Atlantico", "Car_Lider": "CRA", "Car_CC": "CRA 100", "Fuente_Fin": "Recursos Propios de la Corporación", "Fase": "6", "Nom_Fase": "Aprobado", "Res_Adop": "CRA: 072 de 2017", "Año_Res": 2017, "Area_Ha": 10544.1796887329, "Observacio": null, "Fecha_Ingr": "2021-05-06", "Fecha_Reco": "2021-04-30" }, "geometry": { "type": "Polygon", "coordinates": [ [ [ -74.849456, 10.936895 ], [ -74.848807, 10.93545 ], [ -74.849226, 10.935161 ], [ -74.849394, 10.935406 ], [ -74.850534, 10.934566 ], [ -74.847447, 10.930599 ], [ -74.84552, 10.928165 ], [ -74.843923, 10.925897 ], [ -74.840444, 10.921756 ], [ -74.840038, 10.921686 ], [ -74.839701, 10.92158 ], [ -74.839306, 10.921381 ], [ -74.838893, 10.921239 ], [ -74.83866, 10.921119 ], [ -74.83854, 10.921047 ], [ -74.837722, 10.920455 ], [ -74.836985, 10.919873 ], [ -74.836287, 10.919417 ], [ -74.83514, 10.91857 ], [ -74.834771, 10.918408 ], [ -74.834486, 10.918255 ], [ -74.834144, 10.918111 ], [ -74.833954, 10.918001 ], [ -74.833918, 10.917918 ], [ -74.833941, 10.917705 ], [ -74.83398, 10.917589 ], [ -74.834002, 10.917458 ], [ -74.834001, 10.917329 ], [ -74.833976, 10.917282 ], [ -74.83389, 10.917231 ], [ -74.833675, 10.917183 ], [ -74.833596, 10.917101 ], [ -74.833473, 10.916924 ], [ -74.833022, 10.916418 ], [ -74.832288, 10.915693 ], [ -74.832119, 10.915619 ], [ -74.831741, 10.915557 ], [ -74.830914, 10.915349 ], [ -74.830186, 10.915075 ], [ -74.829401, 10.914856 ], [ -74.828296, 10.914771 ], [ -74.827847, 10.91459 ], [ -74.827619, 10.914464 ], [ -74.826677, 10.913863 ], [ -74.827075, 10.913494 ], [ -74.827164, 10.913357 ], [ -74.827224, 10.913142 ], [ -74.827297, 10.912781 ], [ -74.827415, 10.912473 ], [ -74.827562, 10.912176 ], [ -74.827739, 10.911919 ], [ -74.827914, 10.911742 ], [ -74.828299, 10.911457 ], [ -74.828394, 10.911348 ], [ -74.828467, 10.911166 ], [ -74.828497, 10.911046 ], [ -74.828481, 10.910961 ], [ -74.828427, 10.910762 ], [ -74.828251, 10.910335 ], [ -74.828233, 10.910319 ], [ -74.828125, 10.909988 ], [ -74.828075, 10.909538 ], [ -74.82807, 10.909353 ], [ -74.828097, 10.908642 ], [ -74.828125, 10.908499 ], [ -74.828257, 10.908275 ], [ -74.828438, 10.908061 ], [ -74.828743, 10.907901 ], [ -74.828985, 10.907865 ], [ -74.829435, 10.90771 ], [ -74.829808, 10.907474 ], [ -74.830184, 10.907316 ], [ -74.830242, 10.907259 ], [ -74.830416, 10.906941 ], [ -74.830466, 10.906825 ], [ -74.830526, 10.906571 ], [ -74.830568, 10.906452 ], [ -74.83063, 10.906357 ], [ -74.830781, 10.906203 ], [ -74.831387, 10.90577 ], [ -74.831696, 10.905486 ], [ -74.832129, 10.905177 ], [ -74.832129, 10.90522 ], [ -74.832424, 10.905006 ], [ -74.832824, 10.904759 ], [ -74.833316, 10.904423 ], [ -74.833416, 10.904301 ], [ -74.833473, 10.904128 ], [ -74.83357, 10.903975 ], [ -74.833826, 10.903647 ], [ -74.834379, 10.902441 ], [ -74.834492, 10.902138 ], [ -74.834741, 10.901773 ], [ -74.834999, 10.901506 ], [ -74.835164, 10.901433 ], [ -74.835914, 10.900982 ], [ -74.836076, 10.900822 ], [ -74.836369, 10.899746 ], [ -74.836459, 10.899229 ], [ -74.836553, 10.898292 ], [ -74.836553, 10.898084 ], [ -74.836368, 10.897372 ], [ -74.836359, 10.897265 ], [ -74.836376, 10.896667 ], [ -74.836453, 10.895683 ], [ -74.836591, 10.894758 ], [ -74.836673, 10.894373 ], [ -74.836691, 10.894182 ], [ -74.83702, 10.893168 ], [ -74.837124, 10.892926 ], [ -74.837304, 10.892422 ], [ -74.839758, 10.891513 ], [ -74.845173, 10.889076 ], [ -74.851399, 10.884203 ], [ -74.856272, 10.879059 ], [ -74.85925, 10.875269 ], [ -74.860875, 10.87175 ], [ -74.863041, 10.865523 ], [ -74.865206, 10.861733 ], [ -74.86575, 10.860991 ], [ -74.866148, 10.860981 ], [ -74.866554, 10.860998 ], [ -74.86685, 10.860986 ], [ -74.867164, 10.860799 ], [ -74.867381, 10.86059 ], [ -74.867526, 10.86038 ], [ -74.867742, 10.859931 ], [ -74.867978, 10.859631 ], [ -74.868128, 10.859475 ], [ -74.86843, 10.85923 ], [ -74.868865, 10.858918 ], [ -74.869167, 10.858725 ], [ -74.8693, 10.858695 ], [ -74.869535, 10.858587 ], [ -74.869614, 10.858521 ], [ -74.869801, 10.858269 ], [ -74.869903, 10.858066 ], [ -74.869999, 10.857784 ], [ -74.870215, 10.857264 ], [ -74.870335, 10.856893 ], [ -74.870474, 10.856653 ], [ -74.87063, 10.856336 ], [ -74.870787, 10.85612 ], [ -74.87095, 10.85594 ], [ -74.871125, 10.855653 ], [ -74.871173, 10.855527 ], [ -74.87125, 10.85521 ], [ -74.87125, 10.854959 ], [ -74.871279, 10.854678 ], [ -74.871363, 10.854492 ], [ -74.871478, 10.854343 ], [ -74.871568, 10.854193 ], [ -74.87161, 10.854091 ], [ -74.871664, 10.853924 ], [ -74.871664, 10.853816 ], [ -74.871694, 10.853648 ], [ -74.871695, 10.853446 ], [ -74.872132, 10.853088 ], [ -74.874622, 10.852937 ], [ -74.876144, 10.852888 ], [ -74.88071, 10.852966 ], [ -74.882115, 10.852442 ], [ -74.883864, 10.851857 ], [ -74.88568, 10.85137 ], [ -74.88804, 10.850589 ], [ -74.889005, 10.85025 ], [ -74.889493, 10.850136 ], [ -74.891207, 10.849829 ], [ -74.891957, 10.850017 ], [ -74.892366, 10.850072 ], [ -74.892787, 10.850251 ], [ -74.892958, 10.850767 ], [ -74.89346, 10.85163 ], [ -74.894053, 10.85228 ], [ -74.894349, 10.852795 ], [ -74.89536, 10.852658 ], [ -74.895117, 10.851255 ], [ -74.895376, 10.850368 ], [ -74.896032, 10.849232 ], [ -74.899515, 10.843643 ], [ -74.899764, 10.843867 ], [ -74.901008, 10.845205 ], [ -74.901228, 10.845392 ], [ -74.901565, 10.845608 ], [ -74.901796, 10.845804 ], [ -74.901976, 10.846168 ], [ -74.902022, 10.846464 ], [ -74.902034, 10.847159 ], [ -74.901996, 10.847927 ], [ -74.901974, 10.848189 ], [ -74.901908, 10.848601 ], [ -74.901894, 10.848971 ], [ -74.901929, 10.849049 ], [ -74.902133, 10.849174 ], [ -74.902475, 10.849264 ], [ -74.902615, 10.84927 ], [ -74.902861, 10.849224 ], [ -74.902963, 10.849187 ], [ -74.903107, 10.849211 ], [ -74.903205, 10.849247 ], [ -74.903471, 10.849399 ], [ -74.903784, 10.849491 ], [ -74.904226, 10.849523 ], [ -74.904442, 10.849521 ], [ -74.905076, 10.849441 ], [ -74.905216, 10.849495 ], [ -74.905964, 10.84859 ], [ -74.906206, 10.848406 ], [ -74.906703, 10.84798 ], [ -74.907052, 10.847768 ], [ -74.907224, 10.847719 ], [ -74.907502, 10.847682 ], [ -74.907715, 10.847541 ], [ -74.907874, 10.847372 ], [ -74.908077, 10.847211 ], [ -74.908778, 10.846816 ], [ -74.909865, 10.846153 ], [ -74.910034, 10.845963 ], [ -74.910291, 10.84571 ], [ -74.910443, 10.845494 ], [ -74.910737, 10.84496 ], [ -74.910863, 10.844911 ], [ -74.911207, 10.844874 ], [ -74.911881, 10.844938 ], [ -74.912242, 10.844889 ], [ -74.91238, 10.844907 ], [ -74.912508, 10.844961 ], [ -74.912661, 10.845114 ], [ -74.912786, 10.845387 ], [ -74.912918, 10.845555 ], [ -74.91305, 10.845688 ], [ -74.913367, 10.845934 ], [ -74.913378, 10.84597 ], [ -74.913643, 10.845947 ], [ -74.913926, 10.845897 ], [ -74.913987, 10.845864 ], [ -74.914097, 10.845953 ], [ -74.914217, 10.846091 ], [ -74.914267, 10.846268 ], [ -74.914288, 10.846494 ], [ -74.91421, 10.846985 ], [ -74.914266, 10.84745 ], [ -74.91446, 10.847589 ], [ -74.914991, 10.84771 ], [ -74.917307, 10.847669 ], [ -74.918173, 10.847701 ], [ -74.919129, 10.847874 ], [ -74.919695, 10.848099 ], [ -74.920137, 10.848203 ], [ -74.920898, 10.848446 ], [ -74.921001, 10.848678 ], [ -74.920927, 10.848973 ], [ -74.920348, 10.849771 ], [ -74.920221, 10.849912 ], [ -74.920125, 10.850185 ], [ -74.920125, 10.850354 ], [ -74.920215, 10.850494 ], [ -74.920328, 10.850612 ], [ -74.9205, 10.850943 ], [ -74.92059, 10.851076 ], [ -74.920687, 10.851179 ], [ -74.920762, 10.851296 ], [ -74.920979, 10.85151 ], [ -74.921173, 10.85173 ], [ -74.921435, 10.851951 ], [ -74.921817, 10.852333 ], [ -74.922026, 10.852443 ], [ -74.92216, 10.852561 ], [ -74.922377, 10.852671 ], [ -74.922766, 10.852942 ], [ -74.922958, 10.853176 ], [ -74.923295, 10.853691 ], [ -74.923453, 10.854133 ], [ -74.923484, 10.854354 ], [ -74.923492, 10.854612 ], [ -74.923433, 10.854974 ], [ -74.923464, 10.855313 ], [ -74.923569, 10.855556 ], [ -74.923704, 10.855688 ], [ -74.923779, 10.855791 ], [ -74.923988, 10.855916 ], [ -74.924175, 10.856063 ], [ -74.924631, 10.856357 ], [ -74.924892, 10.856444 ], [ -74.925302, 10.856495 ], [ -74.925645, 10.856494 ], [ -74.926272, 10.856389 ], [ -74.926741, 10.856336 ], [ -74.927054, 10.856247 ], [ -74.927658, 10.856112 ], [ -74.928135, 10.855927 ], [ -74.928306, 10.855808 ], [ -74.928433, 10.855646 ], [ -74.928477, 10.855447 ], [ -74.928491, 10.855262 ], [ -74.928393, 10.854894 ], [ -74.928322, 10.85475 ], [ -74.928198, 10.854575 ], [ -74.928197, 10.854296 ], [ -74.928391, 10.854015 ], [ -74.928832, 10.85377 ], [ -74.929221, 10.853611 ], [ -74.929793, 10.853422 ], [ -74.931218, 10.853448 ], [ -74.931518, 10.853413 ], [ -74.932505, 10.853426 ], [ -74.932688, 10.853679 ], [ -74.9328, 10.853766 ], [ -74.932943, 10.853822 ], [ -74.933173, 10.853952 ], [ -74.933446, 10.854167 ], [ -74.933787, 10.854359 ], [ -74.934762, 10.854656 ], [ -74.935042, 10.854918 ], [ -74.935218, 10.855203 ], [ -74.935507, 10.855525 ], [ -74.935974, 10.85625 ], [ -74.936157, 10.856741 ], [ -74.936477, 10.857006 ], [ -74.936674, 10.857107 ], [ -74.936957, 10.857426 ], [ -74.93709, 10.857487 ], [ -74.937262, 10.8575 ], [ -74.937514, 10.857479 ], [ -74.938164, 10.857467 ], [ -74.938347, 10.8575 ], [ -74.938494, 10.857488 ], [ -74.938691, 10.857447 ], [ -74.938815, 10.857447 ], [ -74.93895, 10.857487 ], [ -74.939159, 10.857584 ], [ -74.939327, 10.857691 ], [ -74.939481, 10.857838 ], [ -74.939573, 10.857876 ], [ -74.939727, 10.85788 ], [ -74.939855, 10.857955 ], [ -74.940014, 10.858097 ], [ -74.940294, 10.858389 ], [ -74.940379, 10.858429 ], [ -74.94057, 10.858434 ], [ -74.940647, 10.85832 ], [ -74.940737, 10.858293 ], [ -74.941173, 10.858328 ], [ -74.941524, 10.858336 ], [ -74.941655, 10.858411 ], [ -74.942472, 10.858498 ], [ -74.942657, 10.858342 ], [ -74.942765, 10.858305 ], [ -74.942937, 10.858316 ], [ -74.943179, 10.858234 ], [ -74.943307, 10.858254 ], [ -74.943422, 10.858353 ], [ -74.94379, 10.858291 ], [ -74.943905, 10.858305 ], [ -74.944015, 10.858343 ], [ -74.944337, 10.858308 ], [ -74.944814, 10.85842 ], [ -74.944816, 10.858511 ], [ -74.944873, 10.858733 ], [ -74.944996, 10.859546 ], [ -74.94409, 10.860634 ], [ -74.943735, 10.860709 ], [ -74.943434, 10.860923 ], [ -74.942968, 10.861154 ], [ -74.942752, 10.861585 ], [ -74.942632, 10.862016 ], [ -74.942439, 10.862136 ], [ -74.942246, 10.862232 ], [ -74.941957, 10.862759 ], [ -74.941982, 10.863118 ], [ -74.941959, 10.863572 ], [ -74.942102, 10.863808 ], [ -74.942322, 10.864036 ], [ -74.94242, 10.864288 ], [ -74.942433, 10.864541 ], [ -74.942324, 10.864842 ], [ -74.941693, 10.865127 ], [ -74.940585, 10.865509 ], [ -74.94032, 10.865873 ], [ -74.939668, 10.866329 ], [ -74.939213, 10.866633 ], [ -74.93888, 10.866793 ], [ -74.938412, 10.866979 ], [ -74.938219, 10.867147 ], [ -74.938026, 10.867362 ], [ -74.937809, 10.867554 ], [ -74.937592, 10.867794 ], [ -74.937374, 10.867962 ], [ -74.936723, 10.868586 ], [ -74.936385, 10.868802 ], [ -74.936022, 10.868946 ], [ -74.935815, 10.868995 ], [ -74.935522, 10.868957 ], [ -74.935248, 10.868781 ], [ -74.93486, 10.868758 ], [ -74.934449, 10.868807 ], [ -74.934111, 10.868952 ], [ -74.933846, 10.869359 ], [ -74.933629, 10.869742 ], [ -74.93343, 10.869955 ], [ -74.934018, 10.870387 ], [ -74.934309, 10.870625 ], [ -74.934697, 10.871007 ], [ -74.93494, 10.871317 ], [ -74.935258, 10.87205 ], [ -74.935258, 10.872369 ], [ -74.935065, 10.87268 ], [ -74.934848, 10.872944 ], [ -74.934632, 10.873471 ], [ -74.934415, 10.873926 ], [ -74.934222, 10.874165 ], [ -74.933981, 10.874381 ], [ -74.933546, 10.874502 ], [ -74.933086, 10.87448 ], [ -74.932723, 10.874481 ], [ -74.932384, 10.874372 ], [ -74.932079, 10.874447 ], [ -74.931853, 10.874698 ], [ -74.931509, 10.874973 ], [ -74.930728, 10.875429 ], [ -74.930806, 10.875675 ], [ -74.930673, 10.875734 ], [ -74.930309, 10.876281 ], [ -74.93014, 10.876592 ], [ -74.929823, 10.877389 ], [ -74.929841, 10.877747 ], [ -74.929902, 10.878028 ], [ -74.92983, 10.878291 ], [ -74.929564, 10.878804 ], [ -74.92951, 10.879135 ], [ -74.929479, 10.879693 ], [ -74.929472, 10.880038 ], [ -74.92957, 10.880373 ], [ -74.929586, 10.880597 ], [ -74.929553, 10.880722 ], [ -74.929645, 10.881066 ], [ -74.929476, 10.881521 ], [ -74.929332, 10.881761 ], [ -74.929398, 10.882012 ], [ -74.929569, 10.882499 ], [ -74.929965, 10.88329 ], [ -74.930039, 10.8836 ], [ -74.930048, 10.883851 ], [ -74.929778, 10.884752 ], [ -74.929825, 10.885042 ], [ -74.929927, 10.885327 ], [ -74.930065, 10.885525 ], [ -74.930088, 10.885759 ], [ -74.929988, 10.88629 ], [ -74.930155, 10.886176 ], [ -74.930315, 10.886163 ], [ -74.930572, 10.886213 ], [ -74.931016, 10.886363 ], [ -74.931762, 10.886383 ], [ -74.931962, 10.886539 ], [ -74.93219, 10.886794 ], [ -74.932612, 10.887592 ], [ -74.932842, 10.888678 ], [ -74.932843, 10.889158 ], [ -74.932747, 10.88951 ], [ -74.932037, 10.890088 ], [ -74.931488, 10.890473 ], [ -74.931296, 10.890953 ], [ -74.931169, 10.891945 ], [ -74.93077, 10.892459 ], [ -74.930139, 10.893013 ], [ -74.929634, 10.893327 ], [ -74.92952, 10.893911 ], [ -74.92951, 10.894255 ], [ -74.92941, 10.894492 ], [ -74.929031, 10.894726 ], [ -74.92837, 10.895319 ], [ -74.928244, 10.895685 ], [ -74.928127, 10.896479 ], [ -74.927986, 10.897804 ], [ -74.927955, 10.898285 ], [ -74.928064, 10.89875 ], [ -74.928146, 10.899407 ], [ -74.928122, 10.899917 ], [ -74.924532, 10.935102 ], [ -74.923759, 10.936249 ], [ -74.923802, 10.936277 ], [ -74.923639, 10.936521 ], [ -74.923157, 10.937142 ], [ -74.922931, 10.937541 ], [ -74.922769, 10.937937 ], [ -74.922752, 10.938371 ], [ -74.922807, 10.939226 ], [ -74.922824, 10.940342 ], [ -74.922887, 10.941814 ], [ -74.922872, 10.942064 ], [ -74.922845, 10.942211 ], [ -74.92278, 10.942331 ], [ -74.922626, 10.942552 ], [ -74.921732, 10.943533 ], [ -74.921238, 10.944031 ], [ -74.921102, 10.944128 ], [ -74.919188, 10.945035 ], [ -74.9184, 10.945287 ], [ -74.919941, 10.946966 ], [ -74.920024, 10.947271 ], [ -74.92, 10.947493 ], [ -74.919917, 10.947704 ], [ -74.919882, 10.947874 ], [ -74.919864, 10.948062 ], [ -74.919888, 10.94822 ], [ -74.919941, 10.948413 ], [ -74.920042, 10.948612 ], [ -74.920196, 10.948999 ], [ -74.920392, 10.949708 ], [ -74.920428, 10.949907 ], [ -74.920861, 10.950241 ], [ -74.92111, 10.950545 ], [ -74.921169, 10.950733 ], [ -74.921228, 10.950844 ], [ -74.921335, 10.950932 ], [ -74.921561, 10.951078 ], [ -74.921768, 10.951166 ], [ -74.922106, 10.951218 ], [ -74.922278, 10.951289 ], [ -74.922456, 10.951505 ], [ -74.922604, 10.951623 ], [ -74.923013, 10.951734 ], [ -74.923209, 10.951816 ], [ -74.923434, 10.95195 ], [ -74.923606, 10.952097 ], [ -74.924181, 10.952747 ], [ -74.924916, 10.950837 ], [ -74.925438, 10.950901 ], [ -74.92622, 10.951159 ], [ -74.926451, 10.951194 ], [ -74.92673, 10.951188 ], [ -74.927424, 10.951082 ], [ -74.92785, 10.951053 ], [ -74.928337, 10.95107 ], [ -74.928799, 10.951164 ], [ -74.929155, 10.951275 ], [ -74.92954, 10.951433 ], [ -74.929714, 10.951537 ], [ -74.929169, 10.952083 ], [ -74.93, 10.952916 ], [ -74.926247, 10.956666 ], [ -74.925835, 10.959167 ], [ -74.926247, 10.961666 ], [ -74.927086, 10.963333 ], [ -74.927498, 10.965834 ], [ -74.927498, 10.96717 ], [ -74.926676, 10.96682 ], [ -74.926149, 10.966632 ], [ -74.925327, 10.966674 ], [ -74.924895, 10.966622 ], [ -74.924557, 10.966664 ], [ -74.924199, 10.966768 ], [ -74.923883, 10.96707 ], [ -74.923472, 10.967529 ], [ -74.923093, 10.967852 ], [ -74.92264, 10.968091 ], [ -74.922239, 10.968237 ], [ -74.922056, 10.968377 ], [ -74.921784, 10.96868 ], [ -74.921435, 10.969201 ], [ -74.921232, 10.969744 ], [ -74.920956, 10.970354 ], [ -74.920513, 10.970979 ], [ -74.920094, 10.971533 ], [ -74.919491, 10.972218 ], [ -74.920818, 10.972546 ], [ -74.920418, 10.974166 ], [ -74.919201, 10.975384 ], [ -74.918232, 10.975943 ], [ -74.915665, 10.977226 ], [ -74.91375, 10.9775 ], [ -74.910835, 10.977083 ], [ -74.908333, 10.97625 ], [ -74.907913, 10.975834 ], [ -74.907501, 10.976251 ], [ -74.904999, 10.977083 ], [ -74.904587, 10.9775 ], [ -74.903748, 10.981667 ], [ -74.902916, 10.983333 ], [ -74.902496, 10.984583 ], [ -74.902916, 10.985833 ], [ -74.903748, 10.986667 ], [ -74.904167, 10.989584 ], [ -74.903884, 10.991555 ], [ -74.903187, 10.992312 ], [ -74.901258, 10.99296 ], [ -74.89835, 10.997812 ], [ -74.888607, 10.991082 ], [ -74.889316, 10.989986 ], [ -74.889452, 10.989741 ], [ -74.889632, 10.989295 ], [ -74.889722, 10.988863 ], [ -74.889859, 10.987978 ], [ -74.890129, 10.985757 ], [ -74.890892, 10.979959 ], [ -74.891223, 10.977284 ], [ -74.891349, 10.976546 ], [ -74.891615, 10.975809 ], [ -74.891965, 10.975056 ], [ -74.892105, 10.974801 ], [ -74.892285, 10.974542 ], [ -74.892566, 10.974185 ], [ -74.893145, 10.973559 ], [ -74.893541, 10.973231 ], [ -74.893951, 10.972908 ], [ -74.894786, 10.972332 ], [ -74.89583, 10.971583 ], [ -74.89984, 10.968603 ], [ -74.900318, 10.968146 ], [ -74.900614, 10.967746 ], [ -74.90088, 10.967253 ], [ -74.901046, 10.966774 ], [ -74.901139, 10.966404 ], [ -74.901168, 10.966069 ], [ -74.901171, 10.96545 ], [ -74.901107, 10.96504 ], [ -74.901038, 10.964723 ], [ -74.900912, 10.964352 ], [ -74.900326, 10.962869 ], [ -74.89898, 10.959608 ], [ -74.89839, 10.958044 ], [ -74.898163, 10.957507 ], [ -74.897667, 10.956201 ], [ -74.89703, 10.954639 ], [ -74.896578, 10.953456 ], [ -74.896513, 10.953196 ], [ -74.896348, 10.952821 ], [ -74.891108, 10.950863 ], [ -74.887019, 10.948617 ], [ -74.881145, 10.947005 ], [ -74.875271, 10.944183 ], [ -74.867554, 10.939461 ], [ -74.86361, 10.939201 ], [ -74.861864, 10.938929 ], [ -74.860364, 10.93854 ], [ -74.860053, 10.939812 ], [ -74.859004, 10.939616 ], [ -74.857484, 10.939357 ], [ -74.85717, 10.939261 ], [ -74.855334, 10.938372 ], [ -74.855119, 10.93805 ], [ -74.853635, 10.938431 ], [ -74.853262, 10.938057 ], [ -74.852551, 10.937086 ], [ -74.851833, 10.936199 ], [ -74.849871, 10.937613 ], [ -74.849813, 10.937424 ], [ -74.849456, 10.936895 ] ] ] } }
]
}
