{
"type": "FeatureCollection",
"name": "humedales_rellenados_y_suelo_transformado",
"crs": { "type": "name", "properties": { "name": "urn:ogc:def:crs:OGC:1.3:CRS84" } },
"xy_coordinate_resolution": 1e-06,
"features": [
{ "type": "Feature", "properties": { "id": null, "Uso_identi": "Expanción Logistica - Puertuaria" }, "geometry": { "type": "MultiPolygon", "coordinates": [ [ [ [ -96.179375, 19.247307 ], [ -96.171626, 19.2472 ], [ -96.165674, 19.247029 ], [ -96.16489, 19.246681 ], [ -96.164194, 19.246049 ], [ -96.153765, 19.229328 ], [ -96.157814, 19.226062 ], [ -96.159164, 19.229241 ], [ -96.155419, 19.2312 ], [ -96.15825, 19.23562 ], [ -96.162093, 19.241858 ], [ -96.163682, 19.24434 ], [ -96.164488, 19.245647 ], [ -96.165174, 19.246332 ], [ -96.166404, 19.246757 ], [ -96.171553, 19.246909 ], [ -96.171019, 19.244275 ], [ -96.171357, 19.244199 ], [ -96.170355, 19.238995 ], [ -96.169996, 19.239077 ], [ -96.169289, 19.235424 ], [ -96.169006, 19.235457 ], [ -96.168472, 19.233029 ], [ -96.168763, 19.232825 ], [ -96.167178, 19.224479 ], [ -96.167432, 19.224271 ], [ -96.167369, 19.221521 ], [ -96.169425, 19.221071 ], [ -96.17158, 19.220178 ], [ -96.173061, 19.221789 ], [ -96.17428, 19.223967 ], [ -96.17502, 19.22819 ], [ -96.17502, 19.23076 ], [ -96.174541, 19.232893 ], [ -96.174933, 19.234896 ], [ -96.176588, 19.240165 ], [ -96.179375, 19.247307 ] ] ], [ [ [ -96.160394, 19.214936 ], [ -96.160394, 19.216531 ], [ -96.159349, 19.216324 ], [ -96.159197, 19.215954 ], [ -96.157303, 19.215268 ], [ -96.156987, 19.216107 ], [ -96.154919, 19.21762 ], [ -96.154276, 19.21799 ], [ -96.141888, 19.218072 ], [ -96.131905, 19.219911 ], [ -96.131687, 19.219498 ], [ -96.141768, 19.217582 ], [ -96.154157, 19.217538 ], [ -96.155289, 19.216863 ], [ -96.155485, 19.216406 ], [ -96.155572, 19.215317 ], [ -96.154216, 19.215805 ], [ -96.140832, 19.216384 ], [ -96.133843, 19.217995 ], [ -96.132362, 19.217843 ], [ -96.129075, 19.216929 ], [ -96.12816, 19.217386 ], [ -96.127638, 19.216754 ], [ -96.126005, 19.216384 ], [ -96.124481, 19.214817 ], [ -96.123087, 19.212814 ], [ -96.123704, 19.208296 ], [ -96.124593, 19.207402 ], [ -96.130258, 19.207832 ], [ -96.129922, 19.209141 ], [ -96.130076, 19.209591 ], [ -96.130816, 19.210745 ], [ -96.131688, 19.210558 ], [ -96.133124, 19.209911 ], [ -96.13538, 19.21412 ], [ -96.139421, 19.213545 ], [ -96.140636, 19.212988 ], [ -96.14314, 19.212683 ], [ -96.144109, 19.211387 ], [ -96.14585, 19.209232 ], [ -96.147048, 19.208492 ], [ -96.149334, 19.208252 ], [ -96.152252, 19.208927 ], [ -96.156911, 19.210277 ], [ -96.15887, 19.211104 ], [ -96.160133, 19.212933 ], [ -96.160394, 19.214936 ] ] ] ] } },
{ "type": "Feature", "properties": { "id": null, "Uso_identi": "Urbanización Perifericá - Reciente" }, "geometry": { "type": "MultiPolygon", "coordinates": [ [ [ [ -96.186848, 19.239109 ], [ -96.187806, 19.249168 ], [ -96.181013, 19.248733 ], [ -96.179816, 19.247078 ], [ -96.179598, 19.245641 ], [ -96.179271, 19.239806 ], [ -96.186848, 19.239109 ] ] ], [ [ [ -96.185281, 19.233884 ], [ -96.1865, 19.23519 ], [ -96.186587, 19.23789 ], [ -96.186347, 19.238652 ], [ -96.186043, 19.238903 ], [ -96.17938, 19.239316 ], [ -96.178389, 19.239251 ], [ -96.17791, 19.238794 ], [ -96.177595, 19.237487 ], [ -96.177301, 19.237041 ], [ -96.17741, 19.23691 ], [ -96.177965, 19.236954 ], [ -96.178466, 19.238271 ], [ -96.178912, 19.238424 ], [ -96.179543, 19.23838 ], [ -96.179914, 19.237749 ], [ -96.180393, 19.237193 ], [ -96.180948, 19.236649 ], [ -96.180926, 19.236257 ], [ -96.180665, 19.235669 ], [ -96.180012, 19.235223 ], [ -96.179456, 19.234722 ], [ -96.179347, 19.234396 ], [ -96.180937, 19.234341 ], [ -96.180986, 19.23451 ], [ -96.181144, 19.234494 ], [ -96.181182, 19.234379 ], [ -96.181416, 19.234341 ], [ -96.183049, 19.234281 ], [ -96.183092, 19.234445 ], [ -96.183218, 19.234434 ], [ -96.183245, 19.234319 ], [ -96.183501, 19.234292 ], [ -96.184938, 19.2342 ], [ -96.185057, 19.234254 ], [ -96.185161, 19.2342 ], [ -96.185101, 19.234091 ], [ -96.185281, 19.233884 ] ] ], [ [ [ -96.185188, 19.233808 ], [ -96.18491, 19.234064 ], [ -96.184497, 19.234134 ], [ -96.179554, 19.234254 ], [ -96.179413, 19.234123 ], [ -96.179424, 19.233982 ], [ -96.179288, 19.233927 ], [ -96.179233, 19.234227 ], [ -96.17901, 19.234205 ], [ -96.178972, 19.233644 ], [ -96.179032, 19.232006 ], [ -96.178509, 19.231233 ], [ -96.178498, 19.230809 ], [ -96.178194, 19.230629 ], [ -96.178019, 19.22997 ], [ -96.179647, 19.229769 ], [ -96.17981, 19.229682 ], [ -96.179968, 19.229143 ], [ -96.180921, 19.229486 ], [ -96.181416, 19.229431 ], [ -96.181574, 19.230226 ], [ -96.183016, 19.231696 ], [ -96.18325, 19.232213 ], [ -96.183414, 19.232305 ], [ -96.183511, 19.232202 ], [ -96.185188, 19.233808 ] ] ], [ [ [ -96.186296, 19.215165 ], [ -96.190911, 19.214838 ], [ -96.191118, 19.216776 ], [ -96.191684, 19.218768 ], [ -96.191026, 19.219862 ], [ -96.191576, 19.220222 ], [ -96.191657, 19.222132 ], [ -96.189545, 19.222742 ], [ -96.189562, 19.22327 ], [ -96.18795, 19.223253 ], [ -96.187912, 19.221953 ], [ -96.18831, 19.221974 ], [ -96.188326, 19.221784 ], [ -96.188304, 19.220004 ], [ -96.186258, 19.21995 ], [ -96.186214, 19.219111 ], [ -96.186089, 19.215742 ], [ -96.186285, 19.215715 ], [ -96.186296, 19.215165 ] ] ], [ [ [ -96.200241, 19.224451 ], [ -96.200067, 19.227325 ], [ -96.194254, 19.227129 ], [ -96.194297, 19.224429 ], [ -96.200241, 19.224451 ] ] ], [ [ [ -96.200089, 19.227543 ], [ -96.200132, 19.229067 ], [ -96.194188, 19.228958 ], [ -96.194101, 19.227369 ], [ -96.200089, 19.227543 ] ] ], [ [ [ -96.193491, 19.227521 ], [ -96.193383, 19.230112 ], [ -96.190269, 19.230308 ], [ -96.189464, 19.230656 ], [ -96.188114, 19.230634 ], [ -96.188135, 19.231745 ], [ -96.186786, 19.231658 ], [ -96.18672, 19.230003 ], [ -96.185131, 19.228392 ], [ -96.18217, 19.228261 ], [ -96.182257, 19.227216 ], [ -96.193491, 19.227521 ] ] ] ] } },
{ "type": "Feature", "properties": { "id": null, "Uso_identi": "Humedales y Ecosistemas Perdidos" }, "geometry": { "type": "Polygon", "coordinates": [ [ [ -96.194101, 19.227369 ], [ -96.194188, 19.228958 ], [ -96.194177, 19.229095 ], [ -96.199685, 19.229225 ], [ -96.200224, 19.229274 ], [ -96.200279, 19.227598 ], [ -96.202597, 19.22769 ], [ -96.202772, 19.228583 ], [ -96.202097, 19.229606 ], [ -96.202336, 19.231653 ], [ -96.20312, 19.234984 ], [ -96.203142, 19.238903 ], [ -96.202989, 19.24439 ], [ -96.202184, 19.249441 ], [ -96.200769, 19.250508 ], [ -96.193693, 19.250878 ], [ -96.192909, 19.250747 ], [ -96.190383, 19.249223 ], [ -96.187966, 19.249191 ], [ -96.187014, 19.239213 ], [ -96.186829, 19.235055 ], [ -96.186786, 19.231658 ], [ -96.188135, 19.231745 ], [ -96.188114, 19.230634 ], [ -96.189464, 19.230656 ], [ -96.190269, 19.230308 ], [ -96.193383, 19.230112 ], [ -96.193491, 19.227521 ], [ -96.193513, 19.227391 ], [ -96.194101, 19.227369 ] ] ] } },
{ "type": "Feature", "properties": { "id": null, "Uso_identi": "Humedales y Ecosistemas Perdidos" }, "geometry": { "type": "Polygon", "coordinates": [ [ [ -96.196361, 19.216166 ], [ -96.196056, 19.220063 ], [ -96.19893, 19.220216 ], [ -96.199061, 19.219388 ], [ -96.199681, 19.219737 ], [ -96.20003, 19.220281 ], [ -96.200454, 19.220586 ], [ -96.201053, 19.220716 ], [ -96.200857, 19.22346 ], [ -96.199943, 19.223612 ], [ -96.197809, 19.223438 ], [ -96.195403, 19.223492 ], [ -96.195588, 19.223808 ], [ -96.195566, 19.224407 ], [ -96.194297, 19.224429 ], [ -96.194254, 19.227129 ], [ -96.193052, 19.227063 ], [ -96.191473, 19.226519 ], [ -96.190352, 19.226573 ], [ -96.189709, 19.22641 ], [ -96.189655, 19.226911 ], [ -96.186444, 19.226791 ], [ -96.186389, 19.224331 ], [ -96.186258, 19.21995 ], [ -96.188304, 19.220004 ], [ -96.18831, 19.221974 ], [ -96.187912, 19.221953 ], [ -96.18795, 19.223253 ], [ -96.189562, 19.22327 ], [ -96.189545, 19.222742 ], [ -96.191059, 19.22248 ], [ -96.191103, 19.223862 ], [ -96.191811, 19.223797 ], [ -96.191821, 19.224004 ], [ -96.192605, 19.223993 ], [ -96.192605, 19.223808 ], [ -96.193128, 19.223775 ], [ -96.19303, 19.22211 ], [ -96.19328, 19.22199 ], [ -96.193215, 19.22162 ], [ -96.193356, 19.221478 ], [ -96.193226, 19.219845 ], [ -96.192812, 19.219715 ], [ -96.192638, 19.218604 ], [ -96.19279, 19.217929 ], [ -96.193574, 19.218017 ], [ -96.193944, 19.217995 ], [ -96.194075, 19.217276 ], [ -96.194184, 19.216536 ], [ -96.194467, 19.216209 ], [ -96.196361, 19.216166 ] ] ] } },
{ "type": "Feature", "properties": { "id": null, "Uso_identi": "Humedales y Ecosistemas Perdidos" }, "geometry": { "type": "Polygon", "coordinates": [ [ [ -96.181007, 19.22704 ], [ -96.181328, 19.227268 ], [ -96.181437, 19.227454 ], [ -96.181464, 19.227704 ], [ -96.181513, 19.229152 ], [ -96.181416, 19.229431 ], [ -96.180921, 19.229486 ], [ -96.179968, 19.229143 ], [ -96.17981, 19.229682 ], [ -96.179647, 19.229769 ], [ -96.178019, 19.22997 ], [ -96.178194, 19.230629 ], [ -96.178498, 19.230809 ], [ -96.178509, 19.231233 ], [ -96.179032, 19.232006 ], [ -96.178972, 19.233644 ], [ -96.17901, 19.234205 ], [ -96.179233, 19.234227 ], [ -96.179347, 19.234396 ], [ -96.179456, 19.234722 ], [ -96.180012, 19.235223 ], [ -96.180665, 19.235669 ], [ -96.180926, 19.236257 ], [ -96.180948, 19.236649 ], [ -96.180393, 19.237193 ], [ -96.179914, 19.237749 ], [ -96.179543, 19.23838 ], [ -96.178912, 19.238424 ], [ -96.178466, 19.238271 ], [ -96.177965, 19.236954 ], [ -96.17741, 19.23691 ], [ -96.177301, 19.237041 ], [ -96.177595, 19.237487 ], [ -96.17791, 19.238794 ], [ -96.178389, 19.239251 ], [ -96.17938, 19.239316 ], [ -96.179271, 19.239806 ], [ -96.179598, 19.245641 ], [ -96.179816, 19.247078 ], [ -96.179375, 19.247307 ], [ -96.176588, 19.240165 ], [ -96.174933, 19.234896 ], [ -96.174541, 19.232893 ], [ -96.17502, 19.23076 ], [ -96.17502, 19.22819 ], [ -96.17428, 19.223967 ], [ -96.173061, 19.221789 ], [ -96.17158, 19.220178 ], [ -96.169425, 19.221071 ], [ -96.167369, 19.221521 ], [ -96.167393, 19.221217 ], [ -96.167872, 19.220988 ], [ -96.167327, 19.220216 ], [ -96.166097, 19.218887 ], [ -96.164236, 19.217788 ], [ -96.164029, 19.217363 ], [ -96.164181, 19.217091 ], [ -96.163909, 19.216623 ], [ -96.163604, 19.216068 ], [ -96.163626, 19.215905 ], [ -96.163659, 19.215502 ], [ -96.1638, 19.215317 ], [ -96.164497, 19.215208 ], [ -96.16662, 19.216024 ], [ -96.167774, 19.216797 ], [ -96.169036, 19.217625 ], [ -96.16994, 19.218376 ], [ -96.170082, 19.218964 ], [ -96.169962, 19.219998 ], [ -96.170582, 19.220107 ], [ -96.170495, 19.219573 ], [ -96.170147, 19.218376 ], [ -96.170169, 19.217831 ], [ -96.172139, 19.21892 ], [ -96.172912, 19.21917 ], [ -96.173598, 19.218735 ], [ -96.174806, 19.218528 ], [ -96.17743, 19.22273 ], [ -96.179095, 19.225256 ], [ -96.177408, 19.225539 ], [ -96.177843, 19.226094 ], [ -96.179476, 19.226747 ], [ -96.180783, 19.226845 ], [ -96.181007, 19.22704 ] ] ] } }
]
}
