{
"type": "FeatureCollection",
"name": "humedales_y_dunas_costeras_conservados",
"crs": { "type": "name", "properties": { "name": "urn:ogc:def:crs:OGC:1.3:CRS84" } },
"xy_coordinate_resolution": 1e-06,
"features": [
{ "type": "Feature", "properties": { "nombre": "Humedal Costero / Laguna", "tipo": "Humedal Costero / Laguna", "subtipo": "water" }, "geometry": { "type": "Polygon", "coordinates": [ [ [ -96.202412, 19.255635 ], [ -96.202458, 19.255617 ], [ -96.202608, 19.255592 ], [ -96.202721, 19.255587 ], [ -96.202777, 19.255597 ], [ -96.202818, 19.255628 ], [ -96.202847, 19.255668 ], [ -96.20286, 19.255714 ], [ -96.202839, 19.255853 ], [ -96.202788, 19.256005 ], [ -96.202772, 19.256349 ], [ -96.202831, 19.256737 ], [ -96.202815, 19.256852 ], [ -96.202772, 19.256944 ], [ -96.202747, 19.256946 ], [ -96.202692, 19.256867 ], [ -96.202627, 19.256861 ], [ -96.20257, 19.256829 ], [ -96.202514, 19.256777 ], [ -96.202496, 19.25672 ], [ -96.202473, 19.256573 ], [ -96.202463, 19.256278 ], [ -96.202492, 19.25621 ], [ -96.202505, 19.256139 ], [ -96.2025, 19.256067 ], [ -96.202465, 19.256006 ], [ -96.202494, 19.255914 ], [ -96.202433, 19.255815 ], [ -96.202412, 19.255635 ] ] ] } },
{ "type": "Feature", "properties": { "nombre": "Cordón Dunar / Arena", "tipo": "Cordón Dunar / Arena", "subtipo": "dock" }, "geometry": { "type": "Polygon", "coordinates": [ [ [ -96.125524, 19.209877 ], [ -96.125149, 19.209821 ], [ -96.125363, 19.207437 ], [ -96.125744, 19.207473 ], [ -96.125524, 19.209877 ] ] ] } },
{ "type": "Feature", "properties": { "nombre": "Cordón Dunar / Arena", "tipo": "Cordón Dunar / Arena", "subtipo": "dock" }, "geometry": { "type": "Polygon", "coordinates": [ [ [ -96.127687, 19.209035 ], [ -96.127561, 19.209083 ], [ -96.127473, 19.209011 ], [ -96.127615, 19.207666 ], [ -96.127818, 19.207679 ], [ -96.127687, 19.209035 ] ] ] } },
{ "type": "Feature", "properties": { "nombre": "Humedal Costero / Laguna", "tipo": "Humedal Costero / Laguna", "subtipo": "water" }, "geometry": { "type": "Polygon", "coordinates": [ [ [ -96.151301, 19.170135 ], [ -96.1504, 19.170265 ], [ -96.150073, 19.170038 ], [ -96.149885, 19.169584 ], [ -96.14985, 19.169016 ], [ -96.149978, 19.168742 ], [ -96.149988, 19.16866 ], [ -96.149885, 19.16827 ], [ -96.149885, 19.167541 ], [ -96.149936, 19.167208 ], [ -96.150228, 19.167079 ], [ -96.150494, 19.167054 ], [ -96.150623, 19.167087 ], [ -96.150794, 19.167395 ], [ -96.150769, 19.167816 ], [ -96.15079, 19.168296 ], [ -96.150749, 19.168454 ], [ -96.150707, 19.168561 ], [ -96.150718, 19.168722 ], [ -96.150743, 19.168805 ], [ -96.151009, 19.168935 ], [ -96.151224, 19.169114 ], [ -96.151344, 19.16964 ], [ -96.151395, 19.169924 ], [ -96.151301, 19.170135 ] ] ] } },
{ "type": "Feature", "properties": { "nombre": "El Coyol", "tipo": "Humedal Costero / Laguna", "subtipo": "water" }, "geometry": { "type": "Polygon", "coordinates": [ [ [ -96.155918, 19.169316 ], [ -96.155721, 19.169389 ], [ -96.155378, 19.169341 ], [ -96.155292, 19.168854 ], [ -96.155215, 19.167346 ], [ -96.155335, 19.166916 ], [ -96.155552, 19.166769 ], [ -96.155812, 19.1668 ], [ -96.155895, 19.166908 ], [ -96.155979, 19.168169 ], [ -96.155989, 19.168659 ], [ -96.155983, 19.169024 ], [ -96.155918, 19.169316 ] ] ] } },
{ "type": "Feature", "properties": { "nombre": "Laguna de Tarimoya", "tipo": "Humedal Costero / Laguna", "subtipo": "water" }, "geometry": { "type": "Polygon", "coordinates": [ [ [ -96.180432, 19.201981 ], [ -96.180226, 19.201827 ], [ -96.180226, 19.201576 ], [ -96.180278, 19.201146 ], [ -96.180226, 19.200287 ], [ -96.179969, 19.199655 ], [ -96.179943, 19.199525 ], [ -96.179574, 19.198641 ], [ -96.179548, 19.198349 ], [ -96.179505, 19.197523 ], [ -96.179428, 19.196599 ], [ -96.179393, 19.19561 ], [ -96.17935, 19.195156 ], [ -96.179428, 19.19484 ], [ -96.179376, 19.194751 ], [ -96.179316, 19.194491 ], [ -96.179299, 19.194313 ], [ -96.179333, 19.194167 ], [ -96.179419, 19.194126 ], [ -96.179548, 19.194159 ], [ -96.179771, 19.194102 ], [ -96.179848, 19.194191 ], [ -96.179883, 19.19428 ], [ -96.179917, 19.194491 ], [ -96.179986, 19.194653 ], [ -96.180114, 19.194767 ], [ -96.1802, 19.194896 ], [ -96.180209, 19.194994 ], [ -96.180278, 19.195058 ], [ -96.180234, 19.195318 ], [ -96.180337, 19.195707 ], [ -96.180449, 19.196347 ], [ -96.180518, 19.196591 ], [ -96.180569, 19.196907 ], [ -96.180638, 19.197085 ], [ -96.180664, 19.197361 ], [ -96.180501, 19.197904 ], [ -96.180587, 19.19796 ], [ -96.180707, 19.19839 ], [ -96.180681, 19.198495 ], [ -96.180707, 19.198657 ], [ -96.180715, 19.198836 ], [ -96.180707, 19.198965 ], [ -96.180775, 19.199176 ], [ -96.180784, 19.199428 ], [ -96.180818, 19.199509 ], [ -96.180792, 19.199582 ], [ -96.180792, 19.199679 ], [ -96.180904, 19.199744 ], [ -96.181041, 19.200068 ], [ -96.181084, 19.200238 ], [ -96.180913, 19.20036 ], [ -96.180895, 19.200449 ], [ -96.180921, 19.200603 ], [ -96.180904, 19.200765 ], [ -96.180913, 19.200935 ], [ -96.180895, 19.201041 ], [ -96.180732, 19.201089 ], [ -96.180646, 19.201219 ], [ -96.180612, 19.201494 ], [ -96.180604, 19.201689 ], [ -96.180432, 19.201981 ] ] ] } },
{ "type": "Feature", "properties": { "nombre": "Humedal Costero / Laguna", "tipo": "Humedal Costero / Laguna", "subtipo": "water" }, "geometry": { "type": "Polygon", "coordinates": [ [ [ -96.171259, 19.169878 ], [ -96.17121, 19.170144 ], [ -96.171239, 19.170415 ], [ -96.17062, 19.17045 ], [ -96.17055, 19.170108 ], [ -96.170586, 19.169756 ], [ -96.170406, 19.169407 ], [ -96.170372, 19.168994 ], [ -96.1705, 19.16854 ], [ -96.170457, 19.168077 ], [ -96.170457, 19.167348 ], [ -96.170425, 19.166602 ], [ -96.170549, 19.166088 ], [ -96.170467, 19.165243 ], [ -96.170388, 19.164767 ], [ -96.170399, 19.164255 ], [ -96.170631, 19.164061 ], [ -96.170906, 19.163918 ], [ -96.170951, 19.164042 ], [ -96.170959, 19.164598 ], [ -96.171152, 19.164653 ], [ -96.171299, 19.165187 ], [ -96.171445, 19.167183 ], [ -96.171419, 19.167834 ], [ -96.171316, 19.168377 ], [ -96.171259, 19.169878 ] ] ] } },
{ "type": "Feature", "properties": { "nombre": "Humedal Costero / Laguna", "tipo": "Humedal Costero / Laguna", "subtipo": "water" }, "geometry": { "type": "Polygon", "coordinates": [ [ [ -96.166784, 19.173898 ], [ -96.166618, 19.173752 ], [ -96.166423, 19.173023 ], [ -96.16643, 19.172753 ], [ -96.166714, 19.172797 ], [ -96.166777, 19.173019 ], [ -96.166842, 19.173513 ], [ -96.166784, 19.173898 ] ] ] } },
{ "type": "Feature", "properties": { "nombre": "Humedal Costero / Laguna", "tipo": "Humedal Costero / Laguna", "subtipo": "water" }, "geometry": { "type": "Polygon", "coordinates": [ [ [ -96.173676, 19.177644 ], [ -96.173461, 19.177401 ], [ -96.173358, 19.17702 ], [ -96.173221, 19.176103 ], [ -96.173135, 19.175617 ], [ -96.17323, 19.174889 ], [ -96.173283, 19.174664 ], [ -96.173504, 19.174668 ], [ -96.17359, 19.175106 ], [ -96.173627, 19.175599 ], [ -96.173814, 19.175668 ], [ -96.173912, 19.176273 ], [ -96.173959, 19.17702 ], [ -96.173848, 19.177376 ], [ -96.173676, 19.177644 ] ] ] } },
{ "type": "Feature", "properties": { "nombre": "Laguna del Vergel", "tipo": "Humedal Costero / Laguna", "subtipo": "water" }, "geometry": { "type": "Polygon", "coordinates": [ [ [ -96.172507, 19.187745 ], [ -96.17244, 19.187788 ], [ -96.17236, 19.187799 ], [ -96.172278, 19.187777 ], [ -96.172236, 19.18774 ], [ -96.1722, 19.187681 ], [ -96.172232, 19.187234 ], [ -96.172243, 19.18656 ], [ -96.172266, 19.186345 ], [ -96.172252, 19.186276 ], [ -96.172215, 19.186213 ], [ -96.171999, 19.186046 ], [ -96.171987, 19.185975 ], [ -96.172031, 19.18593 ], [ -96.172105, 19.185899 ], [ -96.172236, 19.185885 ], [ -96.172376, 19.185899 ], [ -96.172478, 19.185948 ], [ -96.172553, 19.186037 ], [ -96.172578, 19.186117 ], [ -96.172611, 19.186631 ], [ -96.172651, 19.186982 ], [ -96.172657, 19.187216 ], [ -96.172649, 19.187438 ], [ -96.172593, 19.187645 ], [ -96.172507, 19.187745 ] ] ] } },
{ "type": "Feature", "properties": { "nombre": "Humedal Costero / Laguna", "tipo": "Humedal Costero / Laguna", "subtipo": "water" }, "geometry": { "type": "Polygon", "coordinates": [ [ [ -96.14718, 19.162727 ], [ -96.146794, 19.162889 ], [ -96.146425, 19.162848 ], [ -96.146219, 19.162362 ], [ -96.145635, 19.161454 ], [ -96.145635, 19.160967 ], [ -96.145506, 19.160513 ], [ -96.145549, 19.159913 ], [ -96.145704, 19.159297 ], [ -96.145738, 19.158454 ], [ -96.145618, 19.158186 ], [ -96.145506, 19.157862 ], [ -96.145678, 19.157619 ], [ -96.146219, 19.157562 ], [ -96.146365, 19.157643 ], [ -96.146476, 19.157903 ], [ -96.146596, 19.158373 ], [ -96.146596, 19.158616 ], [ -96.14682, 19.158632 ], [ -96.146991, 19.15954 ], [ -96.147026, 19.160092 ], [ -96.147163, 19.160902 ], [ -96.147051, 19.16121 ], [ -96.147077, 19.161429 ], [ -96.147197, 19.161567 ], [ -96.147223, 19.162346 ], [ -96.14718, 19.162727 ] ] ] } },
{ "type": "Feature", "properties": { "nombre": "Humedal Costero / Laguna", "tipo": "Humedal Costero / Laguna", "subtipo": "water" }, "geometry": { "type": "Polygon", "coordinates": [ [ [ -96.151772, 19.160035 ], [ -96.151463, 19.160148 ], [ -96.151206, 19.159848 ], [ -96.151274, 19.158876 ], [ -96.151274, 19.158511 ], [ -96.151188, 19.157984 ], [ -96.151145, 19.157554 ], [ -96.15118, 19.157358 ], [ -96.151339, 19.157267 ], [ -96.151485, 19.157264 ], [ -96.151613, 19.157364 ], [ -96.151711, 19.157673 ], [ -96.15172, 19.15817 ], [ -96.151806, 19.158689 ], [ -96.15172, 19.159175 ], [ -96.151858, 19.159686 ], [ -96.151772, 19.160035 ] ] ] } },
{ "type": "Feature", "properties": { "nombre": "Humedal Costero / Laguna", "tipo": "Humedal Costero / Laguna", "subtipo": "water" }, "geometry": { "type": "Polygon", "coordinates": [ [ [ -96.163969, 19.164591 ], [ -96.163797, 19.164227 ], [ -96.163797, 19.163967 ], [ -96.163951, 19.163675 ], [ -96.164277, 19.163675 ], [ -96.164621, 19.16447 ], [ -96.164621, 19.164997 ], [ -96.164398, 19.165588 ], [ -96.164192, 19.164859 ], [ -96.163969, 19.164591 ] ] ] } },
{ "type": "Feature", "properties": { "nombre": "Humedal Costero / Laguna", "tipo": "Humedal Costero / Laguna", "subtipo": "water" }, "geometry": { "type": "Polygon", "coordinates": [ [ [ -96.134278, 19.167472 ], [ -96.134276, 19.167507 ], [ -96.134322, 19.16754 ], [ -96.13436, 19.167587 ], [ -96.134355, 19.167658 ], [ -96.134302, 19.167691 ], [ -96.13424, 19.167707 ], [ -96.134124, 19.167681 ], [ -96.134092, 19.167583 ], [ -96.134111, 19.167486 ], [ -96.134087, 19.167435 ], [ -96.134021, 19.167345 ], [ -96.134023, 19.167283 ], [ -96.134119, 19.167172 ], [ -96.13427, 19.167151 ], [ -96.134388, 19.167182 ], [ -96.13442, 19.167278 ], [ -96.134409, 19.167374 ], [ -96.13435, 19.16743 ], [ -96.134278, 19.167472 ] ] ] } },
{ "type": "Feature", "properties": { "nombre": "Humedal Costero / Laguna", "tipo": "Humedal Costero / Laguna", "subtipo": "water" }, "geometry": { "type": "Polygon", "coordinates": [ [ [ -96.206479, 19.212445 ], [ -96.205836, 19.212313 ], [ -96.206018, 19.211462 ], [ -96.206125, 19.211472 ], [ -96.206393, 19.21205 ], [ -96.206501, 19.212313 ], [ -96.206479, 19.212445 ] ] ] } },
{ "type": "Feature", "properties": { "nombre": "Humedal Costero / Laguna", "tipo": "Humedal Costero / Laguna", "subtipo": "water" }, "geometry": { "type": "Polygon", "coordinates": [ [ [ -96.205781, 19.212035 ], [ -96.204901, 19.211863 ], [ -96.204879, 19.211772 ], [ -96.204954, 19.211417 ], [ -96.20503, 19.211397 ], [ -96.205845, 19.211599 ], [ -96.20592, 19.211701 ], [ -96.205781, 19.212035 ] ] ] } },
{ "type": "Feature", "properties": { "nombre": "Humedal Costero / Laguna", "tipo": "Humedal Costero / Laguna", "subtipo": "water" }, "geometry": { "type": "Polygon", "coordinates": [ [ [ -96.205845, 19.211516 ], [ -96.205051, 19.211333 ], [ -96.204998, 19.211252 ], [ -96.205084, 19.210847 ], [ -96.205169, 19.210796 ], [ -96.205738, 19.210928 ], [ -96.206092, 19.211232 ], [ -96.206114, 19.211303 ], [ -96.205845, 19.211516 ] ] ] } },
{ "type": "Feature", "properties": { "nombre": "Humedal Costero / Laguna", "tipo": "Humedal Costero / Laguna", "subtipo": "wetland" }, "geometry": { "type": "Polygon", "coordinates": [ [ [ -96.210393, 19.216839 ], [ -96.210071, 19.216535 ], [ -96.209749, 19.216372 ], [ -96.209599, 19.216089 ], [ -96.209556, 19.215623 ], [ -96.209706, 19.21542 ], [ -96.210178, 19.21544 ], [ -96.210393, 19.215846 ], [ -96.210414, 19.216352 ], [ -96.210393, 19.216839 ] ] ] } },
{ "type": "Feature", "properties": { "nombre": "Humedal Costero / Laguna", "tipo": "Humedal Costero / Laguna", "subtipo": "water" }, "geometry": { "type": "Polygon", "coordinates": [ [ [ -96.224583, 19.219815 ], [ -96.224412, 19.219775 ], [ -96.224326, 19.219623 ], [ -96.224294, 19.219319 ], [ -96.224305, 19.218853 ], [ -96.224272, 19.218488 ], [ -96.224283, 19.218184 ], [ -96.224444, 19.217981 ], [ -96.224551, 19.21789 ], [ -96.224755, 19.2179 ], [ -96.224884, 19.218002 ], [ -96.224991, 19.218204 ], [ -96.224991, 19.218609 ], [ -96.224809, 19.21944 ], [ -96.224691, 19.219481 ], [ -96.22468, 19.219592 ], [ -96.224583, 19.219815 ] ] ] } },
{ "type": "Feature", "properties": { "nombre": "Humedal Costero / Laguna", "tipo": "Humedal Costero / Laguna", "subtipo": "wetland" }, "geometry": { "type": "Polygon", "coordinates": [ [ [ -96.220689, 19.221993 ], [ -96.220614, 19.221993 ], [ -96.220592, 19.221608 ], [ -96.220517, 19.221385 ], [ -96.220582, 19.221203 ], [ -96.220496, 19.221051 ], [ -96.220507, 19.220798 ], [ -96.220582, 19.220585 ], [ -96.220668, 19.220403 ], [ -96.220764, 19.220271 ], [ -96.220807, 19.220068 ], [ -96.220743, 19.219997 ], [ -96.220689, 19.219815 ], [ -96.22092, 19.21931 ], [ -96.221306, 19.218963 ], [ -96.221625, 19.219105 ], [ -96.2213, 19.22018 ], [ -96.221225, 19.220474 ], [ -96.22115, 19.220696 ], [ -96.221086, 19.221031 ], [ -96.220968, 19.221395 ], [ -96.220914, 19.221709 ], [ -96.220689, 19.221993 ] ] ] } },
{ "type": "Feature", "properties": { "nombre": "Humedal Costero / Laguna", "tipo": "Humedal Costero / Laguna", "subtipo": "wetland" }, "geometry": { "type": "Polygon", "coordinates": [ [ [ -96.226171, 19.229236 ], [ -96.225978, 19.229176 ], [ -96.225839, 19.229044 ], [ -96.225753, 19.228791 ], [ -96.22556, 19.228467 ], [ -96.225463, 19.228142 ], [ -96.225281, 19.227676 ], [ -96.225174, 19.227302 ], [ -96.225034, 19.22718 ], [ -96.224895, 19.226998 ], [ -96.224905, 19.226906 ], [ -96.224734, 19.226815 ], [ -96.224519, 19.226552 ], [ -96.22439, 19.226532 ], [ -96.224369, 19.22636 ], [ -96.224423, 19.226126 ], [ -96.224444, 19.225863 ], [ -96.224412, 19.22565 ], [ -96.224444, 19.225377 ], [ -96.224444, 19.225053 ], [ -96.224562, 19.224891 ], [ -96.224616, 19.224749 ], [ -96.224777, 19.224718 ], [ -96.224798, 19.224972 ], [ -96.224841, 19.225235 ], [ -96.224981, 19.225782 ], [ -96.225023, 19.226005 ], [ -96.225023, 19.226238 ], [ -96.225152, 19.226511 ], [ -96.225152, 19.226653 ], [ -96.22512, 19.226937 ], [ -96.22512, 19.227058 ], [ -96.225195, 19.2272 ], [ -96.225302, 19.227089 ], [ -96.225313, 19.226876 ], [ -96.225367, 19.226603 ], [ -96.225324, 19.226349 ], [ -96.225345, 19.225772 ], [ -96.225367, 19.225529 ], [ -96.225528, 19.225498 ], [ -96.225731, 19.225661 ], [ -96.225828, 19.226481 ], [ -96.225903, 19.226785 ], [ -96.225892, 19.22721 ], [ -96.225925, 19.227474 ], [ -96.226085, 19.227768 ], [ -96.22615, 19.228355 ], [ -96.226161, 19.228912 ], [ -96.226182, 19.229105 ], [ -96.226171, 19.229236 ] ] ] } },
{ "type": "Feature", "properties": { "nombre": "Humedal Costero / Laguna", "tipo": "Humedal Costero / Laguna", "subtipo": "water" }, "geometry": { "type": "Polygon", "coordinates": [ [ [ -96.234345, 19.196768 ], [ -96.234173, 19.19614 ], [ -96.234044, 19.196079 ], [ -96.23383, 19.196221 ], [ -96.233679, 19.195937 ], [ -96.233572, 19.195572 ], [ -96.233658, 19.195349 ], [ -96.233808, 19.195491 ], [ -96.233894, 19.195734 ], [ -96.234194, 19.195552 ], [ -96.234216, 19.195653 ], [ -96.234323, 19.195836 ], [ -96.234473, 19.196018 ], [ -96.234366, 19.196403 ], [ -96.234345, 19.196768 ] ] ] } },
{ "type": "Feature", "properties": { "nombre": "Humedal Costero / Laguna", "tipo": "Humedal Costero / Laguna", "subtipo": "water" }, "geometry": { "type": "Polygon", "coordinates": [ [ [ -96.10957, 19.160314 ], [ -96.109429, 19.1599 ], [ -96.109624, 19.159807 ], [ -96.109753, 19.159924 ], [ -96.10975, 19.160135 ], [ -96.109721, 19.160148 ], [ -96.109718, 19.160185 ], [ -96.109682, 19.160207 ], [ -96.109686, 19.160249 ], [ -96.10957, 19.160314 ] ] ] } },
{ "type": "Feature", "properties": { "nombre": "Humedal Costero / Laguna", "tipo": "Humedal Costero / Laguna", "subtipo": "water" }, "geometry": { "type": "Polygon", "coordinates": [ [ [ -96.112155, 19.160789 ], [ -96.112148, 19.160654 ], [ -96.11203, 19.160634 ], [ -96.111998, 19.1607 ], [ -96.111928, 19.1607 ], [ -96.111923, 19.16065 ], [ -96.111977, 19.160624 ], [ -96.11202, 19.160548 ], [ -96.111993, 19.160467 ], [ -96.111912, 19.160442 ], [ -96.111789, 19.160457 ], [ -96.111741, 19.160386 ], [ -96.111724, 19.160259 ], [ -96.111794, 19.160249 ], [ -96.111902, 19.160295 ], [ -96.112003, 19.160315 ], [ -96.112078, 19.16035 ], [ -96.112186, 19.160305 ], [ -96.112304, 19.16035 ], [ -96.112384, 19.160325 ], [ -96.112465, 19.160381 ], [ -96.112401, 19.160552 ], [ -96.112412, 19.160597 ], [ -96.112369, 19.160657 ], [ -96.112302, 19.160709 ], [ -96.112289, 19.160767 ], [ -96.112231, 19.16079 ], [ -96.112155, 19.160789 ] ] ] } },
{ "type": "Feature", "properties": { "nombre": "Humedal Costero / Laguna", "tipo": "Humedal Costero / Laguna", "subtipo": "water" }, "geometry": { "type": "Polygon", "coordinates": [ [ [ -96.136521, 19.164341 ], [ -96.136454, 19.164318 ], [ -96.13642, 19.164285 ], [ -96.136384, 19.164104 ], [ -96.136258, 19.163828 ], [ -96.136304, 19.163697 ], [ -96.136338, 19.163651 ], [ -96.13639, 19.163624 ], [ -96.136498, 19.163641 ], [ -96.136531, 19.163677 ], [ -96.136522, 19.163811 ], [ -96.136548, 19.163949 ], [ -96.136578, 19.164015 ], [ -96.13658, 19.164275 ], [ -96.136551, 19.164337 ], [ -96.136521, 19.164341 ] ] ] } },
{ "type": "Feature", "properties": { "nombre": "Humedal Costero / Laguna", "tipo": "Humedal Costero / Laguna", "subtipo": "water" }, "geometry": { "type": "Polygon", "coordinates": [ [ [ -96.137296, 19.172401 ], [ -96.137157, 19.17233 ], [ -96.137028, 19.172218 ], [ -96.137028, 19.171955 ], [ -96.137264, 19.171955 ], [ -96.137328, 19.171995 ], [ -96.137328, 19.172168 ], [ -96.137414, 19.172157 ], [ -96.137393, 19.172046 ], [ -96.137446, 19.171975 ], [ -96.137629, 19.171975 ], [ -96.137618, 19.172117 ], [ -96.137489, 19.172178 ], [ -96.137489, 19.172472 ], [ -96.137446, 19.172553 ], [ -96.137296, 19.172401 ] ] ] } },
{ "type": "Feature", "properties": { "nombre": "Laguna de Zumpango", "tipo": "Humedal Costero / Laguna", "subtipo": "water" }, "geometry": { "type": "Polygon", "coordinates": [ [ [ -96.157643, 19.170491 ], [ -96.157552, 19.170572 ], [ -96.157498, 19.170496 ], [ -96.15738, 19.170486 ], [ -96.157262, 19.170461 ], [ -96.157208, 19.170365 ], [ -96.157171, 19.170435 ], [ -96.157085, 19.170522 ], [ -96.157058, 19.17039 ], [ -96.156972, 19.170359 ], [ -96.157021, 19.169483 ], [ -96.157128, 19.169392 ], [ -96.157214, 19.169382 ], [ -96.1573, 19.169442 ], [ -96.157396, 19.169478 ], [ -96.157461, 19.169554 ], [ -96.157514, 19.169569 ], [ -96.157654, 19.169544 ], [ -96.157643, 19.169635 ], [ -96.157584, 19.169802 ], [ -96.157622, 19.169939 ], [ -96.157713, 19.170142 ], [ -96.157734, 19.170243 ], [ -96.157734, 19.170375 ], [ -96.157643, 19.170491 ] ] ] } },
{ "type": "Feature", "properties": { "nombre": "Humedal Costero / Laguna", "tipo": "Humedal Costero / Laguna", "subtipo": "water" }, "geometry": { "type": "Polygon", "coordinates": [ [ [ -96.157151, 19.176562 ], [ -96.157081, 19.176572 ], [ -96.157006, 19.176532 ], [ -96.156888, 19.17639 ], [ -96.156797, 19.176258 ], [ -96.156733, 19.176086 ], [ -96.156684, 19.175914 ], [ -96.156754, 19.175954 ], [ -96.156819, 19.176045 ], [ -96.15691, 19.176091 ], [ -96.157022, 19.176106 ], [ -96.15706, 19.176258 ], [ -96.157156, 19.176451 ], [ -96.157151, 19.176562 ] ] ] } },
{ "type": "Feature", "properties": { "nombre": "Humedal Costero / Laguna", "tipo": "Humedal Costero / Laguna", "subtipo": "water" }, "geometry": { "type": "Polygon", "coordinates": [ [ [ -96.157666, 19.178949 ], [ -96.157575, 19.179009 ], [ -96.157494, 19.179009 ], [ -96.157376, 19.178923 ], [ -96.157366, 19.178786 ], [ -96.157403, 19.178634 ], [ -96.157425, 19.178417 ], [ -96.1574, 19.178265 ], [ -96.157425, 19.178087 ], [ -96.157269, 19.17752 ], [ -96.157242, 19.17714 ], [ -96.157146, 19.176927 ], [ -96.15713, 19.176825 ], [ -96.157221, 19.176765 ], [ -96.157291, 19.176815 ], [ -96.157328, 19.176917 ], [ -96.157419, 19.176952 ], [ -96.157387, 19.177018 ], [ -96.157468, 19.177084 ], [ -96.157586, 19.177211 ], [ -96.157639, 19.177337 ], [ -96.157655, 19.177423 ], [ -96.157741, 19.17752 ], [ -96.157741, 19.177611 ], [ -96.157773, 19.177727 ], [ -96.157773, 19.177869 ], [ -96.15773, 19.178021 ], [ -96.157714, 19.178158 ], [ -96.157752, 19.178335 ], [ -96.157741, 19.178442 ], [ -96.157698, 19.178599 ], [ -96.157779, 19.178736 ], [ -96.157768, 19.178847 ], [ -96.157666, 19.178949 ] ] ] } },
{ "type": "Feature", "properties": { "nombre": "Humedal Costero / Laguna", "tipo": "Humedal Costero / Laguna", "subtipo": "water" }, "geometry": { "type": "Polygon", "coordinates": [ [ [ -96.177265, 19.178008 ], [ -96.177291, 19.178487 ], [ -96.177254, 19.17895 ], [ -96.177254, 19.179676 ], [ -96.177297, 19.179833 ], [ -96.177339, 19.180117 ], [ -96.177019, 19.180457 ], [ -96.177012, 19.179782 ], [ -96.176986, 19.179645 ], [ -96.176975, 19.179341 ], [ -96.176996, 19.179149 ], [ -96.176948, 19.178911 ], [ -96.176948, 19.178556 ], [ -96.176978, 19.178282 ], [ -96.177024, 19.178001 ], [ -96.177116, 19.177943 ], [ -96.177238, 19.177944 ], [ -96.177265, 19.178008 ] ] ] } },
{ "type": "Feature", "properties": { "nombre": "Humedal Costero / Laguna", "tipo": "Humedal Costero / Laguna", "subtipo": "wetland" }, "geometry": { "type": "Polygon", "coordinates": [ [ [ -96.159375, 19.152583 ], [ -96.158786, 19.152899 ], [ -96.157699, 19.153433 ], [ -96.157259, 19.152165 ], [ -96.158695, 19.151696 ], [ -96.158577, 19.150702 ], [ -96.158545, 19.149902 ], [ -96.158341, 19.149375 ], [ -96.158266, 19.148432 ], [ -96.158601, 19.148383 ], [ -96.158746, 19.149488 ], [ -96.158856, 19.149598 ], [ -96.158968, 19.150133 ], [ -96.159065, 19.150194 ], [ -96.159105, 19.151061 ], [ -96.159265, 19.151262 ], [ -96.159506, 19.151467 ], [ -96.159541, 19.151647 ], [ -96.159596, 19.152362 ], [ -96.159375, 19.152583 ] ] ] } },
{ "type": "Feature", "properties": { "nombre": "Humedal Costero / Laguna", "tipo": "Humedal Costero / Laguna", "subtipo": "water" }, "geometry": { "type": "Polygon", "coordinates": [ [ [ -96.175527, 19.159964 ], [ -96.175463, 19.159589 ], [ -96.175388, 19.159062 ], [ -96.175538, 19.159052 ], [ -96.175668, 19.159256 ], [ -96.175722, 19.159682 ], [ -96.175624, 19.159913 ], [ -96.175527, 19.159964 ] ] ] } },
{ "type": "Feature", "properties": { "nombre": "Humedal Costero / Laguna", "tipo": "Humedal Costero / Laguna", "subtipo": "water" }, "geometry": { "type": "Polygon", "coordinates": [ [ [ -96.17116, 19.170546 ], [ -96.171211, 19.170769 ], [ -96.171211, 19.170875 ], [ -96.171152, 19.171032 ], [ -96.1712, 19.171103 ], [ -96.171264, 19.1713 ], [ -96.171189, 19.171452 ], [ -96.171248, 19.171898 ], [ -96.171248, 19.172248 ], [ -96.171205, 19.172602 ], [ -96.171146, 19.172932 ], [ -96.171136, 19.173079 ], [ -96.171028, 19.173195 ], [ -96.170856, 19.173241 ], [ -96.170798, 19.17315 ], [ -96.170746, 19.172886 ], [ -96.17068, 19.17242 ], [ -96.170685, 19.172197 ], [ -96.170669, 19.171959 ], [ -96.170572, 19.17125 ], [ -96.170578, 19.170875 ], [ -96.170613, 19.170593 ], [ -96.17116, 19.170546 ] ] ] } },
{ "type": "Feature", "properties": { "nombre": "Humedal Costero / Laguna", "tipo": "Humedal Costero / Laguna", "subtipo": "water" }, "geometry": { "type": "Polygon", "coordinates": [ [ [ -96.167978, 19.167718 ], [ -96.16793, 19.167885 ], [ -96.16785, 19.167855 ], [ -96.167839, 19.167743 ], [ -96.167855, 19.167551 ], [ -96.167833, 19.167378 ], [ -96.167828, 19.167186 ], [ -96.167903, 19.167145 ], [ -96.168066, 19.167129 ], [ -96.16815, 19.16715 ], [ -96.168161, 19.167206 ], [ -96.168107, 19.167282 ], [ -96.168139, 19.167383 ], [ -96.16815, 19.167464 ], [ -96.168123, 19.167561 ], [ -96.167978, 19.167718 ] ] ] } },
{ "type": "Feature", "properties": { "nombre": "Humedal Costero / Laguna", "tipo": "Humedal Costero / Laguna", "subtipo": "water" }, "geometry": { "type": "Polygon", "coordinates": [ [ [ -96.165141, 19.155779 ], [ -96.164904, 19.15586 ], [ -96.164352, 19.155992 ], [ -96.164175, 19.156048 ], [ -96.164046, 19.156053 ], [ -96.164051, 19.155931 ], [ -96.164116, 19.155764 ], [ -96.164132, 19.155511 ], [ -96.164234, 19.15506 ], [ -96.164261, 19.154837 ], [ -96.164572, 19.154832 ], [ -96.164867, 19.154776 ], [ -96.165183, 19.154781 ], [ -96.165205, 19.154888 ], [ -96.165205, 19.155065 ], [ -96.165183, 19.155217 ], [ -96.165194, 19.155516 ], [ -96.165183, 19.155658 ], [ -96.165141, 19.155779 ] ] ] } },
{ "type": "Feature", "properties": { "nombre": "Humedal Costero / Laguna", "tipo": "Humedal Costero / Laguna", "subtipo": "water" }, "geometry": { "type": "Polygon", "coordinates": [ [ [ -96.168037, 19.166289 ], [ -96.167951, 19.166299 ], [ -96.167887, 19.166253 ], [ -96.167925, 19.166193 ], [ -96.167989, 19.166162 ], [ -96.168048, 19.166203 ], [ -96.168037, 19.166289 ] ] ] } },
{ "type": "Feature", "properties": { "nombre": "Humedal Costero / Laguna", "tipo": "Humedal Costero / Laguna", "subtipo": "water" }, "geometry": { "type": "Polygon", "coordinates": [ [ [ -96.163, 19.163114 ], [ -96.163032, 19.163236 ], [ -96.163021, 19.163429 ], [ -96.162962, 19.163231 ], [ -96.162844, 19.163094 ], [ -96.162753, 19.162785 ], [ -96.16278, 19.162643 ], [ -96.162876, 19.162451 ], [ -96.162909, 19.162294 ], [ -96.162828, 19.162015 ], [ -96.162651, 19.161812 ], [ -96.162656, 19.16165 ], [ -96.162742, 19.161569 ], [ -96.162855, 19.16167 ], [ -96.162866, 19.161812 ], [ -96.162968, 19.161934 ], [ -96.163043, 19.162202 ], [ -96.163043, 19.162572 ], [ -96.162994, 19.162734 ], [ -96.162978, 19.162856 ], [ -96.163, 19.163114 ] ] ] } },
{ "type": "Feature", "properties": { "nombre": "Humedal Costero / Laguna", "tipo": "Humedal Costero / Laguna", "subtipo": "water" }, "geometry": { "type": "Polygon", "coordinates": [ [ [ -96.172133, 19.153525 ], [ -96.171763, 19.153474 ], [ -96.171725, 19.153383 ], [ -96.171817, 19.153133 ], [ -96.171962, 19.152966 ], [ -96.172267, 19.152983 ], [ -96.172412, 19.153074 ], [ -96.172482, 19.15315 ], [ -96.172428, 19.153287 ], [ -96.172133, 19.153525 ] ] ] } },
{ "type": "Feature", "properties": { "nombre": "Humedal Costero / Laguna", "tipo": "Humedal Costero / Laguna", "subtipo": "water" }, "geometry": { "type": "Polygon", "coordinates": [ [ [ -96.148404, 19.15995 ], [ -96.148259, 19.160097 ], [ -96.148181, 19.160158 ], [ -96.148093, 19.160214 ], [ -96.147948, 19.160264 ], [ -96.147897, 19.159836 ], [ -96.147867, 19.159836 ], [ -96.147843, 19.159793 ], [ -96.147816, 19.159557 ], [ -96.147738, 19.159426 ], [ -96.147701, 19.159233 ], [ -96.147671, 19.159187 ], [ -96.147661, 19.159137 ], [ -96.147695, 19.158949 ], [ -96.147663, 19.158909 ], [ -96.14762, 19.158886 ], [ -96.147607, 19.15879 ], [ -96.147551, 19.158653 ], [ -96.147548, 19.158605 ], [ -96.147591, 19.158516 ], [ -96.147674, 19.158473 ], [ -96.147779, 19.158374 ], [ -96.147985, 19.158263 ], [ -96.148074, 19.158301 ], [ -96.148173, 19.158313 ], [ -96.148269, 19.158354 ], [ -96.148294, 19.158397 ], [ -96.148304, 19.158493 ], [ -96.148342, 19.158635 ], [ -96.148398, 19.158714 ], [ -96.148449, 19.15885 ], [ -96.148484, 19.159086 ], [ -96.148481, 19.159134 ], [ -96.148428, 19.159274 ], [ -96.14843, 19.159372 ], [ -96.148476, 19.15956 ], [ -96.148476, 19.159611 ], [ -96.148449, 19.159811 ], [ -96.148404, 19.15995 ] ] ] } },
{ "type": "Feature", "properties": { "nombre": "Humedal Costero / Laguna", "tipo": "Humedal Costero / Laguna", "subtipo": "water" }, "geometry": { "type": "Polygon", "coordinates": [ [ [ -96.161496, 19.142411 ], [ -96.161023, 19.142736 ], [ -96.160348, 19.141616 ], [ -96.160519, 19.141504 ], [ -96.161496, 19.142411 ] ] ] } },
{ "type": "Feature", "properties": { "nombre": "Humedal Costero / Laguna", "tipo": "Humedal Costero / Laguna", "subtipo": "water" }, "geometry": { "type": "Polygon", "coordinates": [ [ [ -96.163394, 19.137784 ], [ -96.164188, 19.13824 ], [ -96.163459, 19.140252 ], [ -96.163153, 19.140283 ], [ -96.162965, 19.138104 ], [ -96.163394, 19.137784 ] ] ] } },
{ "type": "Feature", "properties": { "nombre": "Humedal Costero / Laguna", "tipo": "Humedal Costero / Laguna", "subtipo": "water" }, "geometry": { "type": "Polygon", "coordinates": [ [ [ -96.200624, 19.18342 ], [ -96.20094, 19.183587 ], [ -96.201337, 19.183572 ], [ -96.20145, 19.18416 ], [ -96.201895, 19.184975 ], [ -96.202571, 19.185092 ], [ -96.202903, 19.185599 ], [ -96.203139, 19.186085 ], [ -96.202818, 19.18687 ], [ -96.202254, 19.187225 ], [ -96.201927, 19.18837 ], [ -96.20108, 19.188253 ], [ -96.199733, 19.186222 ], [ -96.19984, 19.185892 ], [ -96.19961, 19.185264 ], [ -96.199636, 19.183982 ], [ -96.200624, 19.18342 ] ] ] } },
{ "type": "Feature", "properties": { "nombre": "Humedal Costero / Laguna", "tipo": "Humedal Costero / Laguna", "subtipo": "water" }, "geometry": { "type": "Polygon", "coordinates": [ [ [ -96.160668, 19.182642 ], [ -96.160718, 19.182609 ], [ -96.160776, 19.182594 ], [ -96.160837, 19.182598 ], [ -96.160892, 19.182621 ], [ -96.160937, 19.18266 ], [ -96.160965, 19.182711 ], [ -96.160974, 19.182767 ], [ -96.160963, 19.182824 ], [ -96.160932, 19.182873 ], [ -96.160886, 19.18291 ], [ -96.160829, 19.182931 ], [ -96.160768, 19.182932 ], [ -96.160678, 19.182894 ], [ -96.160644, 19.182859 ], [ -96.160613, 19.18277 ], [ -96.160618, 19.182723 ], [ -96.160668, 19.182642 ] ] ] } },
{ "type": "Feature", "properties": { "nombre": "Humedal Costero / Laguna", "tipo": "Humedal Costero / Laguna", "subtipo": "water" }, "geometry": { "type": "Polygon", "coordinates": [ [ [ -96.161644, 19.181965 ], [ -96.161749, 19.181917 ], [ -96.161766, 19.181873 ], [ -96.161759, 19.181859 ], [ -96.161789, 19.181814 ], [ -96.161817, 19.181802 ], [ -96.161858, 19.181813 ], [ -96.161835, 19.181852 ], [ -96.1618, 19.181874 ], [ -96.161793, 19.181924 ], [ -96.161694, 19.182009 ], [ -96.161662, 19.182005 ], [ -96.161644, 19.181965 ] ] ] } },
{ "type": "Feature", "properties": { "nombre": "Humedal Costero / Laguna", "tipo": "Humedal Costero / Laguna", "subtipo": "water" }, "geometry": { "type": "Polygon", "coordinates": [ [ [ -96.129076, 19.14036 ], [ -96.130034, 19.140154 ], [ -96.130034, 19.140235 ], [ -96.130102, 19.140218 ], [ -96.130121, 19.140415 ], [ -96.13008, 19.1405 ], [ -96.130117, 19.140666 ], [ -96.130025, 19.140704 ], [ -96.12997, 19.140782 ], [ -96.129818, 19.140881 ], [ -96.129806, 19.140992 ], [ -96.129766, 19.141041 ], [ -96.129738, 19.141129 ], [ -96.129674, 19.141105 ], [ -96.129627, 19.141038 ], [ -96.129514, 19.140971 ], [ -96.12944, 19.140974 ], [ -96.129393, 19.140902 ], [ -96.129316, 19.140875 ], [ -96.129338, 19.14082 ], [ -96.129211, 19.140742 ], [ -96.129181, 19.140648 ], [ -96.129104, 19.140611 ], [ -96.129048, 19.140558 ], [ -96.129002, 19.140427 ], [ -96.129088, 19.140421 ], [ -96.129076, 19.14036 ] ] ] } },
{ "type": "Feature", "properties": { "nombre": "Humedal Costero / Laguna", "tipo": "Humedal Costero / Laguna", "subtipo": "water" }, "geometry": { "type": "Polygon", "coordinates": [ [ [ -96.219481, 19.212476 ], [ -96.219696, 19.212395 ], [ -96.219902, 19.212428 ], [ -96.219987, 19.212517 ], [ -96.219919, 19.21263 ], [ -96.220133, 19.212695 ], [ -96.220322, 19.212792 ], [ -96.220408, 19.212946 ], [ -96.220391, 19.213165 ], [ -96.220296, 19.213295 ], [ -96.220202, 19.213473 ], [ -96.220082, 19.21413 ], [ -96.220082, 19.214332 ], [ -96.220005, 19.214786 ], [ -96.219893, 19.215135 ], [ -96.219756, 19.215467 ], [ -96.219687, 19.215021 ], [ -96.219618, 19.213951 ], [ -96.219532, 19.213157 ], [ -96.219481, 19.212476 ] ] ] } },
{ "type": "Feature", "properties": { "nombre": "Humedal Costero / Laguna", "tipo": "Humedal Costero / Laguna", "subtipo": "water" }, "geometry": { "type": "Polygon", "coordinates": [ [ [ -96.132466, 19.202528 ], [ -96.132798, 19.202331 ], [ -96.132853, 19.202414 ], [ -96.132471, 19.20264 ], [ -96.132198, 19.202235 ], [ -96.1325, 19.202059 ], [ -96.13253, 19.202102 ], [ -96.132281, 19.20225 ], [ -96.132466, 19.202528 ] ] ] } },
{ "type": "Feature", "properties": { "nombre": "Humedal Costero / Laguna", "tipo": "Humedal Costero / Laguna", "subtipo": "wetland" }, "geometry": { "type": "Polygon", "coordinates": [ [ [ -96.187459, 19.188086 ], [ -96.186451, 19.188177 ], [ -96.185812, 19.187909 ], [ -96.185303, 19.186728 ], [ -96.18386, 19.179954 ], [ -96.185582, 19.181895 ], [ -96.185839, 19.182726 ], [ -96.187159, 19.185117 ], [ -96.186955, 19.186242 ], [ -96.187459, 19.188086 ] ] ] } },
{ "type": "Feature", "properties": { "nombre": "Humedal Costero / Laguna", "tipo": "Humedal Costero / Laguna", "subtipo": "water" }, "geometry": { "type": "Polygon", "coordinates": [ [ [ -96.180738, 19.178913 ], [ -96.180684, 19.179027 ], [ -96.180703, 19.179151 ], [ -96.180968, 19.179199 ], [ -96.180507, 19.179714 ], [ -96.180432, 19.179232 ], [ -96.180496, 19.178956 ], [ -96.180738, 19.178913 ] ] ] } },
{ "type": "Feature", "properties": { "nombre": "Humedal Costero / Laguna", "tipo": "Humedal Costero / Laguna", "subtipo": "water" }, "geometry": { "type": "Polygon", "coordinates": [ [ [ -96.17039, 19.15564 ], [ -96.170363, 19.156106 ], [ -96.170722, 19.15619 ], [ -96.170736, 19.156715 ], [ -96.170408, 19.157196 ], [ -96.170116, 19.157155 ], [ -96.169872, 19.156015 ], [ -96.170226, 19.155929 ], [ -96.170226, 19.15564 ], [ -96.17039, 19.15564 ] ] ] } },
{ "type": "Feature", "properties": { "nombre": "Cordón Dunar / Arena", "tipo": "Cordón Dunar / Arena", "subtipo": "sand" }, "geometry": { "type": "Polygon", "coordinates": [ [ [ -96.189905, 19.225117 ], [ -96.190058, 19.225371 ], [ -96.190286, 19.225458 ], [ -96.190479, 19.225319 ], [ -96.190526, 19.225626 ], [ -96.190502, 19.225713 ], [ -96.190438, 19.225783 ], [ -96.190274, 19.225789 ], [ -96.190147, 19.225739 ], [ -96.190077, 19.225865 ], [ -96.189971, 19.225795 ], [ -96.189805, 19.2258 ], [ -96.189763, 19.225823 ], [ -96.189781, 19.225878 ], [ -96.189683, 19.225941 ], [ -96.189573, 19.225745 ], [ -96.189345, 19.225675 ], [ -96.189203, 19.225875 ], [ -96.188985, 19.225918 ], [ -96.188698, 19.225659 ], [ -96.188599, 19.225505 ], [ -96.188693, 19.225254 ], [ -96.188698, 19.224912 ], [ -96.188739, 19.224895 ], [ -96.188782, 19.224978 ], [ -96.188835, 19.224829 ], [ -96.18905, 19.224737 ], [ -96.189063, 19.224988 ], [ -96.189251, 19.224507 ], [ -96.189538, 19.224927 ], [ -96.189905, 19.225117 ] ] ] } },
{ "type": "Feature", "properties": { "nombre": "Humedal Costero / Laguna", "tipo": "Humedal Costero / Laguna", "subtipo": "water" }, "geometry": { "type": "Polygon", "coordinates": [ [ [ -96.222929, 19.230134 ], [ -96.22295, 19.230464 ], [ -96.222883, 19.230522 ], [ -96.222754, 19.230509 ], [ -96.222784, 19.22995 ], [ -96.222888, 19.229942 ], [ -96.222929, 19.230134 ] ] ] } },
{ "type": "Feature", "properties": { "nombre": "Humedal Costero / Laguna", "tipo": "Humedal Costero / Laguna", "subtipo": "water" }, "geometry": { "type": "Polygon", "coordinates": [ [ [ -96.132268, 19.202038 ], [ -96.132198, 19.20208 ], [ -96.132133, 19.201981 ], [ -96.132203, 19.20194 ], [ -96.132268, 19.202038 ] ] ] } },
{ "type": "Feature", "properties": { "nombre": "Laguna Las Conchas", "tipo": "Humedal Costero / Laguna", "subtipo": "wetland" }, "geometry": { "type": "Polygon", "coordinates": [ [ [ -96.180679, 19.181226 ], [ -96.18122, 19.180877 ], [ -96.181349, 19.182969 ], [ -96.18166, 19.183455 ], [ -96.181564, 19.18418 ], [ -96.181859, 19.184818 ], [ -96.18173, 19.185279 ], [ -96.181896, 19.185948 ], [ -96.181784, 19.186982 ], [ -96.181896, 19.187909 ], [ -96.181768, 19.188922 ], [ -96.181452, 19.188973 ], [ -96.180593, 19.186265 ], [ -96.180424, 19.183521 ], [ -96.180738, 19.183088 ], [ -96.180679, 19.181226 ] ] ] } },
{ "type": "Feature", "properties": { "nombre": "Humedal Costero / Laguna", "tipo": "Humedal Costero / Laguna", "subtipo": "wetland" }, "geometry": { "type": "Polygon", "coordinates": [ [ [ -96.249311, 19.228025 ], [ -96.248598, 19.228157 ], [ -96.247991, 19.227457 ], [ -96.247841, 19.226748 ], [ -96.249558, 19.226262 ], [ -96.249585, 19.226667 ], [ -96.249139, 19.227366 ], [ -96.249311, 19.228025 ] ] ] } },
{ "type": "Feature", "properties": { "nombre": "Humedal Costero / Laguna", "tipo": "Humedal Costero / Laguna", "subtipo": "wetland" }, "geometry": { "type": "Polygon", "coordinates": [ [ [ -96.169708, 19.147953 ], [ -96.169861, 19.146962 ], [ -96.170052, 19.145933 ], [ -96.17019, 19.14507 ], [ -96.168666, 19.144708 ], [ -96.168773, 19.144053 ], [ -96.168307, 19.143985 ], [ -96.168484, 19.142905 ], [ -96.16895, 19.142973 ], [ -96.168984, 19.1423 ], [ -96.168603, 19.141509 ], [ -96.168847, 19.141423 ], [ -96.170215, 19.141616 ], [ -96.170371, 19.141742 ], [ -96.170457, 19.142513 ], [ -96.170756, 19.143006 ], [ -96.171028, 19.14327 ], [ -96.170749, 19.144132 ], [ -96.171031, 19.14445 ], [ -96.171211, 19.144933 ], [ -96.171049, 19.146076 ], [ -96.172447, 19.146276 ], [ -96.172313, 19.146762 ], [ -96.172608, 19.147654 ], [ -96.172656, 19.147732 ], [ -96.172557, 19.147852 ], [ -96.172691, 19.147905 ], [ -96.173077, 19.147892 ], [ -96.173402, 19.147852 ], [ -96.173606, 19.148262 ], [ -96.172906, 19.148733 ], [ -96.172627, 19.148885 ], [ -96.172399, 19.148916 ], [ -96.17213, 19.148903 ], [ -96.171202, 19.148553 ], [ -96.169708, 19.147953 ] ] ] } }
]
}
