{
"type": "FeatureCollection",
"name": "infraestructura_obstaculo",
"crs": { "type": "name", "properties": { "name": "urn:ogc:def:crs:OGC:1.3:CRS84" } },
"xy_coordinate_resolution": 1e-06,
"features": [
{ "type": "Feature", "properties": { "id": null, "NOMBRE": "POLIGONO 01", "VIAS": "Via 40 - La Playa" }, "geometry": { "type": "Polygon", "coordinates": [ [ [ -74.824784, 11.039173 ], [ -74.825516, 11.039258 ], [ -74.825884, 11.039222 ], [ -74.826687, 11.038985 ], [ -74.827505, 11.038785 ], [ -74.82803, 11.038487 ], [ -74.828903, 11.038044 ], [ -74.830033, 11.037439 ], [ -74.832511, 11.036042 ], [ -74.834527, 11.034835 ], [ -74.834953, 11.034635 ], [ -74.835457, 11.034537 ], [ -74.836849, 11.034517 ], [ -74.837435, 11.034417 ], [ -74.837949, 11.034194 ], [ -74.838426, 11.033799 ], [ -74.838822, 11.033385 ], [ -74.839381, 11.032835 ], [ -74.839818, 11.032562 ], [ -74.840481, 11.032334 ], [ -74.842682, 11.031762 ], [ -74.846629, 11.030679 ], [ -74.84942, 11.029943 ], [ -74.850002, 11.029857 ], [ -74.850698, 11.029788 ], [ -74.852871, 11.029907 ], [ -74.853581, 11.029993 ], [ -74.858363, 11.031218 ], [ -74.858993, 11.031358 ], [ -74.862511, 11.032276 ], [ -74.866367, 11.032992 ], [ -74.869968, 11.033773 ], [ -74.871624, 11.034205 ], [ -74.873336, 11.034511 ], [ -74.875326, 11.035055 ], [ -74.876011, 11.035327 ], [ -74.876889, 11.035727 ], [ -74.878237, 11.035913 ], [ -74.87999, 11.035549 ], [ -74.881028, 11.035446 ], [ -74.880836, 11.035833 ], [ -74.881668, 11.0375 ], [ -74.880836, 11.039167 ], [ -74.881248, 11.04 ], [ -74.8825, 11.04125 ], [ -74.881668, 11.042083 ], [ -74.878334, 11.042917 ], [ -74.876663, 11.04375 ], [ -74.876251, 11.044167 ], [ -74.87617, 11.04449 ], [ -74.875351, 11.044787 ], [ -74.872572, 11.045631 ], [ -74.870904, 11.046187 ], [ -74.869895, 11.046146 ], [ -74.867223, 11.04561 ], [ -74.866719, 11.04476 ], [ -74.866561, 11.042356 ], [ -74.864977, 11.039549 ], [ -74.86325, 11.03713 ], [ -74.861321, 11.036353 ], [ -74.859219, 11.036497 ], [ -74.857491, 11.036381 ], [ -74.856426, 11.03523 ], [ -74.855043, 11.034135 ], [ -74.853489, 11.033761 ], [ -74.851761, 11.033905 ], [ -74.849976, 11.03451 ], [ -74.849141, 11.035561 ], [ -74.849069, 11.037893 ], [ -74.848723, 11.039275 ], [ -74.848018, 11.040456 ], [ -74.847039, 11.041161 ], [ -74.845743, 11.041104 ], [ -74.845383, 11.040225 ], [ -74.845513, 11.03857 ], [ -74.846348, 11.035863 ], [ -74.845993, 11.035732 ], [ -74.845128, 11.035876 ], [ -74.84414, 11.036 ], [ -74.843769, 11.035691 ], [ -74.843337, 11.034806 ], [ -74.843152, 11.034167 ], [ -74.841587, 11.034373 ], [ -74.839507, 11.03532 ], [ -74.838436, 11.036515 ], [ -74.837551, 11.036659 ], [ -74.83403, 11.039995 ], [ -74.832279, 11.044041 ], [ -74.832176, 11.044324 ], [ -74.831528, 11.044803 ], [ -74.830807, 11.045621 ], [ -74.830498, 11.045858 ], [ -74.829546, 11.046929 ], [ -74.829316, 11.046805 ], [ -74.822701, 11.042242 ], [ -74.824784, 11.039173 ] ] ] } },
{ "type": "Feature", "properties": { "id": null, "NOMBRE": "POLIGONO 05", "VIAS": "Via al mar, K 38, Circunvalar y la Prosperidad" }, "geometry": { "type": "Polygon", "coordinates": [ [ [ -74.836151, 10.98281 ], [ -74.836193, 10.982811 ], [ -74.836411, 10.982754 ], [ -74.836762, 10.98255 ], [ -74.839989, 10.981681 ], [ -74.8422, 10.981132 ], [ -74.845071, 10.980522 ], [ -74.84649, 10.980035 ], [ -74.846879, 10.979844 ], [ -74.849406, 10.978748 ], [ -74.8505, 10.978111 ], [ -74.851232, 10.977798 ], [ -74.852584, 10.977018 ], [ -74.853863, 10.976502 ], [ -74.858107, 10.974438 ], [ -74.861634, 10.972663 ], [ -74.864082, 10.971544 ], [ -74.87207, 10.967728 ], [ -74.872528, 10.967477 ], [ -74.875532, 10.965981 ], [ -74.876916, 10.965328 ], [ -74.877306, 10.965187 ], [ -74.878014, 10.964726 ], [ -74.879249, 10.964174 ], [ -74.884979, 10.961451 ], [ -74.890006, 10.958964 ], [ -74.897406, 10.955581 ], [ -74.897667, 10.956201 ], [ -74.898163, 10.957507 ], [ -74.89839, 10.958044 ], [ -74.89898, 10.959608 ], [ -74.900326, 10.962869 ], [ -74.900912, 10.964352 ], [ -74.901038, 10.964723 ], [ -74.901107, 10.96504 ], [ -74.901171, 10.96545 ], [ -74.901168, 10.966069 ], [ -74.901139, 10.966404 ], [ -74.901046, 10.966774 ], [ -74.90088, 10.967253 ], [ -74.900614, 10.967746 ], [ -74.900318, 10.968146 ], [ -74.89984, 10.968603 ], [ -74.899303, 10.96901 ], [ -74.89583, 10.971583 ], [ -74.894786, 10.972332 ], [ -74.893951, 10.972908 ], [ -74.893541, 10.973231 ], [ -74.893145, 10.973559 ], [ -74.892566, 10.974185 ], [ -74.892285, 10.974542 ], [ -74.892105, 10.974801 ], [ -74.891965, 10.975056 ], [ -74.891615, 10.975809 ], [ -74.891349, 10.976546 ], [ -74.891223, 10.977284 ], [ -74.890892, 10.979959 ], [ -74.890129, 10.985757 ], [ -74.889859, 10.987978 ], [ -74.889722, 10.988863 ], [ -74.889632, 10.989295 ], [ -74.889452, 10.989741 ], [ -74.889316, 10.989986 ], [ -74.888133, 10.991809 ], [ -74.885311, 10.996229 ], [ -74.879395, 11.005389 ], [ -74.876708, 11.009591 ], [ -74.876402, 11.010104 ], [ -74.876263, 11.010411 ], [ -74.876184, 11.010633 ], [ -74.876087, 11.011003 ], [ -74.876035, 11.011275 ], [ -74.876004, 11.011601 ], [ -74.875999, 11.0119 ], [ -74.876024, 11.012251 ], [ -74.876145, 11.012952 ], [ -74.876485, 11.014312 ], [ -74.874292, 11.014559 ], [ -74.870938, 11.01502 ], [ -74.869491, 11.015185 ], [ -74.862379, 11.016107 ], [ -74.86086, 11.016272 ], [ -74.858758, 11.016531 ], [ -74.85419, 11.017125 ], [ -74.853456, 11.017158 ], [ -74.852459, 11.017118 ], [ -74.851703, 11.017025 ], [ -74.851192, 11.016931 ], [ -74.850645, 11.016794 ], [ -74.850152, 11.01665 ], [ -74.849465, 11.016409 ], [ -74.848979, 11.016182 ], [ -74.848619, 11.015995 ], [ -74.845081, 11.014098 ], [ -74.84421, 11.013648 ], [ -74.8425, 11.012702 ], [ -74.840339, 11.011538 ], [ -74.840402, 11.011417 ], [ -74.841585, 11.008191 ], [ -74.841831, 11.00701 ], [ -74.841935, 11.006441 ], [ -74.842043, 11.005663 ], [ -74.842169, 11.005037 ], [ -74.842232, 11.00421 ], [ -74.84216, 11.003798 ], [ -74.842026, 11.003186 ], [ -74.841681, 11.0023 ], [ -74.841424, 11.001518 ], [ -74.840178, 10.998146 ], [ -74.839602, 10.99653 ], [ -74.839087, 10.995176 ], [ -74.83849, 10.993503 ], [ -74.838166, 10.992736 ], [ -74.837867, 10.991789 ], [ -74.837105, 10.989827 ], [ -74.836752, 10.988726 ], [ -74.836629, 10.988291 ], [ -74.836374, 10.987083 ], [ -74.836294, 10.98662 ], [ -74.836233, 10.986077 ], [ -74.836142, 10.984782 ], [ -74.83614, 10.984098 ], [ -74.83616, 10.983076 ], [ -74.836151, 10.98281 ] ] ] } },
{ "type": "Feature", "properties": { "id": null, "NOMBRE": "POLIGONO 06", "VIAS": "Zona rural, La Prosperidad y K 38" }, "geometry": { "type": "Polygon", "coordinates": [ [ [ -74.897406, 10.955581 ], [ -74.898376, 10.955138 ], [ -74.911513, 10.948924 ], [ -74.915831, 10.946669 ], [ -74.917962, 10.945478 ], [ -74.918203, 10.945361 ], [ -74.9184, 10.945287 ], [ -74.919941, 10.946966 ], [ -74.920024, 10.947271 ], [ -74.92, 10.947493 ], [ -74.919917, 10.947704 ], [ -74.919882, 10.947874 ], [ -74.919864, 10.948062 ], [ -74.919888, 10.94822 ], [ -74.919941, 10.948413 ], [ -74.920042, 10.948612 ], [ -74.920196, 10.948999 ], [ -74.920392, 10.949708 ], [ -74.920428, 10.949907 ], [ -74.920861, 10.950241 ], [ -74.92111, 10.950545 ], [ -74.921169, 10.950733 ], [ -74.921228, 10.950844 ], [ -74.921335, 10.950932 ], [ -74.921561, 10.951078 ], [ -74.921768, 10.951166 ], [ -74.922106, 10.951218 ], [ -74.922278, 10.951289 ], [ -74.922456, 10.951505 ], [ -74.922604, 10.951623 ], [ -74.923013, 10.951734 ], [ -74.923209, 10.951816 ], [ -74.923434, 10.95195 ], [ -74.923606, 10.952097 ], [ -74.924181, 10.952747 ], [ -74.924916, 10.950837 ], [ -74.925438, 10.950901 ], [ -74.92622, 10.951159 ], [ -74.926451, 10.951194 ], [ -74.92673, 10.951188 ], [ -74.927424, 10.951082 ], [ -74.92785, 10.951053 ], [ -74.928337, 10.95107 ], [ -74.928799, 10.951164 ], [ -74.929155, 10.951275 ], [ -74.92954, 10.951433 ], [ -74.929714, 10.951537 ], [ -74.929169, 10.952083 ], [ -74.93, 10.952916 ], [ -74.926247, 10.956666 ], [ -74.925835, 10.959167 ], [ -74.926247, 10.961666 ], [ -74.927086, 10.963333 ], [ -74.927498, 10.965834 ], [ -74.927498, 10.96717 ], [ -74.926676, 10.96682 ], [ -74.926149, 10.966632 ], [ -74.925327, 10.966674 ], [ -74.924895, 10.966622 ], [ -74.924557, 10.966664 ], [ -74.924199, 10.966768 ], [ -74.923883, 10.96707 ], [ -74.923472, 10.967529 ], [ -74.923093, 10.967852 ], [ -74.92264, 10.968091 ], [ -74.922239, 10.968237 ], [ -74.922056, 10.968377 ], [ -74.921784, 10.96868 ], [ -74.921435, 10.969201 ], [ -74.921232, 10.969744 ], [ -74.920956, 10.970354 ], [ -74.920513, 10.970979 ], [ -74.920094, 10.971533 ], [ -74.919491, 10.972218 ], [ -74.920818, 10.972546 ], [ -74.920418, 10.974166 ], [ -74.919201, 10.975384 ], [ -74.918232, 10.975943 ], [ -74.915665, 10.977226 ], [ -74.91375, 10.9775 ], [ -74.910835, 10.977083 ], [ -74.908333, 10.97625 ], [ -74.907913, 10.975834 ], [ -74.907501, 10.976251 ], [ -74.904999, 10.977083 ], [ -74.904587, 10.9775 ], [ -74.903748, 10.981667 ], [ -74.902916, 10.983333 ], [ -74.902496, 10.984583 ], [ -74.902916, 10.985833 ], [ -74.903748, 10.986667 ], [ -74.904167, 10.989584 ], [ -74.903884, 10.991555 ], [ -74.903187, 10.992312 ], [ -74.901258, 10.99296 ], [ -74.89835, 10.997812 ], [ -74.888607, 10.991082 ], [ -74.889316, 10.989986 ], [ -74.889452, 10.989741 ], [ -74.889632, 10.989295 ], [ -74.889722, 10.988863 ], [ -74.889859, 10.987978 ], [ -74.890129, 10.985757 ], [ -74.890892, 10.979959 ], [ -74.891223, 10.977284 ], [ -74.891349, 10.976546 ], [ -74.891615, 10.975809 ], [ -74.891965, 10.975056 ], [ -74.892105, 10.974801 ], [ -74.892285, 10.974542 ], [ -74.892566, 10.974185 ], [ -74.893145, 10.973559 ], [ -74.893541, 10.973231 ], [ -74.893951, 10.972908 ], [ -74.894786, 10.972332 ], [ -74.89583, 10.971583 ], [ -74.89984, 10.968603 ], [ -74.900318, 10.968146 ], [ -74.900614, 10.967746 ], [ -74.90088, 10.967253 ], [ -74.901046, 10.966774 ], [ -74.901139, 10.966404 ], [ -74.901168, 10.966069 ], [ -74.901171, 10.96545 ], [ -74.901107, 10.96504 ], [ -74.901038, 10.964723 ], [ -74.900912, 10.964352 ], [ -74.900326, 10.962869 ], [ -74.89898, 10.959608 ], [ -74.89839, 10.958044 ], [ -74.898163, 10.957507 ], [ -74.897667, 10.956201 ], [ -74.897406, 10.955581 ] ] ] } },
{ "type": "Feature", "properties": { "id": null, "NOMBRE": "POLIGONO 12", "VIAS": "La Prosperidad, La Cordialidad, Via Caracoli y Malambo" }, "geometry": { "type": "Polygon", "coordinates": [ [ [ -74.875983, 10.918118 ], [ -74.875742, 10.918015 ], [ -74.874979, 10.91737 ], [ -74.874306, 10.916642 ], [ -74.873178, 10.914496 ], [ -74.870923, 10.910732 ], [ -74.867431, 10.902093 ], [ -74.86689, 10.900829 ], [ -74.866262, 10.899638 ], [ -74.865349, 10.898705 ], [ -74.864471, 10.898083 ], [ -74.862216, 10.896737 ], [ -74.858183, 10.894468 ], [ -74.852454, 10.891067 ], [ -74.846828, 10.88778 ], [ -74.851399, 10.884203 ], [ -74.856272, 10.879059 ], [ -74.85925, 10.875269 ], [ -74.860875, 10.87175 ], [ -74.863041, 10.865523 ], [ -74.865206, 10.861733 ], [ -74.86575, 10.860991 ], [ -74.86685, 10.860986 ], [ -74.867164, 10.860799 ], [ -74.867381, 10.86059 ], [ -74.867526, 10.86038 ], [ -74.867742, 10.859931 ], [ -74.867978, 10.859631 ], [ -74.868128, 10.859475 ], [ -74.868593, 10.85911 ], [ -74.869167, 10.858725 ], [ -74.8693, 10.858695 ], [ -74.869535, 10.858587 ], [ -74.869614, 10.858521 ], [ -74.869801, 10.858269 ], [ -74.869903, 10.858066 ], [ -74.869999, 10.857784 ], [ -74.870161, 10.857407 ], [ -74.870335, 10.856893 ], [ -74.870474, 10.856653 ], [ -74.87063, 10.856336 ], [ -74.870787, 10.85612 ], [ -74.87095, 10.85594 ], [ -74.871125, 10.855653 ], [ -74.871173, 10.855527 ], [ -74.87125, 10.85521 ], [ -74.87125, 10.854959 ], [ -74.871279, 10.854678 ], [ -74.871363, 10.854492 ], [ -74.871478, 10.854343 ], [ -74.871568, 10.854193 ], [ -74.87161, 10.854091 ], [ -74.871664, 10.853924 ], [ -74.871664, 10.853816 ], [ -74.871694, 10.853648 ], [ -74.871695, 10.853446 ], [ -74.872132, 10.853088 ], [ -74.874622, 10.852937 ], [ -74.876144, 10.852888 ], [ -74.88071, 10.852966 ], [ -74.882115, 10.852442 ], [ -74.883864, 10.851857 ], [ -74.88568, 10.85137 ], [ -74.88804, 10.850589 ], [ -74.889005, 10.85025 ], [ -74.889493, 10.850136 ], [ -74.891207, 10.849829 ], [ -74.891957, 10.850017 ], [ -74.892366, 10.850072 ], [ -74.892787, 10.850251 ], [ -74.892958, 10.850767 ], [ -74.89346, 10.85163 ], [ -74.894053, 10.85228 ], [ -74.894349, 10.852795 ], [ -74.895208, 10.852679 ], [ -74.895329, 10.853063 ], [ -74.895545, 10.853563 ], [ -74.896225, 10.855742 ], [ -74.896441, 10.856559 ], [ -74.896657, 10.857179 ], [ -74.896969, 10.858393 ], [ -74.896382, 10.861006 ], [ -74.895397, 10.864975 ], [ -74.894948, 10.867269 ], [ -74.893773, 10.871277 ], [ -74.892781, 10.87476 ], [ -74.890912, 10.880144 ], [ -74.888791, 10.886578 ], [ -74.887983, 10.888772 ], [ -74.88743, 10.889859 ], [ -74.887128, 10.890267 ], [ -74.885896, 10.891493 ], [ -74.885584, 10.891923 ], [ -74.884677, 10.893095 ], [ -74.884012, 10.893916 ], [ -74.883661, 10.894926 ], [ -74.883533, 10.896195 ], [ -74.882751, 10.90236 ], [ -74.882687, 10.903061 ], [ -74.882513, 10.906076 ], [ -74.882581, 10.906717 ], [ -74.882215, 10.907383 ], [ -74.882017, 10.90805 ], [ -74.881895, 10.908353 ], [ -74.881689, 10.908653 ], [ -74.881141, 10.909166 ], [ -74.880628, 10.909616 ], [ -74.879975, 10.910395 ], [ -74.879373, 10.91107 ], [ -74.878824, 10.911434 ], [ -74.878458, 10.912057 ], [ -74.877334, 10.913252 ], [ -74.876942, 10.913823 ], [ -74.876867, 10.914213 ], [ -74.876745, 10.91467 ], [ -74.876639, 10.915717 ], [ -74.876291, 10.917061 ], [ -74.875983, 10.918118 ] ] ] } },
{ "type": "Feature", "properties": { "id": null, "NOMBRE": "POLIGONO 09", "VIAS": "K 38, Galapa rural, la Prosperidad y La Cordialidad" }, "geometry": { "type": "Polygon", "coordinates": [ [ [ -74.897406, 10.955582 ], [ -74.896325, 10.952943 ], [ -74.896034, 10.947669 ], [ -74.895653, 10.941558 ], [ -74.897526, 10.936793 ], [ -74.89809, 10.935452 ], [ -74.898281, 10.934907 ], [ -74.898321, 10.934447 ], [ -74.898321, 10.93407 ], [ -74.898258, 10.933652 ], [ -74.898162, 10.933215 ], [ -74.897967, 10.93266 ], [ -74.897853, 10.932388 ], [ -74.897567, 10.931983 ], [ -74.897167, 10.931524 ], [ -74.896244, 10.930719 ], [ -74.894575, 10.929355 ], [ -74.89162, 10.926872 ], [ -74.890528, 10.9262 ], [ -74.886336, 10.925136 ], [ -74.883926, 10.924545 ], [ -74.882835, 10.924026 ], [ -74.881853, 10.92298 ], [ -74.881426, 10.922017 ], [ -74.880835, 10.920925 ], [ -74.880207, 10.92018 ], [ -74.879252, 10.91947 ], [ -74.877106, 10.918597 ], [ -74.875983, 10.918118 ], [ -74.876291, 10.917061 ], [ -74.876639, 10.915717 ], [ -74.876745, 10.91467 ], [ -74.876867, 10.914213 ], [ -74.876942, 10.913823 ], [ -74.877334, 10.913252 ], [ -74.878458, 10.912057 ], [ -74.878824, 10.911434 ], [ -74.879373, 10.91107 ], [ -74.879975, 10.910395 ], [ -74.880628, 10.909616 ], [ -74.881141, 10.909166 ], [ -74.881689, 10.908653 ], [ -74.881895, 10.908353 ], [ -74.882017, 10.90805 ], [ -74.882215, 10.907383 ], [ -74.882581, 10.906717 ], [ -74.882513, 10.906076 ], [ -74.882687, 10.903061 ], [ -74.882751, 10.90236 ], [ -74.883533, 10.896195 ], [ -74.883661, 10.894926 ], [ -74.884012, 10.893916 ], [ -74.884677, 10.893095 ], [ -74.885584, 10.891923 ], [ -74.885896, 10.891493 ], [ -74.887128, 10.890267 ], [ -74.88743, 10.889859 ], [ -74.887983, 10.888772 ], [ -74.888791, 10.886578 ], [ -74.890912, 10.880144 ], [ -74.892781, 10.87476 ], [ -74.893773, 10.871277 ], [ -74.894948, 10.867269 ], [ -74.895397, 10.864975 ], [ -74.896382, 10.861006 ], [ -74.896969, 10.858393 ], [ -74.896657, 10.857179 ], [ -74.896441, 10.856559 ], [ -74.896225, 10.855742 ], [ -74.895545, 10.853563 ], [ -74.895329, 10.853063 ], [ -74.895208, 10.852679 ], [ -74.89536, 10.852658 ], [ -74.895117, 10.851255 ], [ -74.895376, 10.850368 ], [ -74.896032, 10.849232 ], [ -74.899515, 10.843643 ], [ -74.899764, 10.843867 ], [ -74.901008, 10.845205 ], [ -74.901228, 10.845392 ], [ -74.901565, 10.845608 ], [ -74.901796, 10.845804 ], [ -74.901976, 10.846168 ], [ -74.902022, 10.846464 ], [ -74.902034, 10.847159 ], [ -74.901996, 10.847927 ], [ -74.901974, 10.848189 ], [ -74.901908, 10.848601 ], [ -74.901894, 10.848971 ], [ -74.901929, 10.849049 ], [ -74.902133, 10.849174 ], [ -74.902475, 10.849264 ], [ -74.902615, 10.84927 ], [ -74.902861, 10.849224 ], [ -74.902963, 10.849187 ], [ -74.903107, 10.849211 ], [ -74.903205, 10.849247 ], [ -74.903471, 10.849399 ], [ -74.903784, 10.849491 ], [ -74.904226, 10.849523 ], [ -74.904442, 10.849521 ], [ -74.905076, 10.849441 ], [ -74.905216, 10.849495 ], [ -74.905964, 10.84859 ], [ -74.906206, 10.848406 ], [ -74.906703, 10.84798 ], [ -74.907052, 10.847768 ], [ -74.907224, 10.847719 ], [ -74.907502, 10.847682 ], [ -74.907715, 10.847541 ], [ -74.907874, 10.847372 ], [ -74.908077, 10.847211 ], [ -74.908778, 10.846816 ], [ -74.909865, 10.846153 ], [ -74.910034, 10.845963 ], [ -74.910291, 10.84571 ], [ -74.910443, 10.845494 ], [ -74.910737, 10.84496 ], [ -74.910863, 10.844911 ], [ -74.911207, 10.844874 ], [ -74.911881, 10.844938 ], [ -74.912242, 10.844889 ], [ -74.91238, 10.844907 ], [ -74.912508, 10.844961 ], [ -74.912661, 10.845114 ], [ -74.912786, 10.845387 ], [ -74.912918, 10.845555 ], [ -74.91305, 10.845688 ], [ -74.913367, 10.845934 ], [ -74.913378, 10.84597 ], [ -74.913643, 10.845947 ], [ -74.913926, 10.845897 ], [ -74.913987, 10.845864 ], [ -74.914097, 10.845953 ], [ -74.914217, 10.846091 ], [ -74.914267, 10.846268 ], [ -74.914288, 10.846494 ], [ -74.91421, 10.846985 ], [ -74.914266, 10.84745 ], [ -74.91446, 10.847589 ], [ -74.914991, 10.84771 ], [ -74.917307, 10.847669 ], [ -74.918173, 10.847701 ], [ -74.919129, 10.847874 ], [ -74.919695, 10.848099 ], [ -74.920137, 10.848203 ], [ -74.920898, 10.848446 ], [ -74.921001, 10.848678 ], [ -74.920927, 10.848973 ], [ -74.920348, 10.849771 ], [ -74.920221, 10.849912 ], [ -74.920125, 10.850185 ], [ -74.920125, 10.850354 ], [ -74.920215, 10.850494 ], [ -74.920328, 10.850612 ], [ -74.9205, 10.850943 ], [ -74.92059, 10.851076 ], [ -74.920687, 10.851179 ], [ -74.920762, 10.851296 ], [ -74.920979, 10.85151 ], [ -74.921173, 10.85173 ], [ -74.921435, 10.851951 ], [ -74.921817, 10.852333 ], [ -74.922026, 10.852443 ], [ -74.92216, 10.852561 ], [ -74.922377, 10.852671 ], [ -74.922766, 10.852942 ], [ -74.922958, 10.853176 ], [ -74.923295, 10.853691 ], [ -74.923453, 10.854133 ], [ -74.923484, 10.854354 ], [ -74.923492, 10.854612 ], [ -74.923433, 10.854974 ], [ -74.923464, 10.855313 ], [ -74.923569, 10.855556 ], [ -74.923704, 10.855688 ], [ -74.923779, 10.855791 ], [ -74.923988, 10.855916 ], [ -74.924175, 10.856063 ], [ -74.924631, 10.856357 ], [ -74.924892, 10.856444 ], [ -74.925302, 10.856495 ], [ -74.925645, 10.856494 ], [ -74.926272, 10.856389 ], [ -74.926741, 10.856336 ], [ -74.927054, 10.856247 ], [ -74.927658, 10.856112 ], [ -74.928135, 10.855927 ], [ -74.928306, 10.855808 ], [ -74.928433, 10.855646 ], [ -74.928477, 10.855447 ], [ -74.928491, 10.855262 ], [ -74.928393, 10.854894 ], [ -74.928322, 10.85475 ], [ -74.928198, 10.854575 ], [ -74.928197, 10.854296 ], [ -74.928391, 10.854015 ], [ -74.928832, 10.85377 ], [ -74.929221, 10.853611 ], [ -74.929793, 10.853422 ], [ -74.931218, 10.853448 ], [ -74.931518, 10.853413 ], [ -74.932505, 10.853426 ], [ -74.932688, 10.853679 ], [ -74.9328, 10.853766 ], [ -74.932943, 10.853822 ], [ -74.933173, 10.853952 ], [ -74.933446, 10.854167 ], [ -74.933787, 10.854359 ], [ -74.934762, 10.854656 ], [ -74.935042, 10.854918 ], [ -74.935218, 10.855203 ], [ -74.935507, 10.855525 ], [ -74.935974, 10.85625 ], [ -74.936157, 10.856741 ], [ -74.936477, 10.857006 ], [ -74.936674, 10.857107 ], [ -74.936957, 10.857426 ], [ -74.93709, 10.857487 ], [ -74.937262, 10.8575 ], [ -74.937514, 10.857479 ], [ -74.938164, 10.857467 ], [ -74.938347, 10.8575 ], [ -74.938494, 10.857488 ], [ -74.938691, 10.857447 ], [ -74.938815, 10.857447 ], [ -74.93895, 10.857487 ], [ -74.939159, 10.857584 ], [ -74.939327, 10.857691 ], [ -74.939481, 10.857838 ], [ -74.939573, 10.857876 ], [ -74.939727, 10.85788 ], [ -74.939855, 10.857955 ], [ -74.940014, 10.858097 ], [ -74.940294, 10.858389 ], [ -74.940379, 10.858429 ], [ -74.94057, 10.858434 ], [ -74.940647, 10.85832 ], [ -74.940737, 10.858293 ], [ -74.941173, 10.858328 ], [ -74.941524, 10.858336 ], [ -74.941655, 10.858411 ], [ -74.942472, 10.858498 ], [ -74.942657, 10.858342 ], [ -74.942765, 10.858305 ], [ -74.942937, 10.858316 ], [ -74.943179, 10.858234 ], [ -74.943307, 10.858254 ], [ -74.943422, 10.858353 ], [ -74.94379, 10.858291 ], [ -74.943905, 10.858305 ], [ -74.944015, 10.858343 ], [ -74.944337, 10.858308 ], [ -74.944814, 10.85842 ], [ -74.944816, 10.858511 ], [ -74.944873, 10.858733 ], [ -74.944996, 10.859546 ], [ -74.94409, 10.860634 ], [ -74.943735, 10.860709 ], [ -74.943434, 10.860923 ], [ -74.942968, 10.861154 ], [ -74.942752, 10.861585 ], [ -74.942632, 10.862016 ], [ -74.942439, 10.862136 ], [ -74.942246, 10.862232 ], [ -74.941957, 10.862759 ], [ -74.941982, 10.863118 ], [ -74.941959, 10.863572 ], [ -74.942102, 10.863808 ], [ -74.942322, 10.864036 ], [ -74.94242, 10.864288 ], [ -74.942433, 10.864541 ], [ -74.942324, 10.864842 ], [ -74.941693, 10.865127 ], [ -74.940585, 10.865509 ], [ -74.94032, 10.865873 ], [ -74.939668, 10.866329 ], [ -74.939213, 10.866633 ], [ -74.93888, 10.866793 ], [ -74.938412, 10.866979 ], [ -74.938219, 10.867147 ], [ -74.938026, 10.867362 ], [ -74.937809, 10.867554 ], [ -74.937592, 10.867794 ], [ -74.937374, 10.867962 ], [ -74.936723, 10.868586 ], [ -74.936385, 10.868802 ], [ -74.936022, 10.868946 ], [ -74.935815, 10.868995 ], [ -74.935522, 10.868957 ], [ -74.935248, 10.868781 ], [ -74.93486, 10.868758 ], [ -74.934449, 10.868807 ], [ -74.934111, 10.868952 ], [ -74.933846, 10.869359 ], [ -74.933629, 10.869742 ], [ -74.93343, 10.869955 ], [ -74.934018, 10.870387 ], [ -74.934309, 10.870625 ], [ -74.934697, 10.871007 ], [ -74.93494, 10.871317 ], [ -74.935258, 10.87205 ], [ -74.935258, 10.872369 ], [ -74.935065, 10.87268 ], [ -74.934848, 10.872944 ], [ -74.934632, 10.873471 ], [ -74.934415, 10.873926 ], [ -74.934222, 10.874165 ], [ -74.933981, 10.874381 ], [ -74.933546, 10.874502 ], [ -74.933086, 10.87448 ], [ -74.932723, 10.874481 ], [ -74.932384, 10.874372 ], [ -74.932079, 10.874447 ], [ -74.931853, 10.874698 ], [ -74.931509, 10.874973 ], [ -74.930728, 10.875429 ], [ -74.930806, 10.875675 ], [ -74.930673, 10.875734 ], [ -74.930309, 10.876281 ], [ -74.93014, 10.876592 ], [ -74.929823, 10.877389 ], [ -74.929841, 10.877747 ], [ -74.929902, 10.878028 ], [ -74.92983, 10.878291 ], [ -74.929564, 10.878804 ], [ -74.92951, 10.879135 ], [ -74.929479, 10.879693 ], [ -74.929472, 10.880038 ], [ -74.92957, 10.880373 ], [ -74.929586, 10.880597 ], [ -74.929553, 10.880722 ], [ -74.929645, 10.881066 ], [ -74.929476, 10.881521 ], [ -74.929332, 10.881761 ], [ -74.929398, 10.882012 ], [ -74.929569, 10.882499 ], [ -74.929965, 10.88329 ], [ -74.930039, 10.8836 ], [ -74.930048, 10.883851 ], [ -74.929778, 10.884752 ], [ -74.929825, 10.885042 ], [ -74.929927, 10.885327 ], [ -74.930065, 10.885525 ], [ -74.930088, 10.885759 ], [ -74.929988, 10.88629 ], [ -74.930155, 10.886176 ], [ -74.930315, 10.886163 ], [ -74.930572, 10.886213 ], [ -74.931016, 10.886363 ], [ -74.931762, 10.886383 ], [ -74.931962, 10.886539 ], [ -74.93219, 10.886794 ], [ -74.932612, 10.887592 ], [ -74.932842, 10.888678 ], [ -74.932843, 10.889158 ], [ -74.932747, 10.88951 ], [ -74.932037, 10.890088 ], [ -74.931488, 10.890473 ], [ -74.931296, 10.890953 ], [ -74.931169, 10.891945 ], [ -74.93077, 10.892459 ], [ -74.930139, 10.893013 ], [ -74.929634, 10.893327 ], [ -74.92952, 10.893911 ], [ -74.92951, 10.894255 ], [ -74.92941, 10.894492 ], [ -74.929031, 10.894726 ], [ -74.92837, 10.895319 ], [ -74.928244, 10.895685 ], [ -74.928127, 10.896479 ], [ -74.927986, 10.897804 ], [ -74.927955, 10.898285 ], [ -74.928064, 10.89875 ], [ -74.928146, 10.899407 ], [ -74.928122, 10.899917 ], [ -74.924532, 10.935102 ], [ -74.923759, 10.936249 ], [ -74.923802, 10.936277 ], [ -74.923639, 10.936521 ], [ -74.923157, 10.937142 ], [ -74.922931, 10.937541 ], [ -74.922769, 10.937937 ], [ -74.922752, 10.938371 ], [ -74.922807, 10.939226 ], [ -74.922824, 10.940342 ], [ -74.922887, 10.941814 ], [ -74.922872, 10.942064 ], [ -74.922845, 10.942211 ], [ -74.92278, 10.942331 ], [ -74.922626, 10.942552 ], [ -74.921732, 10.943533 ], [ -74.921238, 10.944031 ], [ -74.921102, 10.944128 ], [ -74.919188, 10.945035 ], [ -74.918203, 10.945361 ], [ -74.917962, 10.945478 ], [ -74.915831, 10.946669 ], [ -74.911513, 10.948924 ], [ -74.898376, 10.955138 ], [ -74.897406, 10.955582 ] ] ] } },
{ "type": "Feature", "properties": { "id": null, "NOMBRE": "POLIGONO 11", "VIAS": "La Cordialidad, Soledad, Circunvalar y La Prosperidad" }, "geometry": { "type": "Polygon", "coordinates": [ [ [ -74.833718, 10.94333 ], [ -74.833877, 10.941707 ], [ -74.834076, 10.93926 ], [ -74.834352, 10.936521 ], [ -74.834407, 10.93554 ], [ -74.834404, 10.935117 ], [ -74.83422, 10.934034 ], [ -74.834038, 10.933264 ], [ -74.832966, 10.931435 ], [ -74.832544, 10.930991 ], [ -74.83167, 10.929969 ], [ -74.830051, 10.929112 ], [ -74.826273, 10.927277 ], [ -74.81905, 10.92414 ], [ -74.817446, 10.923485 ], [ -74.820807, 10.918314 ], [ -74.824868, 10.90911 ], [ -74.827034, 10.903154 ], [ -74.828388, 10.899093 ], [ -74.829741, 10.896927 ], [ -74.832449, 10.89422 ], [ -74.839758, 10.891513 ], [ -74.845173, 10.889076 ], [ -74.846828, 10.88778 ], [ -74.852454, 10.891067 ], [ -74.858183, 10.894468 ], [ -74.862216, 10.896737 ], [ -74.864471, 10.898083 ], [ -74.865349, 10.898705 ], [ -74.866262, 10.899638 ], [ -74.86689, 10.900829 ], [ -74.867431, 10.902093 ], [ -74.870923, 10.910732 ], [ -74.873178, 10.914496 ], [ -74.874306, 10.916642 ], [ -74.874979, 10.91737 ], [ -74.875742, 10.918015 ], [ -74.875983, 10.918118 ], [ -74.875953, 10.918222 ], [ -74.875227, 10.919208 ], [ -74.873816, 10.920155 ], [ -74.871191, 10.92165 ], [ -74.86801, 10.923844 ], [ -74.867041, 10.924782 ], [ -74.866485, 10.925701 ], [ -74.866101, 10.927672 ], [ -74.865538, 10.929431 ], [ -74.864103, 10.930743 ], [ -74.862594, 10.932243 ], [ -74.861688, 10.933106 ], [ -74.860826, 10.933777 ], [ -74.859414, 10.935469 ], [ -74.858336, 10.93654 ], [ -74.857479, 10.937077 ], [ -74.855891, 10.937458 ], [ -74.853445, 10.938249 ], [ -74.85211, 10.938441 ], [ -74.850861, 10.938563 ], [ -74.850076, 10.938603 ], [ -74.849483, 10.938881 ], [ -74.849113, 10.939013 ], [ -74.848001, 10.939644 ], [ -74.846413, 10.940644 ], [ -74.845062, 10.941328 ], [ -74.842891, 10.942356 ], [ -74.84056, 10.943069 ], [ -74.838336, 10.943701 ], [ -74.837981, 10.943693 ], [ -74.836449, 10.943551 ], [ -74.835918, 10.943519 ], [ -74.833718, 10.94333 ] ] ] } },
{ "type": "Feature", "properties": { "id": null, "NOMBRE": "POLIGONO 08", "VIAS": "K 38, La Cordialidad, Circunvalar y la Propseridad" }, "geometry": { "type": "Polygon", "coordinates": [ [ [ -74.836091, 10.981511 ], [ -74.836096, 10.980885 ], [ -74.836049, 10.980285 ], [ -74.836034, 10.97896 ], [ -74.836086, 10.977564 ], [ -74.836263, 10.975864 ], [ -74.836324, 10.975544 ], [ -74.83641, 10.974468 ], [ -74.836766, 10.972783 ], [ -74.837391, 10.970659 ], [ -74.838023, 10.968744 ], [ -74.838353, 10.967145 ], [ -74.838394, 10.966659 ], [ -74.838417, 10.965339 ], [ -74.838348, 10.964151 ], [ -74.838087, 10.962999 ], [ -74.837212, 10.959941 ], [ -74.836958, 10.959119 ], [ -74.835747, 10.954833 ], [ -74.834421, 10.950351 ], [ -74.833717, 10.947901 ], [ -74.833506, 10.946792 ], [ -74.833457, 10.946019 ], [ -74.833497, 10.94537 ], [ -74.833718, 10.94333 ], [ -74.835918, 10.943519 ], [ -74.836449, 10.943551 ], [ -74.837981, 10.943693 ], [ -74.838336, 10.943701 ], [ -74.84056, 10.943069 ], [ -74.842891, 10.942356 ], [ -74.845062, 10.941328 ], [ -74.846413, 10.940644 ], [ -74.848001, 10.939644 ], [ -74.849113, 10.939013 ], [ -74.849483, 10.938881 ], [ -74.850076, 10.938603 ], [ -74.850861, 10.938563 ], [ -74.85211, 10.938441 ], [ -74.853445, 10.938249 ], [ -74.855891, 10.937458 ], [ -74.857479, 10.937077 ], [ -74.858336, 10.93654 ], [ -74.859414, 10.935469 ], [ -74.860826, 10.933777 ], [ -74.861688, 10.933106 ], [ -74.862594, 10.932243 ], [ -74.864103, 10.930743 ], [ -74.865538, 10.929431 ], [ -74.866101, 10.927672 ], [ -74.866485, 10.925701 ], [ -74.867041, 10.924782 ], [ -74.86801, 10.923844 ], [ -74.871191, 10.92165 ], [ -74.873816, 10.920155 ], [ -74.875227, 10.919208 ], [ -74.875953, 10.918222 ], [ -74.875983, 10.918118 ], [ -74.877106, 10.918597 ], [ -74.879252, 10.91947 ], [ -74.880207, 10.92018 ], [ -74.880835, 10.920925 ], [ -74.881426, 10.922017 ], [ -74.881853, 10.92298 ], [ -74.882835, 10.924026 ], [ -74.883926, 10.924545 ], [ -74.886336, 10.925136 ], [ -74.890528, 10.9262 ], [ -74.89162, 10.926872 ], [ -74.894575, 10.929355 ], [ -74.896244, 10.930719 ], [ -74.897167, 10.931524 ], [ -74.897567, 10.931983 ], [ -74.897853, 10.932388 ], [ -74.897967, 10.93266 ], [ -74.898162, 10.933215 ], [ -74.898258, 10.933652 ], [ -74.898321, 10.93407 ], [ -74.898321, 10.934447 ], [ -74.898281, 10.934907 ], [ -74.89809, 10.935452 ], [ -74.897526, 10.936793 ], [ -74.895653, 10.941558 ], [ -74.896034, 10.947669 ], [ -74.896325, 10.952943 ], [ -74.897406, 10.955582 ], [ -74.890006, 10.958964 ], [ -74.884979, 10.961451 ], [ -74.879249, 10.964174 ], [ -74.878014, 10.964726 ], [ -74.877306, 10.965187 ], [ -74.876916, 10.965328 ], [ -74.875532, 10.965981 ], [ -74.872528, 10.967477 ], [ -74.87207, 10.967728 ], [ -74.864082, 10.971544 ], [ -74.861634, 10.972663 ], [ -74.858107, 10.974438 ], [ -74.853863, 10.976502 ], [ -74.852584, 10.977018 ], [ -74.851232, 10.977798 ], [ -74.8505, 10.978111 ], [ -74.849406, 10.978748 ], [ -74.846879, 10.979844 ], [ -74.84649, 10.980035 ], [ -74.845071, 10.980522 ], [ -74.8422, 10.981132 ], [ -74.839989, 10.981681 ], [ -74.837302, 10.982403 ], [ -74.836762, 10.98255 ], [ -74.836411, 10.982754 ], [ -74.836193, 10.982811 ], [ -74.836151, 10.98281 ], [ -74.836135, 10.981506 ], [ -74.836091, 10.981511 ] ] ] } },
{ "type": "Feature", "properties": { "id": null, "NOMBRE": "POLIGONO 02", "VIAS": "Via 40, K 46, Circunvalar y Prosperidad" }, "geometry": { "type": "Polygon", "coordinates": [ [ [ -74.827006, 11.038907 ], [ -74.82693, 11.038593 ], [ -74.826925, 11.037993 ], [ -74.826957, 11.037611 ], [ -74.827034, 11.037411 ], [ -74.827198, 11.037165 ], [ -74.828612, 11.03581 ], [ -74.83014, 11.034201 ], [ -74.831322, 11.033173 ], [ -74.832113, 11.031346 ], [ -74.833623, 11.02819 ], [ -74.835232, 11.024207 ], [ -74.836351, 11.021388 ], [ -74.837087, 11.019474 ], [ -74.838247, 11.016723 ], [ -74.840339, 11.011538 ], [ -74.8425, 11.012702 ], [ -74.84421, 11.013648 ], [ -74.845081, 11.014098 ], [ -74.848619, 11.015995 ], [ -74.848979, 11.016182 ], [ -74.849465, 11.016409 ], [ -74.850152, 11.01665 ], [ -74.850645, 11.016794 ], [ -74.851192, 11.016931 ], [ -74.851703, 11.017025 ], [ -74.852459, 11.017118 ], [ -74.853456, 11.017158 ], [ -74.85419, 11.017125 ], [ -74.858758, 11.016531 ], [ -74.86086, 11.016272 ], [ -74.862379, 11.016107 ], [ -74.869491, 11.015185 ], [ -74.870938, 11.01502 ], [ -74.874292, 11.014559 ], [ -74.876485, 11.014312 ], [ -74.87667, 11.015043 ], [ -74.87675, 11.015446 ], [ -74.87701, 11.016512 ], [ -74.877203, 11.017398 ], [ -74.87723, 11.017865 ], [ -74.877128, 11.018465 ], [ -74.87693, 11.018874 ], [ -74.876607, 11.019292 ], [ -74.876126, 11.019635 ], [ -74.873443, 11.021152 ], [ -74.873097, 11.021443 ], [ -74.87272, 11.021866 ], [ -74.870592, 11.024562 ], [ -74.870153, 11.025039 ], [ -74.869874, 11.025237 ], [ -74.869665, 11.025348 ], [ -74.86931, 11.025435 ], [ -74.868928, 11.02548 ], [ -74.86816, 11.025389 ], [ -74.867853, 11.025433 ], [ -74.86755, 11.025542 ], [ -74.867205, 11.025755 ], [ -74.8648, 11.027745 ], [ -74.864463, 11.027938 ], [ -74.864168, 11.028038 ], [ -74.863799, 11.028074 ], [ -74.861931, 11.027854 ], [ -74.861687, 11.027845 ], [ -74.861399, 11.027915 ], [ -74.860953, 11.028147 ], [ -74.860712, 11.028372 ], [ -74.860521, 11.028633 ], [ -74.859964, 11.030125 ], [ -74.859687, 11.030752 ], [ -74.859459, 11.031093 ], [ -74.85926, 11.031428 ], [ -74.858363, 11.031218 ], [ -74.853581, 11.029993 ], [ -74.852871, 11.029907 ], [ -74.850698, 11.029788 ], [ -74.850002, 11.029857 ], [ -74.84942, 11.029943 ], [ -74.846629, 11.030679 ], [ -74.842682, 11.031762 ], [ -74.840481, 11.032334 ], [ -74.839818, 11.032562 ], [ -74.839381, 11.032835 ], [ -74.838822, 11.033385 ], [ -74.838426, 11.033799 ], [ -74.837949, 11.034194 ], [ -74.837435, 11.034417 ], [ -74.836849, 11.034517 ], [ -74.835457, 11.034537 ], [ -74.834953, 11.034635 ], [ -74.834527, 11.034835 ], [ -74.832511, 11.036042 ], [ -74.830033, 11.037439 ], [ -74.828903, 11.038044 ], [ -74.82803, 11.038487 ], [ -74.827505, 11.038785 ], [ -74.827006, 11.038907 ] ] ] } },
{ "type": "Feature", "properties": { "id": null, "NOMBRE": "POLIGONO 10", "VIAS": "La Cordialidad, Barranquilla metropolitana y Circunvalar" }, "geometry": { "type": "Polygon", "coordinates": [ [ [ -74.817446, 10.923485 ], [ -74.81905, 10.92414 ], [ -74.826273, 10.927277 ], [ -74.830051, 10.929112 ], [ -74.83167, 10.929969 ], [ -74.832544, 10.930991 ], [ -74.832966, 10.931435 ], [ -74.834038, 10.933264 ], [ -74.83422, 10.934034 ], [ -74.834404, 10.935117 ], [ -74.834407, 10.93554 ], [ -74.834352, 10.936521 ], [ -74.834076, 10.93926 ], [ -74.833877, 10.941707 ], [ -74.833718, 10.94333 ], [ -74.832142, 10.943222 ], [ -74.831477, 10.943245 ], [ -74.830719, 10.943384 ], [ -74.828571, 10.943832 ], [ -74.827551, 10.944029 ], [ -74.825544, 10.944462 ], [ -74.824128, 10.944913 ], [ -74.818343, 10.946879 ], [ -74.818129, 10.9464 ], [ -74.817934, 10.945889 ], [ -74.817766, 10.945607 ], [ -74.817501, 10.945342 ], [ -74.817809, 10.944915 ], [ -74.817851, 10.944821 ], [ -74.818105, 10.943961 ], [ -74.817988, 10.943942 ], [ -74.817712, 10.943863 ], [ -74.817441, 10.943897 ], [ -74.817309, 10.943847 ], [ -74.817068, 10.943683 ], [ -74.817224, 10.94326 ], [ -74.81744, 10.94258 ], [ -74.817489, 10.942516 ], [ -74.817616, 10.942136 ], [ -74.817999, 10.941267 ], [ -74.81764, 10.941072 ], [ -74.817932, 10.940566 ], [ -74.81828, 10.940078 ], [ -74.817752, 10.939709 ], [ -74.817559, 10.939556 ], [ -74.816443, 10.938244 ], [ -74.816375, 10.938138 ], [ -74.815739, 10.93736 ], [ -74.814976, 10.936309 ], [ -74.815043, 10.936286 ], [ -74.815603, 10.936233 ], [ -74.815557, 10.936029 ], [ -74.815494, 10.935861 ], [ -74.815286, 10.935478 ], [ -74.814903, 10.934882 ], [ -74.814853, 10.934756 ], [ -74.814739, 10.934545 ], [ -74.814598, 10.934396 ], [ -74.814194, 10.93424 ], [ -74.81406, 10.934172 ], [ -74.813782, 10.934007 ], [ -74.813263, 10.933652 ], [ -74.813109, 10.933563 ], [ -74.81268, 10.933364 ], [ -74.813769, 10.930768 ], [ -74.817288, 10.923729 ], [ -74.817446, 10.923485 ] ] ] } },
{ "type": "Feature", "properties": { "id": null, "NOMBRE": "POLIGONO 07", "VIAS": "K 38, La Cordialidad, Baranquilla Suroccidente y Circunvalar" }, "geometry": { "type": "Polygon", "coordinates": [ [ [ -74.833718, 10.94333 ], [ -74.833497, 10.94537 ], [ -74.833457, 10.946019 ], [ -74.833506, 10.946792 ], [ -74.833717, 10.947901 ], [ -74.834421, 10.950351 ], [ -74.835747, 10.954833 ], [ -74.836958, 10.959119 ], [ -74.837212, 10.959941 ], [ -74.838087, 10.962999 ], [ -74.838348, 10.964151 ], [ -74.838417, 10.965339 ], [ -74.838394, 10.966659 ], [ -74.838353, 10.967145 ], [ -74.838023, 10.968744 ], [ -74.837391, 10.970659 ], [ -74.836766, 10.972783 ], [ -74.83641, 10.974468 ], [ -74.836324, 10.975544 ], [ -74.836263, 10.975864 ], [ -74.836086, 10.977564 ], [ -74.836034, 10.97896 ], [ -74.836049, 10.980285 ], [ -74.836096, 10.980885 ], [ -74.836091, 10.981511 ], [ -74.835594, 10.981566 ], [ -74.835082, 10.981686 ], [ -74.834745, 10.981704 ], [ -74.834758, 10.981395 ], [ -74.834892, 10.980304 ], [ -74.834203, 10.980468 ], [ -74.834229, 10.979545 ], [ -74.834205, 10.978415 ], [ -74.834008, 10.978383 ], [ -74.83395, 10.978116 ], [ -74.833867, 10.977452 ], [ -74.833665, 10.976098 ], [ -74.833477, 10.97552 ], [ -74.832211, 10.975944 ], [ -74.831956, 10.975274 ], [ -74.830898, 10.973148 ], [ -74.830445, 10.972196 ], [ -74.830213, 10.971105 ], [ -74.830101, 10.9707 ], [ -74.829901, 10.969402 ], [ -74.829219, 10.969576 ], [ -74.829121, 10.968824 ], [ -74.828964, 10.967854 ], [ -74.828839, 10.967413 ], [ -74.828709, 10.967126 ], [ -74.828382, 10.967248 ], [ -74.828262, 10.967269 ], [ -74.828146, 10.96652 ], [ -74.827994, 10.965894 ], [ -74.827904, 10.964849 ], [ -74.827736, 10.964006 ], [ -74.827576, 10.963522 ], [ -74.827536, 10.963347 ], [ -74.827374, 10.962951 ], [ -74.827155, 10.962564 ], [ -74.826712, 10.9616 ], [ -74.826577, 10.961398 ], [ -74.826045, 10.960964 ], [ -74.825912, 10.960874 ], [ -74.825637, 10.960753 ], [ -74.825245, 10.960609 ], [ -74.825282, 10.960536 ], [ -74.825508, 10.960284 ], [ -74.826133, 10.959702 ], [ -74.825482, 10.958904 ], [ -74.8247, 10.9579 ], [ -74.824375, 10.957375 ], [ -74.823799, 10.956698 ], [ -74.823699, 10.956558 ], [ -74.823659, 10.956414 ], [ -74.823632, 10.956102 ], [ -74.823625, 10.955638 ], [ -74.823632, 10.95505 ], [ -74.823729, 10.952324 ], [ -74.821735, 10.952236 ], [ -74.821699, 10.95089 ], [ -74.821759, 10.948466 ], [ -74.821784, 10.945741 ], [ -74.818343, 10.946879 ], [ -74.824128, 10.944913 ], [ -74.825544, 10.944462 ], [ -74.827551, 10.944029 ], [ -74.828571, 10.943832 ], [ -74.830719, 10.943384 ], [ -74.831477, 10.943245 ], [ -74.832142, 10.943222 ], [ -74.833718, 10.94333 ] ] ] } }
]
}
