{
"type": "FeatureCollection",
"name": "isocronas_puerto_camion",
"crs": { "type": "name", "properties": { "name": "urn:ogc:def:crs:OGC:1.3:CRS84" } },
"xy_coordinate_resolution": 1e-05,
"features": [
{ "type": "Feature", "properties": { "MINUTOS": 60, "ETIQUETA": "Hasta 60 min", "KM_VIA": 332.2 }, "geometry": { "type": "Polygon", "coordinates": [ [ [ -75.06996, 10.88808 ], [ -75.06736, 10.8896 ], [ -75.04953, 10.89513 ], [ -75.04463, 10.89569 ], [ -75.04186, 10.89767 ], [ -75.03333, 10.90649 ], [ -75.03165, 10.9137 ], [ -75.02994, 10.91605 ], [ -75.02565, 10.91949 ], [ -75.02448, 10.92462 ], [ -75.02446, 10.9258 ], [ -75.02752, 10.93388 ], [ -75.02742, 10.9362 ], [ -75.02661, 10.93827 ], [ -75.02259, 10.94384 ], [ -75.02029, 10.9456 ], [ -75.01743, 10.94634 ], [ -75.01319, 10.94604 ], [ -75.0088, 10.94723 ], [ -75.00717, 10.94962 ], [ -75.00775, 10.953 ], [ -75.0067, 10.95849 ], [ -75.00438, 10.96123 ], [ -75.00272, 10.96462 ], [ -74.99762, 10.97013 ], [ -74.99384, 10.9718 ], [ -74.98827, 10.97223 ], [ -74.96873, 10.9697 ], [ -74.95752, 10.97138 ], [ -74.95376, 10.9714 ], [ -74.9495, 10.97454 ], [ -74.94715, 10.98391 ], [ -74.94836, 10.99157 ], [ -74.94822, 10.9941 ], [ -74.94682, 10.99711 ], [ -74.94428, 11.00014 ], [ -74.94194, 11.00113 ], [ -74.92951, 11.00366 ], [ -74.91536, 11.01204 ], [ -74.91152, 11.01357 ], [ -74.88847, 11.01654 ], [ -74.88599, 11.01787 ], [ -74.88344, 11.01716 ], [ -74.88151, 11.0174 ], [ -74.87953, 11.02157 ], [ -74.87459, 11.02551 ], [ -74.8722, 11.02836 ], [ -74.86848, 11.02953 ], [ -74.86606, 11.03126 ], [ -74.86383, 11.03175 ], [ -74.86224, 11.03381 ], [ -74.86057, 11.03479 ], [ -74.85009, 11.03358 ], [ -74.84161, 11.03584 ], [ -74.83939, 11.03758 ], [ -74.83608, 11.03819 ], [ -74.82893, 11.04219 ], [ -74.82536, 11.04291 ], [ -74.81602, 11.04081 ], [ -74.80553, 11.03371 ], [ -74.79475, 11.02144 ], [ -74.79001, 11.01477 ], [ -74.78637, 11.00774 ], [ -74.78293, 11.00533 ], [ -74.78108, 11.00321 ], [ -74.77997, 10.99996 ], [ -74.77676, 10.99501 ], [ -74.77601, 10.99176 ], [ -74.77295, 10.98797 ], [ -74.77176, 10.9826 ], [ -74.77207, 10.97852 ], [ -74.76444, 10.97632 ], [ -74.76138, 10.97358 ], [ -74.75989, 10.97126 ], [ -74.75691, 10.97073 ], [ -74.7553, 10.96889 ], [ -74.75523, 10.96645 ], [ -74.75645, 10.96473 ], [ -74.75844, 10.96397 ], [ -74.76203, 10.96414 ], [ -74.76449, 10.96529 ], [ -74.7682, 10.97007 ], [ -74.77075, 10.97074 ], [ -74.77165, 10.96479 ], [ -74.77026, 10.95417 ], [ -74.76722, 10.9565 ], [ -74.76518, 10.95707 ], [ -74.76287, 10.95621 ], [ -74.7614, 10.95395 ], [ -74.75116, 10.95429 ], [ -74.74744, 10.96136 ], [ -74.73931, 10.9694 ], [ -74.73767, 10.97459 ], [ -74.73609, 10.97746 ], [ -74.72861, 10.98469 ], [ -74.70512, 10.99353 ], [ -74.69681, 11.00026 ], [ -74.69145, 11.00568 ], [ -74.68444, 11.00979 ], [ -74.68039, 11.01037 ], [ -74.66503, 11.00835 ], [ -74.6558, 11.00982 ], [ -74.64732, 11.01444 ], [ -74.63332, 11.01727 ], [ -74.63001, 11.01726 ], [ -74.62785, 11.01502 ], [ -74.62805, 11.01226 ], [ -74.62984, 11.01058 ], [ -74.64492, 11.00757 ], [ -74.65457, 11.00264 ], [ -74.66638, 11.00097 ], [ -74.68156, 11.00311 ], [ -74.68786, 10.99919 ], [ -74.69284, 10.99381 ], [ -74.70232, 10.98656 ], [ -74.72418, 10.97889 ], [ -74.73027, 10.97304 ], [ -74.73323, 10.96521 ], [ -74.74147, 10.95706 ], [ -74.74437, 10.95111 ], [ -74.74717, 10.94822 ], [ -74.75122, 10.94682 ], [ -74.76195, 10.94656 ], [ -74.76541, 10.94728 ], [ -74.76795, 10.94662 ], [ -74.76613, 10.94243 ], [ -74.76131, 10.93462 ], [ -74.75992, 10.92235 ], [ -74.76044, 10.91885 ], [ -74.76362, 10.91132 ], [ -74.76563, 10.90262 ], [ -74.7663, 10.88895 ], [ -74.7658, 10.88171 ], [ -74.76689, 10.87249 ], [ -74.76852, 10.86522 ], [ -74.76688, 10.86128 ], [ -74.76773, 10.85622 ], [ -74.76656, 10.84843 ], [ -74.76682, 10.8413 ], [ -74.76734, 10.83962 ], [ -74.76891, 10.83821 ], [ -74.77101, 10.8379 ], [ -74.77266, 10.83858 ], [ -74.77392, 10.84026 ], [ -74.77388, 10.84793 ], [ -74.77514, 10.85561 ], [ -74.77431, 10.86057 ], [ -74.78336, 10.85741 ], [ -74.81561, 10.85791 ], [ -74.82178, 10.85852 ], [ -74.81951, 10.84878 ], [ -74.81034, 10.852 ], [ -74.80168, 10.85365 ], [ -74.79911, 10.85256 ], [ -74.79808, 10.84966 ], [ -74.79529, 10.84844 ], [ -74.79437, 10.84618 ], [ -74.79535, 10.84358 ], [ -74.805, 10.8378 ], [ -74.78868, 10.82963 ], [ -74.77156, 10.83209 ], [ -74.76912, 10.83197 ], [ -74.76718, 10.8304 ], [ -74.76654, 10.8284 ], [ -74.76716, 10.82633 ], [ -74.76913, 10.82487 ], [ -74.78716, 10.82235 ], [ -74.79123, 10.82271 ], [ -74.81376, 10.83422 ], [ -74.82258, 10.84024 ], [ -74.8342, 10.84564 ], [ -74.8357, 10.84711 ], [ -74.83639, 10.84963 ], [ -74.84012, 10.85216 ], [ -74.84052, 10.85522 ], [ -74.83871, 10.85733 ], [ -74.83591, 10.85755 ], [ -74.83089, 10.85457 ], [ -74.82921, 10.85139 ], [ -74.82761, 10.85063 ], [ -74.82955, 10.85933 ], [ -74.8367, 10.8602 ], [ -74.8457, 10.8511 ], [ -74.84857, 10.85056 ], [ -74.85228, 10.85159 ], [ -74.85349, 10.85371 ], [ -74.85287, 10.85641 ], [ -74.8512, 10.8577 ], [ -74.84908, 10.8579 ], [ -74.84058, 10.86663 ], [ -74.83794, 10.8677 ], [ -74.83118, 10.86677 ], [ -74.83347, 10.87697 ], [ -74.83836, 10.87866 ], [ -74.84614, 10.88288 ], [ -74.8677, 10.89582 ], [ -74.86993, 10.89856 ], [ -74.87511, 10.9103 ], [ -74.87866, 10.90651 ], [ -74.8802, 10.89375 ], [ -74.88097, 10.89191 ], [ -74.88462, 10.88733 ], [ -74.89181, 10.86506 ], [ -74.89432, 10.8632 ], [ -74.8961, 10.86328 ], [ -74.89762, 10.86418 ], [ -74.89869, 10.86708 ], [ -74.89624, 10.87594 ], [ -74.89125, 10.8904 ], [ -74.88726, 10.8957 ], [ -74.88608, 10.90777 ], [ -74.88472, 10.91068 ], [ -74.8803, 10.91588 ], [ -74.88327, 10.91807 ], [ -74.88501, 10.92095 ], [ -74.89277, 10.92317 ], [ -74.89943, 10.92861 ], [ -74.90105, 10.93055 ], [ -74.90201, 10.93469 ], [ -74.89941, 10.94197 ], [ -74.89997, 10.95037 ], [ -74.91901, 10.94107 ], [ -74.91963, 10.93551 ], [ -74.92231, 10.93229 ], [ -74.92502, 10.93121 ], [ -74.92626, 10.92769 ], [ -74.92962, 10.92232 ], [ -74.93259, 10.92059 ], [ -74.93481, 10.92054 ], [ -74.93685, 10.92134 ], [ -74.93949, 10.92033 ], [ -74.94057, 10.91629 ], [ -74.94357, 10.91161 ], [ -74.94495, 10.9105 ], [ -74.9474, 10.91026 ], [ -74.94965, 10.91192 ], [ -74.95005, 10.91466 ], [ -74.94825, 10.91855 ], [ -74.94698, 10.91987 ], [ -74.9477, 10.92318 ], [ -74.94671, 10.92541 ], [ -74.94036, 10.92832 ], [ -74.93457, 10.92895 ], [ -74.93283, 10.93114 ], [ -74.93235, 10.93323 ], [ -74.93062, 10.93604 ], [ -74.92924, 10.93733 ], [ -74.92633, 10.93867 ], [ -74.92618, 10.9432 ], [ -74.9244, 10.94609 ], [ -74.92193, 10.94776 ], [ -74.90217, 10.95736 ], [ -74.90471, 10.96416 ], [ -74.90445, 10.96835 ], [ -74.90265, 10.97105 ], [ -74.8952, 10.9769 ], [ -74.89314, 10.99049 ], [ -74.88711, 11.00055 ], [ -74.89009, 11.00066 ], [ -74.89205, 10.99856 ], [ -74.89632, 10.99668 ], [ -74.8966, 10.99334 ], [ -74.8981, 10.99122 ], [ -74.89976, 10.9902 ], [ -74.90379, 10.99035 ], [ -74.90544, 10.991 ], [ -74.90673, 10.99267 ], [ -74.90686, 10.99477 ], [ -74.90579, 10.99658 ], [ -74.90373, 10.99753 ], [ -74.90306, 10.99998 ], [ -74.90079, 11.00276 ], [ -74.89713, 11.00397 ], [ -74.89615, 11.00572 ], [ -74.89248, 11.00866 ], [ -74.90991, 11.00641 ], [ -74.92662, 10.99684 ], [ -74.93995, 10.99396 ], [ -74.94092, 10.99247 ], [ -74.93967, 10.98288 ], [ -74.94245, 10.97191 ], [ -74.94454, 10.9688 ], [ -74.95085, 10.96449 ], [ -74.96873, 10.96229 ], [ -74.98682, 10.96482 ], [ -74.99157, 10.96461 ], [ -74.99376, 10.96356 ], [ -74.99993, 10.95519 ], [ -75.00025, 10.95262 ], [ -74.9996, 10.95006 ], [ -74.99977, 10.94792 ], [ -75.00332, 10.94215 ], [ -75.0074, 10.93972 ], [ -75.01307, 10.93855 ], [ -75.01698, 10.9389 ], [ -75.01996, 10.93489 ], [ -75.01677, 10.92604 ], [ -75.01867, 10.91661 ], [ -75.02026, 10.91426 ], [ -75.02489, 10.9104 ], [ -75.02663, 10.90297 ], [ -75.03639, 10.89285 ], [ -75.04219, 10.88886 ], [ -75.0476, 10.88815 ], [ -75.06501, 10.88273 ], [ -75.06738, 10.87988 ], [ -75.06896, 10.87907 ], [ -75.07108, 10.8792 ], [ -75.07297, 10.88078 ], [ -75.07345, 10.88282 ], [ -75.07251, 10.88504 ], [ -75.06996, 10.88808 ] ], [ [ -74.89195, 10.94134 ], [ -74.89458, 10.93414 ], [ -74.88916, 10.92966 ], [ -74.8809, 10.92719 ], [ -74.87692, 10.92244 ], [ -74.86995, 10.92703 ], [ -74.86852, 10.93152 ], [ -74.86029, 10.9396 ], [ -74.85458, 10.94169 ], [ -74.85098, 10.94218 ], [ -74.84397, 10.94581 ], [ -74.83734, 10.94727 ], [ -74.842, 10.96394 ], [ -74.84194, 10.96787 ], [ -74.83973, 10.97801 ], [ -74.84775, 10.97552 ], [ -74.89277, 10.95371 ], [ -74.89195, 10.94134 ] ], [ [ -74.86752, 10.91225 ], [ -74.86289, 10.90148 ], [ -74.83513, 10.88525 ], [ -74.83067, 10.8839 ], [ -74.82794, 10.88201 ], [ -74.82632, 10.87909 ], [ -74.82346, 10.86615 ], [ -74.81532, 10.86514 ], [ -74.78417, 10.86462 ], [ -74.77542, 10.86787 ], [ -74.7731, 10.88221 ], [ -74.77364, 10.88908 ], [ -74.77297, 10.9033 ], [ -74.78264, 10.92686 ], [ -74.78781, 10.92261 ], [ -74.79084, 10.92121 ], [ -74.79567, 10.92013 ], [ -74.79657, 10.9188 ], [ -74.79812, 10.91794 ], [ -74.80058, 10.91813 ], [ -74.8023, 10.91965 ], [ -74.81655, 10.91928 ], [ -74.82775, 10.92397 ], [ -74.83423, 10.92738 ], [ -74.8375, 10.9321 ], [ -74.83805, 10.9348 ], [ -74.83791, 10.94005 ], [ -74.84155, 10.93898 ], [ -74.84884, 10.9352 ], [ -74.85603, 10.9337 ], [ -74.86234, 10.92743 ], [ -74.86307, 10.92441 ], [ -74.86426, 10.92243 ], [ -74.87065, 10.91778 ], [ -74.86752, 10.91225 ] ], [ [ -74.81201, 10.84193 ], [ -74.807, 10.84522 ], [ -74.80837, 10.84502 ], [ -74.81403, 10.84306 ], [ -74.81201, 10.84193 ] ], [ [ -74.88914, 11.00844 ], [ -74.88876, 11.00906 ], [ -74.88877, 11.0091 ], [ -74.89041, 11.0089 ], [ -74.88914, 11.00844 ] ], [ [ -74.83075, 10.93543 ], [ -74.82933, 10.93283 ], [ -74.81514, 10.92646 ], [ -74.80263, 10.92688 ], [ -74.80154, 10.92835 ], [ -74.79957, 10.92913 ], [ -74.79729, 10.92868 ], [ -74.79592, 10.92739 ], [ -74.79309, 10.92811 ], [ -74.7902, 10.92972 ], [ -74.78517, 10.93527 ], [ -74.79, 10.95169 ], [ -74.79013, 10.95552 ], [ -74.78505, 10.96893 ], [ -74.7822, 10.97424 ], [ -74.78684, 10.97612 ], [ -74.79602, 10.97839 ], [ -74.79991, 10.98008 ], [ -74.80191, 10.97962 ], [ -74.80479, 10.97993 ], [ -74.81857, 10.98352 ], [ -74.82259, 10.98141 ], [ -74.82663, 10.9811 ], [ -74.82881, 10.98171 ], [ -74.83032, 10.98014 ], [ -74.83238, 10.97937 ], [ -74.83283, 10.97373 ], [ -74.83448, 10.96781 ], [ -74.83471, 10.96465 ], [ -74.82988, 10.94726 ], [ -74.81653, 10.95134 ], [ -74.80568, 10.96095 ], [ -74.79353, 10.96695 ], [ -74.79041, 10.96673 ], [ -74.78911, 10.96552 ], [ -74.78855, 10.96385 ], [ -74.78885, 10.96212 ], [ -74.78994, 10.96073 ], [ -74.80269, 10.95421 ], [ -74.81296, 10.94501 ], [ -74.82442, 10.94102 ], [ -74.83036, 10.93977 ], [ -74.83075, 10.93543 ] ], [ [ -74.77915, 10.98253 ], [ -74.78351, 10.98323 ], [ -74.80332, 10.98877 ], [ -74.81865, 10.99748 ], [ -74.82411, 10.9993 ], [ -74.83819, 11.00609 ], [ -74.83791, 11.00278 ], [ -74.8328, 10.98842 ], [ -74.83131, 10.98975 ], [ -74.82966, 10.99033 ], [ -74.82723, 10.99008 ], [ -74.82513, 10.98844 ], [ -74.82052, 10.99076 ], [ -74.8181, 10.9909 ], [ -74.80329, 10.98703 ], [ -74.79915, 10.98759 ], [ -74.79359, 10.98523 ], [ -74.78475, 10.98308 ], [ -74.77907, 10.98079 ], [ -74.77915, 10.98253 ] ], [ [ -74.84153, 10.9918 ], [ -74.84604, 11.00294 ], [ -74.84505, 11.00988 ], [ -74.85273, 11.01346 ], [ -74.87232, 11.0111 ], [ -74.87334, 11.008 ], [ -74.88605, 10.98821 ], [ -74.88772, 10.97579 ], [ -74.88868, 10.97333 ], [ -74.89071, 10.97082 ], [ -74.89745, 10.96574 ], [ -74.89526, 10.96055 ], [ -74.85088, 10.98206 ], [ -74.84627, 10.98394 ], [ -74.83991, 10.98545 ], [ -74.84153, 10.9918 ] ], [ [ -74.88084, 11.01002 ], [ -74.8808, 11.01008 ], [ -74.88146, 11.01 ], [ -74.88136, 11.00922 ], [ -74.88084, 11.01002 ] ], [ [ -74.8157, 11.0043 ], [ -74.8005, 10.99548 ], [ -74.78328, 10.99066 ], [ -74.78335, 10.99181 ], [ -74.78639, 10.99647 ], [ -74.78755, 10.99971 ], [ -74.79209, 11.00309 ], [ -74.79714, 11.01237 ], [ -74.80961, 11.02737 ], [ -74.81833, 11.03374 ], [ -74.824, 11.03522 ], [ -74.82497, 11.03411 ], [ -74.8192, 11.03335 ], [ -74.81469, 11.0309 ], [ -74.81357, 11.02954 ], [ -74.81323, 11.02781 ], [ -74.81444, 11.02531 ], [ -74.81672, 11.02439 ], [ -74.81847, 11.02474 ], [ -74.82139, 11.02644 ], [ -74.82975, 11.02758 ], [ -74.83378, 11.01687 ], [ -74.83318, 11.01461 ], [ -74.83413, 11.01245 ], [ -74.82604, 11.00833 ], [ -74.8157, 11.0043 ] ], [ [ -74.84195, 11.02258 ], [ -74.83932, 11.02405 ], [ -74.83693, 11.03011 ], [ -74.83923, 11.02889 ], [ -74.84929, 11.02625 ], [ -74.85698, 11.02698 ], [ -74.85806, 11.02528 ], [ -74.86065, 11.0241 ], [ -74.8629, 11.02198 ], [ -74.86745, 11.02177 ], [ -74.86926, 11.02025 ], [ -74.86969, 11.01888 ], [ -74.86022, 11.02052 ], [ -74.85288, 11.02084 ], [ -74.84915, 11.02022 ], [ -74.84475, 11.01809 ], [ -74.84262, 11.01999 ], [ -74.84195, 11.02258 ] ], [ [ -74.77677, 10.93517 ], [ -74.77665, 10.93217 ], [ -74.77003, 10.91522 ], [ -74.76734, 10.92132 ], [ -74.76819, 10.93163 ], [ -74.77384, 10.94199 ], [ -74.77677, 10.93517 ] ], [ [ -74.77748, 10.95142 ], [ -74.77896, 10.96443 ], [ -74.78296, 10.95387 ], [ -74.78043, 10.94517 ], [ -74.77748, 10.95142 ] ] ] } },
{ "type": "Feature", "properties": { "MINUTOS": 30, "ETIQUETA": "Hasta 30 min", "KM_VIA": 131.4 }, "geometry": { "type": "Polygon", "coordinates": [ [ [ -74.90341, 11.00805 ], [ -74.90511, 11.00982 ], [ -74.90529, 11.01225 ], [ -74.90387, 11.01424 ], [ -74.90221, 11.01487 ], [ -74.88847, 11.01654 ], [ -74.88599, 11.01787 ], [ -74.88344, 11.01716 ], [ -74.88151, 11.0174 ], [ -74.87953, 11.02157 ], [ -74.87459, 11.02551 ], [ -74.8722, 11.02836 ], [ -74.86848, 11.02953 ], [ -74.86606, 11.03126 ], [ -74.86383, 11.03175 ], [ -74.86091, 11.03468 ], [ -74.85898, 11.03492 ], [ -74.8506, 11.03348 ], [ -74.84161, 11.03584 ], [ -74.83939, 11.03758 ], [ -74.83608, 11.03819 ], [ -74.82936, 11.04199 ], [ -74.82686, 11.04276 ], [ -74.82342, 11.04269 ], [ -74.81902, 11.0417 ], [ -74.81464, 11.04008 ], [ -74.80494, 11.03316 ], [ -74.79803, 11.02552 ], [ -74.79126, 11.01669 ], [ -74.78637, 11.00774 ], [ -74.78184, 11.00426 ], [ -74.77997, 10.99996 ], [ -74.77676, 10.99501 ], [ -74.77601, 10.99176 ], [ -74.77307, 10.9883 ], [ -74.77176, 10.9826 ], [ -74.77207, 10.97852 ], [ -74.76444, 10.97632 ], [ -74.76138, 10.97358 ], [ -74.75989, 10.97126 ], [ -74.75723, 10.97089 ], [ -74.75544, 10.96921 ], [ -74.75514, 10.96679 ], [ -74.75645, 10.96473 ], [ -74.75844, 10.96397 ], [ -74.76203, 10.96414 ], [ -74.76449, 10.96529 ], [ -74.7682, 10.97007 ], [ -74.77075, 10.97074 ], [ -74.77165, 10.96479 ], [ -74.77026, 10.95417 ], [ -74.76722, 10.9565 ], [ -74.76518, 10.95707 ], [ -74.76287, 10.95621 ], [ -74.7614, 10.95395 ], [ -74.75155, 10.9541 ], [ -74.75059, 10.95493 ], [ -74.74744, 10.96136 ], [ -74.73914, 10.96947 ], [ -74.73709, 10.97002 ], [ -74.73508, 10.96935 ], [ -74.73378, 10.96768 ], [ -74.73363, 10.96559 ], [ -74.73444, 10.96402 ], [ -74.74147, 10.95706 ], [ -74.74467, 10.95065 ], [ -74.74745, 10.94805 ], [ -74.75156, 10.9468 ], [ -74.76195, 10.94656 ], [ -74.76541, 10.94728 ], [ -74.76795, 10.94662 ], [ -74.76613, 10.94243 ], [ -74.76131, 10.93462 ], [ -74.75992, 10.92204 ], [ -74.76034, 10.91917 ], [ -74.76306, 10.91302 ], [ -74.76475, 10.90654 ], [ -74.76629, 10.90509 ], [ -74.76874, 10.9048 ], [ -74.77059, 10.90583 ], [ -74.77158, 10.90806 ], [ -74.77421, 10.90838 ], [ -74.77586, 10.91019 ], [ -74.78312, 10.92817 ], [ -74.78393, 10.93299 ], [ -74.78501, 10.93476 ], [ -74.79009, 10.95211 ], [ -74.79013, 10.95552 ], [ -74.7891, 10.9587 ], [ -74.78505, 10.96893 ], [ -74.7822, 10.97424 ], [ -74.78684, 10.97612 ], [ -74.79602, 10.97839 ], [ -74.79991, 10.98008 ], [ -74.80191, 10.97962 ], [ -74.80479, 10.97993 ], [ -74.81857, 10.98352 ], [ -74.82259, 10.98141 ], [ -74.82663, 10.9811 ], [ -74.82881, 10.98171 ], [ -74.83032, 10.98014 ], [ -74.83238, 10.97937 ], [ -74.83283, 10.97373 ], [ -74.83485, 10.96638 ], [ -74.83684, 10.96444 ], [ -74.8393, 10.96433 ], [ -74.84106, 10.9655 ], [ -74.84188, 10.9678 ], [ -74.83973, 10.97801 ], [ -74.84314, 10.97802 ], [ -74.84451, 10.97913 ], [ -74.84519, 10.98075 ], [ -74.84502, 10.9825 ], [ -74.84403, 10.98397 ], [ -74.83991, 10.98545 ], [ -74.84153, 10.9918 ], [ -74.84604, 11.00294 ], [ -74.84505, 11.00988 ], [ -74.85273, 11.01346 ], [ -74.87232, 11.0111 ], [ -74.87334, 11.008 ], [ -74.88413, 10.99121 ], [ -74.88543, 10.99 ], [ -74.88714, 10.98954 ], [ -74.88975, 10.99054 ], [ -74.89092, 10.9928 ], [ -74.89071, 10.99454 ], [ -74.88713, 11.00051 ], [ -74.88626, 11.00336 ], [ -74.88828, 11.00645 ], [ -74.88877, 11.0091 ], [ -74.90124, 11.0077 ], [ -74.90341, 11.00805 ] ], [ [ -74.88143, 11.00979 ], [ -74.88136, 11.00922 ], [ -74.8808, 11.01008 ], [ -74.88143, 11.00979 ] ], [ [ -74.8157, 11.0043 ], [ -74.8005, 10.99548 ], [ -74.78328, 10.99066 ], [ -74.78335, 10.99181 ], [ -74.78639, 10.99647 ], [ -74.78755, 10.99971 ], [ -74.79209, 11.00309 ], [ -74.79714, 11.01237 ], [ -74.80961, 11.02737 ], [ -74.81833, 11.03374 ], [ -74.824, 11.03522 ], [ -74.82497, 11.03411 ], [ -74.8192, 11.03335 ], [ -74.81469, 11.0309 ], [ -74.81357, 11.02954 ], [ -74.81323, 11.02781 ], [ -74.81444, 11.02531 ], [ -74.81672, 11.02439 ], [ -74.81847, 11.02474 ], [ -74.82139, 11.02644 ], [ -74.82975, 11.02758 ], [ -74.83378, 11.01687 ], [ -74.83318, 11.01461 ], [ -74.83413, 11.01245 ], [ -74.82604, 11.00833 ], [ -74.8157, 11.0043 ] ], [ [ -74.7762, 10.93052 ], [ -74.77003, 10.91522 ], [ -74.76734, 10.92132 ], [ -74.76819, 10.93163 ], [ -74.77384, 10.94199 ], [ -74.77677, 10.93517 ], [ -74.7762, 10.93052 ] ], [ [ -74.77759, 10.95428 ], [ -74.77896, 10.96443 ], [ -74.78296, 10.95387 ], [ -74.78043, 10.94517 ], [ -74.77748, 10.95142 ], [ -74.77759, 10.95428 ] ], [ [ -74.77915, 10.98253 ], [ -74.78351, 10.98323 ], [ -74.80332, 10.98877 ], [ -74.81865, 10.99748 ], [ -74.82411, 10.9993 ], [ -74.83819, 11.00609 ], [ -74.83791, 11.00278 ], [ -74.8328, 10.98842 ], [ -74.83131, 10.98975 ], [ -74.82966, 10.99033 ], [ -74.82723, 10.99008 ], [ -74.82513, 10.98844 ], [ -74.82052, 10.99076 ], [ -74.8181, 10.9909 ], [ -74.80329, 10.98703 ], [ -74.79915, 10.98759 ], [ -74.79359, 10.98523 ], [ -74.78475, 10.98308 ], [ -74.77907, 10.98079 ], [ -74.77915, 10.98253 ] ], [ [ -74.84195, 11.02258 ], [ -74.83932, 11.02405 ], [ -74.83693, 11.03011 ], [ -74.83923, 11.02889 ], [ -74.84929, 11.02625 ], [ -74.85698, 11.02698 ], [ -74.85806, 11.02528 ], [ -74.86065, 11.0241 ], [ -74.8629, 11.02198 ], [ -74.86745, 11.02177 ], [ -74.86926, 11.02025 ], [ -74.86969, 11.01888 ], [ -74.86022, 11.02052 ], [ -74.85288, 11.02084 ], [ -74.84915, 11.02022 ], [ -74.84475, 11.01809 ], [ -74.84262, 11.01999 ], [ -74.84195, 11.02258 ] ] ] } },
{ "type": "Feature", "properties": { "MINUTOS": 15, "ETIQUETA": "Hasta 15 min", "KM_VIA": 17.5 }, "geometry": { "type": "Polygon", "coordinates": [ [ [ -74.79809, 10.98718 ], [ -74.79359, 10.98523 ], [ -74.78475, 10.98308 ], [ -74.77907, 10.98079 ], [ -74.77915, 10.98253 ], [ -74.79146, 10.9854 ], [ -74.7935, 10.98731 ], [ -74.79357, 10.99008 ], [ -74.79164, 10.99208 ], [ -74.78954, 10.99235 ], [ -74.78328, 10.99066 ], [ -74.78333, 10.99178 ], [ -74.78639, 10.99647 ], [ -74.78755, 10.99971 ], [ -74.7923, 11.00336 ], [ -74.7963, 11.01107 ], [ -74.80025, 11.01619 ], [ -74.80061, 11.01791 ], [ -74.7999, 11.01989 ], [ -74.79854, 11.02101 ], [ -74.79679, 11.02137 ], [ -74.79479, 11.02067 ], [ -74.7921, 11.01772 ], [ -74.78872, 11.01258 ], [ -74.78637, 11.00774 ], [ -74.78293, 11.00533 ], [ -74.78108, 11.00321 ], [ -74.77997, 10.99996 ], [ -74.77676, 10.99501 ], [ -74.77601, 10.99176 ], [ -74.77295, 10.98797 ], [ -74.77176, 10.9826 ], [ -74.77207, 10.97852 ], [ -74.76444, 10.97632 ], [ -74.76138, 10.97358 ], [ -74.75989, 10.97126 ], [ -74.75691, 10.97073 ], [ -74.7553, 10.96889 ], [ -74.75523, 10.96645 ], [ -74.75645, 10.96473 ], [ -74.75844, 10.96397 ], [ -74.76203, 10.96414 ], [ -74.76449, 10.96529 ], [ -74.7682, 10.97007 ], [ -74.77075, 10.97074 ], [ -74.77165, 10.96479 ], [ -74.77009, 10.95017 ], [ -74.77055, 10.94848 ], [ -74.77177, 10.9472 ], [ -74.77488, 10.94681 ], [ -74.77716, 10.94893 ], [ -74.77896, 10.96443 ], [ -74.78384, 10.95181 ], [ -74.7853, 10.9508 ], [ -74.78707, 10.95058 ], [ -74.78971, 10.95224 ], [ -74.79026, 10.95391 ], [ -74.78995, 10.95629 ], [ -74.78505, 10.96893 ], [ -74.7822, 10.97424 ], [ -74.78684, 10.97612 ], [ -74.79602, 10.97839 ], [ -74.80229, 10.98123 ], [ -74.80361, 10.98368 ], [ -74.80301, 10.98604 ], [ -74.80068, 10.98758 ], [ -74.79809, 10.98718 ] ] ] } }
]
}
