{
"type": "FeatureCollection",
"name": "limites_municipais_rmbs_ibge",
"crs": { "type": "name", "properties": { "name": "urn:ogc:def:crs:OGC:1.3:CRS84" } },
"xy_coordinate_resolution": 1e-06,
"features": [
{ "type": "Feature", "properties": { "cod_ibge": "3548500", "nome_mun": "Santos", "pop_2022": 418608, "regiao": "RMBS - Baixada Santista", "estado": "SP" }, "geometry": { "type": "MultiPolygon", "coordinates": [ [ [ [ -46.3551, -23.9711 ], [ -46.3563, -23.9672 ], [ -46.3567, -23.9669 ], [ -46.3624, -23.9526 ], [ -46.3657, -23.9526 ], [ -46.3829, -23.9496 ], [ -46.3835, -23.9482 ], [ -46.3825, -23.9472 ], [ -46.3849, -23.945 ], [ -46.3855, -23.9439 ], [ -46.3888, -23.9435 ], [ -46.3916, -23.9412 ], [ -46.3912, -23.94 ], [ -46.3868, -23.9366 ], [ -46.3858, -23.9348 ], [ -46.3863, -23.933 ], [ -46.3891, -23.93 ], [ -46.3923, -23.9272 ], [ -46.4004, -23.924 ], [ -46.403, -23.9218 ], [ -46.4028, -23.9205 ], [ -46.4017, -23.9193 ], [ -46.3987, -23.9183 ], [ -46.3947, -23.9187 ], [ -46.3909, -23.9186 ], [ -46.3756, -23.9154 ], [ -46.3701, -23.9139 ], [ -46.3686, -23.9124 ], [ -46.3688, -23.9109 ], [ -46.3707, -23.9086 ], [ -46.373, -23.9066 ], [ -46.376, -23.9031 ], [ -46.377, -23.9004 ], [ -46.3773, -23.8934 ], [ -46.3768, -23.8905 ], [ -46.3749, -23.8852 ], [ -46.3751, -23.8817 ], [ -46.3764, -23.879 ], [ -46.3763, -23.8755 ], [ -46.3749, -23.8683 ], [ -46.3711, -23.8661 ], [ -46.3694, -23.8638 ], [ -46.3689, -23.8618 ], [ -46.3695, -23.8601 ], [ -46.3673, -23.8574 ], [ -46.3654, -23.8517 ], [ -46.364, -23.85 ], [ -46.3609, -23.8486 ], [ -46.3588, -23.846 ], [ -46.3565, -23.845 ], [ -46.351, -23.8418 ], [ -46.3496, -23.8393 ], [ -46.3483, -23.8346 ], [ -46.3472, -23.8331 ], [ -46.3449, -23.831 ], [ -46.3442, -23.8298 ], [ -46.3437, -23.8252 ], [ -46.3426, -23.8234 ], [ -46.3399, -23.8208 ], [ -46.3375, -23.8178 ], [ -46.3323, -23.8127 ], [ -46.331, -23.8107 ], [ -46.3309, -23.8091 ], [ -46.3295, -23.8082 ], [ -46.3294, -23.8072 ], [ -46.3276, -23.8053 ], [ -46.3251, -23.8045 ], [ -46.3231, -23.8035 ], [ -46.3203, -23.8031 ], [ -46.3193, -23.8024 ], [ -46.3165, -23.802 ], [ -46.3159, -23.8009 ], [ -46.3118, -23.7971 ], [ -46.3109, -23.7968 ], [ -46.3086, -23.7944 ], [ -46.3089, -23.7936 ], [ -46.3026, -23.7879 ], [ -46.2997, -23.7869 ], [ -46.2981, -23.7881 ], [ -46.296, -23.7872 ], [ -46.2956, -23.786 ], [ -46.2938, -23.7837 ], [ -46.2913, -23.7812 ], [ -46.2889, -23.7797 ], [ -46.2872, -23.778 ], [ -46.2852, -23.7772 ], [ -46.2831, -23.775 ], [ -46.2811, -23.7734 ], [ -46.2784, -23.7703 ], [ -46.2745, -23.7679 ], [ -46.2739, -23.7663 ], [ -46.2701, -23.7658 ], [ -46.2655, -23.7671 ], [ -46.2639, -23.7678 ], [ -46.2622, -23.7672 ], [ -46.2603, -23.7679 ], [ -46.258, -23.7662 ], [ -46.2556, -23.7636 ], [ -46.2552, -23.7621 ], [ -46.2559, -23.7608 ], [ -46.2554, -23.7598 ], [ -46.2536, -23.7595 ], [ -46.2509, -23.7583 ], [ -46.2489, -23.7569 ], [ -46.247, -23.7531 ], [ -46.2467, -23.7518 ], [ -46.2475, -23.7505 ], [ -46.2479, -23.7472 ], [ -46.2478, -23.7462 ], [ -46.2455, -23.7451 ], [ -46.2452, -23.743 ], [ -46.244, -23.7418 ], [ -46.2418, -23.7408 ], [ -46.2416, -23.739 ], [ -46.2396, -23.7359 ], [ -46.2378, -23.7353 ], [ -46.2349, -23.7372 ], [ -46.2314, -23.7374 ], [ -46.2287, -23.7368 ], [ -46.2261, -23.7375 ], [ -46.2248, -23.7406 ], [ -46.2229, -23.7404 ], [ -46.221, -23.7423 ], [ -46.2177, -23.7441 ], [ -46.2114, -23.7414 ], [ -46.2102, -23.7417 ], [ -46.2086, -23.7434 ], [ -46.2079, -23.746 ], [ -46.2085, -23.749 ], [ -46.2083, -23.7511 ], [ -46.2066, -23.7517 ], [ -46.2038, -23.7509 ], [ -46.2024, -23.7513 ], [ -46.2035, -23.7525 ], [ -46.2051, -23.7559 ], [ -46.2062, -23.7572 ], [ -46.21, -23.7563 ], [ -46.213, -23.7572 ], [ -46.215, -23.7568 ], [ -46.2155, -23.7574 ], [ -46.2157, -23.7608 ], [ -46.2156, -23.7634 ], [ -46.2186, -23.7696 ], [ -46.22, -23.7706 ], [ -46.2208, -23.7728 ], [ -46.222, -23.7732 ], [ -46.2254, -23.7728 ], [ -46.2271, -23.7713 ], [ -46.2287, -23.7713 ], [ -46.231, -23.7719 ], [ -46.2342, -23.7716 ], [ -46.2366, -23.7729 ], [ -46.241, -23.7739 ], [ -46.2425, -23.7759 ], [ -46.2421, -23.7777 ], [ -46.2388, -23.7795 ], [ -46.2377, -23.7832 ], [ -46.2379, -23.7849 ], [ -46.2342, -23.7869 ], [ -46.2342, -23.7884 ], [ -46.2364, -23.7895 ], [ -46.2356, -23.7913 ], [ -46.2367, -23.7925 ], [ -46.2369, -23.7939 ], [ -46.2389, -23.7958 ], [ -46.2399, -23.7993 ], [ -46.2377, -23.799 ], [ -46.2364, -23.7996 ], [ -46.2355, -23.8015 ], [ -46.2337, -23.8031 ], [ -46.2308, -23.8042 ], [ -46.2262, -23.8075 ], [ -46.2244, -23.8097 ], [ -46.221, -23.8112 ], [ -46.2192, -23.8101 ], [ -46.2178, -23.8101 ], [ -46.2162, -23.8109 ], [ -46.2138, -23.8111 ], [ -46.2098, -23.8132 ], [ -46.211, -23.8152 ], [ -46.2122, -23.8203 ], [ -46.214, -23.8208 ], [ -46.2143, -23.8222 ], [ -46.213, -23.8225 ], [ -46.2121, -23.8241 ], [ -46.2133, -23.8254 ], [ -46.2184, -23.828 ], [ -46.2228, -23.8331 ], [ -46.226, -23.8319 ], [ -46.2293, -23.8334 ], [ -46.2326, -23.8356 ], [ -46.2355, -23.836 ], [ -46.2361, -23.8372 ], [ -46.2385, -23.8394 ], [ -46.2381, -23.8404 ], [ -46.2353, -23.8409 ], [ -46.2349, -23.8425 ], [ -46.2362, -23.8465 ], [ -46.2357, -23.8488 ], [ -46.2368, -23.8501 ], [ -46.2362, -23.8513 ], [ -46.2366, -23.8526 ], [ -46.2363, -23.8557 ], [ -46.2339, -23.8582 ], [ -46.2336, -23.8603 ], [ -46.2291, -23.8582 ], [ -46.2277, -23.8582 ], [ -46.2261, -23.8592 ], [ -46.2218, -23.8594 ], [ -46.2166, -23.8593 ], [ -46.2137, -23.861 ], [ -46.2122, -23.8623 ], [ -46.2111, -23.8643 ], [ -46.2098, -23.8655 ], [ -46.208, -23.8682 ], [ -46.2078, -23.8705 ], [ -46.2052, -23.8724 ], [ -46.2045, -23.8746 ], [ -46.2022, -23.875 ], [ -46.2003, -23.8764 ], [ -46.1994, -23.8792 ], [ -46.1995, -23.8801 ], [ -46.1973, -23.8811 ], [ -46.1941, -23.8803 ], [ -46.1914, -23.8816 ], [ -46.1857, -23.8821 ], [ -46.1824, -23.8818 ], [ -46.1798, -23.8823 ], [ -46.1786, -23.8834 ], [ -46.1786, -23.8863 ], [ -46.1779, -23.8874 ], [ -46.1778, -23.8889 ], [ -46.1812, -23.8896 ], [ -46.1865, -23.8916 ], [ -46.1897, -23.8938 ], [ -46.192, -23.8964 ], [ -46.1927, -23.8987 ], [ -46.1928, -23.904 ], [ -46.1939, -23.906 ], [ -46.195, -23.9072 ], [ -46.2005, -23.9106 ], [ -46.2058, -23.9147 ], [ -46.2093, -23.916 ], [ -46.2119, -23.9159 ], [ -46.214, -23.9148 ], [ -46.2183, -23.9116 ], [ -46.2208, -23.9105 ], [ -46.2256, -23.9098 ], [ -46.2285, -23.9105 ], [ -46.2331, -23.9141 ], [ -46.2349, -23.917 ], [ -46.2361, -23.92 ], [ -46.2376, -23.922 ], [ -46.2398, -23.9234 ], [ -46.2427, -23.9246 ], [ -46.246, -23.925 ], [ -46.247, -23.924 ], [ -46.2472, -23.9209 ], [ -46.2486, -23.9195 ], [ -46.251, -23.9202 ], [ -46.2536, -23.9197 ], [ -46.2544, -23.9202 ], [ -46.254, -23.9225 ], [ -46.255, -23.9239 ], [ -46.2562, -23.9238 ], [ -46.2568, -23.9214 ], [ -46.2577, -23.9207 ], [ -46.2605, -23.9226 ], [ -46.262, -23.9227 ], [ -46.2625, -23.9206 ], [ -46.264, -23.9187 ], [ -46.2663, -23.9183 ], [ -46.2712, -23.9183 ], [ -46.2744, -23.9179 ], [ -46.2787, -23.9167 ], [ -46.2793, -23.9169 ], [ -46.2803, -23.9195 ], [ -46.2817, -23.9203 ], [ -46.2848, -23.9209 ], [ -46.288, -23.9227 ], [ -46.2893, -23.923 ], [ -46.2923, -23.9225 ], [ -46.294, -23.9212 ], [ -46.2946, -23.9183 ], [ -46.2955, -23.9168 ], [ -46.2968, -23.9164 ], [ -46.2997, -23.9166 ], [ -46.3012, -23.9173 ], [ -46.3045, -23.9201 ], [ -46.3072, -23.921 ], [ -46.3091, -23.9221 ], [ -46.3102, -23.9234 ], [ -46.3114, -23.9262 ], [ -46.3117, -23.9279 ], [ -46.3115, -23.9336 ], [ -46.3106, -23.9401 ], [ -46.3097, -23.9451 ], [ -46.3085, -23.9493 ], [ -46.3068, -23.9531 ], [ -46.3052, -23.9554 ], [ -46.3026, -23.9585 ], [ -46.2976, -23.9638 ], [ -46.2926, -23.9697 ], [ -46.29, -23.9748 ], [ -46.2891, -23.9785 ], [ -46.2896, -23.9841 ], [ -46.2909, -23.9867 ], [ -46.2928, -23.9886 ], [ -46.2975, -23.9922 ], [ -46.3015, -23.9932 ], [ -46.3063, -23.9931 ], [ -46.3057, -23.9912 ], [ -46.3078, -23.9898 ], [ -46.3085, -23.9879 ], [ -46.3116, -23.9844 ], [ -46.315, -23.9812 ], [ -46.3175, -23.9791 ], [ -46.3204, -23.9769 ], [ -46.3255, -23.9747 ], [ -46.3323, -23.9727 ], [ -46.3356, -23.9721 ], [ -46.3421, -23.9714 ], [ -46.3473, -23.9706 ], [ -46.3497, -23.9708 ], [ -46.3525, -23.9724 ], [ -46.3551, -23.9711 ] ] ], [ [ [ -46.1825, -24.3213 ], [ -46.1829, -24.3201 ], [ -46.1805, -24.3182 ], [ -46.1799, -24.3192 ], [ -46.1825, -24.3213 ] ] ] ] } },
{ "type": "Feature", "properties": { "cod_ibge": "3551009", "nome_mun": "São Vicente", "pop_2022": 329844, "regiao": "RMBS - Baixada Santista", "estado": "SP" }, "geometry": { "type": "Polygon", "coordinates": [ [ [ -46.3919, -23.9986 ], [ -46.3928, -23.9953 ], [ -46.3964, -23.9936 ], [ -46.3978, -23.9892 ], [ -46.3988, -23.987 ], [ -46.4008, -23.9846 ], [ -46.4019, -23.9848 ], [ -46.4045, -23.9869 ], [ -46.4085, -23.988 ], [ -46.4135, -23.9862 ], [ -46.4179, -23.9832 ], [ -46.4204, -23.9801 ], [ -46.4216, -23.9783 ], [ -46.4229, -23.9774 ], [ -46.4259, -23.9786 ], [ -46.4291, -23.9784 ], [ -46.4316, -23.9775 ], [ -46.4332, -23.9779 ], [ -46.4336, -23.9789 ], [ -46.4333, -23.9814 ], [ -46.4336, -23.9832 ], [ -46.4346, -23.9844 ], [ -46.4358, -23.9848 ], [ -46.4398, -23.985 ], [ -46.4425, -23.9841 ], [ -46.4445, -23.9823 ], [ -46.446, -23.982 ], [ -46.4487, -23.9855 ], [ -46.451, -23.9872 ], [ -46.4533, -23.9898 ], [ -46.4546, -23.9907 ], [ -46.4592, -23.9915 ], [ -46.464, -23.9934 ], [ -46.4645, -23.9953 ], [ -46.4633, -23.998 ], [ -46.4644, -23.9989 ], [ -46.4662, -23.9983 ], [ -46.4687, -23.9956 ], [ -46.4703, -23.9952 ], [ -46.4707, -23.996 ], [ -46.4696, -23.9988 ], [ -46.4681, -24.0015 ], [ -46.4685, -24.0024 ], [ -46.4703, -24.0026 ], [ -46.4727, -24.002 ], [ -46.4735, -24.0022 ], [ -46.4756, -24.0052 ], [ -46.4787, -24.0053 ], [ -46.4818, -24.0045 ], [ -46.4823, -24.0057 ], [ -46.4836, -24.0064 ], [ -46.4845, -24.0047 ], [ -46.4837, -24.0025 ], [ -46.4855, -24.0021 ], [ -46.4852, -24.0007 ], [ -46.4858, -23.9995 ], [ -46.4895, -24.0023 ], [ -46.4902, -24.0008 ], [ -46.4914, -24.0018 ], [ -46.4922, -24.0036 ], [ -46.4951, -24.0026 ], [ -46.4961, -24.0018 ], [ -46.4951, -24.0005 ], [ -46.495, -23.9976 ], [ -46.4964, -23.9963 ], [ -46.506, -23.9901 ], [ -46.5066, -23.9893 ], [ -46.5093, -23.9878 ], [ -46.5091, -23.9857 ], [ -46.5102, -23.985 ], [ -46.5104, -23.9829 ], [ -46.5088, -23.9804 ], [ -46.509, -23.9795 ], [ -46.5106, -23.9775 ], [ -46.5121, -23.9771 ], [ -46.5135, -23.9749 ], [ -46.5137, -23.9726 ], [ -46.5126, -23.9707 ], [ -46.5134, -23.9696 ], [ -46.5133, -23.9682 ], [ -46.5142, -23.9667 ], [ -46.5142, -23.9651 ], [ -46.5153, -23.9639 ], [ -46.5179, -23.9626 ], [ -46.5219, -23.9585 ], [ -46.5219, -23.9575 ], [ -46.52, -23.9553 ], [ -46.5175, -23.9538 ], [ -46.518, -23.951 ], [ -46.5194, -23.9486 ], [ -46.5236, -23.9479 ], [ -46.5268, -23.9464 ], [ -46.5309, -23.9483 ], [ -46.5336, -23.9491 ], [ -46.5354, -23.9506 ], [ -46.5379, -23.9518 ], [ -46.5414, -23.9548 ], [ -46.5465, -23.9558 ], [ -46.5485, -23.9566 ], [ -46.5527, -23.9615 ], [ -46.5543, -23.9623 ], [ -46.5576, -23.9661 ], [ -46.561, -23.967 ], [ -46.5628, -23.9669 ], [ -46.5647, -23.9675 ], [ -46.5654, -23.9685 ], [ -46.5681, -23.9694 ], [ -46.5691, -23.9704 ], [ -46.5696, -23.9722 ], [ -46.5712, -23.9737 ], [ -46.5717, -23.975 ], [ -46.5734, -23.9768 ], [ -46.5733, -23.9796 ], [ -46.5757, -23.9799 ], [ -46.5754, -23.982 ], [ -46.5784, -23.985 ], [ -46.5793, -23.9854 ], [ -46.5841, -23.9857 ], [ -46.5883, -23.989 ], [ -46.5903, -23.9923 ], [ -46.5925, -23.9942 ], [ -46.5931, -23.9975 ], [ -46.5946, -23.9969 ], [ -46.598, -23.9974 ], [ -46.6004, -23.997 ], [ -46.6024, -23.9961 ], [ -46.6066, -23.9977 ], [ -46.6082, -23.9987 ], [ -46.61, -24.0013 ], [ -46.6127, -24.0012 ], [ -46.6153, -24.0021 ], [ -46.6171, -24.0038 ], [ -46.6187, -24.0064 ], [ -46.6204, -24.008 ], [ -46.6241, -24.0092 ], [ -46.6272, -24.0084 ], [ -46.6317, -24.01 ], [ -46.634, -24.0101 ], [ -46.6368, -24.0091 ], [ -46.6382, -24.0091 ], [ -46.6425, -24.0102 ], [ -46.6463, -24.0077 ], [ -46.6503, -24.0029 ], [ -46.6499, -24.0016 ], [ -46.6476, -23.9999 ], [ -46.6437, -23.9987 ], [ -46.6426, -23.9979 ], [ -46.6404, -23.9978 ], [ -46.6395, -23.9972 ], [ -46.6389, -23.9954 ], [ -46.6371, -23.9942 ], [ -46.6351, -23.9948 ], [ -46.6337, -23.9927 ], [ -46.6314, -23.9923 ], [ -46.6295, -23.9912 ], [ -46.6304, -23.9899 ], [ -46.6331, -23.988 ], [ -46.6333, -23.9838 ], [ -46.6348, -23.9811 ], [ -46.6357, -23.9773 ], [ -46.6312, -23.975 ], [ -46.6305, -23.9742 ], [ -46.6278, -23.9733 ], [ -46.6277, -23.9725 ], [ -46.625, -23.9723 ], [ -46.6242, -23.9712 ], [ -46.6229, -23.9713 ], [ -46.6205, -23.9707 ], [ -46.62, -23.9696 ], [ -46.618, -23.9678 ], [ -46.6167, -23.9681 ], [ -46.6158, -23.9673 ], [ -46.6133, -23.9685 ], [ -46.6119, -23.9678 ], [ -46.6094, -23.9676 ], [ -46.6073, -23.9658 ], [ -46.6003, -23.9636 ], [ -46.5981, -23.9633 ], [ -46.5964, -23.9641 ], [ -46.5953, -23.9654 ], [ -46.5922, -23.9629 ], [ -46.589, -23.9625 ], [ -46.5882, -23.9613 ], [ -46.5853, -23.9608 ], [ -46.5846, -23.9594 ], [ -46.5827, -23.9587 ], [ -46.5813, -23.9566 ], [ -46.5802, -23.9558 ], [ -46.5779, -23.957 ], [ -46.5756, -23.9543 ], [ -46.5743, -23.9535 ], [ -46.5722, -23.9532 ], [ -46.5713, -23.9525 ], [ -46.5696, -23.948 ], [ -46.5695, -23.9468 ], [ -46.5674, -23.9478 ], [ -46.5677, -23.9538 ], [ -46.5667, -23.9542 ], [ -46.5645, -23.9529 ], [ -46.5643, -23.9505 ], [ -46.5635, -23.9487 ], [ -46.561, -23.9465 ], [ -46.5595, -23.947 ], [ -46.5585, -23.946 ], [ -46.5569, -23.9435 ], [ -46.5566, -23.9417 ], [ -46.5537, -23.9406 ], [ -46.5524, -23.9406 ], [ -46.5519, -23.9393 ], [ -46.5523, -23.9373 ], [ -46.5509, -23.9365 ], [ -46.5503, -23.9347 ], [ -46.5482, -23.9329 ], [ -46.548, -23.9306 ], [ -46.5455, -23.9301 ], [ -46.5438, -23.9282 ], [ -46.5445, -23.9274 ], [ -46.5435, -23.926 ], [ -46.5405, -23.9235 ], [ -46.5375, -23.924 ], [ -46.5349, -23.9228 ], [ -46.5341, -23.9214 ], [ -46.5332, -23.9187 ], [ -46.5319, -23.9173 ], [ -46.5299, -23.9166 ], [ -46.526, -23.9158 ], [ -46.5244, -23.9134 ], [ -46.5232, -23.9133 ], [ -46.5209, -23.9118 ], [ -46.5225, -23.9099 ], [ -46.5217, -23.9093 ], [ -46.5223, -23.9077 ], [ -46.5213, -23.9073 ], [ -46.5201, -23.9055 ], [ -46.5174, -23.9049 ], [ -46.5154, -23.9058 ], [ -46.5124, -23.9043 ], [ -46.5082, -23.9042 ], [ -46.5064, -23.9049 ], [ -46.5031, -23.9045 ], [ -46.5006, -23.9023 ], [ -46.4993, -23.9024 ], [ -46.497, -23.9011 ], [ -46.4962, -23.8996 ], [ -46.4939, -23.9003 ], [ -46.4923, -23.9003 ], [ -46.4931, -23.9021 ], [ -46.4933, -23.9056 ], [ -46.4928, -23.9064 ], [ -46.4899, -23.9089 ], [ -46.4868, -23.9111 ], [ -46.4828, -23.915 ], [ -46.4795, -23.9174 ], [ -46.4756, -23.9185 ], [ -46.4717, -23.9185 ], [ -46.4688, -23.9168 ], [ -46.4632, -23.9153 ], [ -46.4603, -23.9118 ], [ -46.4571, -23.9093 ], [ -46.457, -23.9085 ], [ -46.4549, -23.9072 ], [ -46.4528, -23.9084 ], [ -46.4506, -23.9079 ], [ -46.4493, -23.9082 ], [ -46.4472, -23.9097 ], [ -46.4469, -23.9125 ], [ -46.4475, -23.9134 ], [ -46.4495, -23.9118 ], [ -46.4508, -23.9127 ], [ -46.4501, -23.9162 ], [ -46.4503, -23.9193 ], [ -46.4532, -23.9272 ], [ -46.4538, -23.9293 ], [ -46.4541, -23.9329 ], [ -46.4528, -23.9364 ], [ -46.4508, -23.9393 ], [ -46.4481, -23.9411 ], [ -46.4452, -23.9415 ], [ -46.4423, -23.9393 ], [ -46.4394, -23.9378 ], [ -46.437, -23.9377 ], [ -46.4326, -23.938 ], [ -46.429, -23.9375 ], [ -46.4256, -23.9358 ], [ -46.4224, -23.9348 ], [ -46.4123, -23.9343 ], [ -46.4101, -23.9345 ], [ -46.4067, -23.9342 ], [ -46.4014, -23.9357 ], [ -46.398, -23.9362 ], [ -46.3954, -23.9361 ], [ -46.3897, -23.9345 ], [ -46.3863, -23.933 ], [ -46.3858, -23.9348 ], [ -46.3868, -23.9366 ], [ -46.3912, -23.94 ], [ -46.3916, -23.9412 ], [ -46.3888, -23.9435 ], [ -46.3855, -23.9439 ], [ -46.3849, -23.945 ], [ -46.3825, -23.9472 ], [ -46.3835, -23.9482 ], [ -46.3829, -23.9496 ], [ -46.3657, -23.9526 ], [ -46.3624, -23.9526 ], [ -46.3567, -23.9669 ], [ -46.3563, -23.9672 ], [ -46.3551, -23.9711 ], [ -46.3577, -23.971 ], [ -46.3634, -23.972 ], [ -46.366, -23.9729 ], [ -46.3679, -23.9741 ], [ -46.3693, -23.9758 ], [ -46.3698, -23.9776 ], [ -46.3682, -23.9781 ], [ -46.3673, -23.9808 ], [ -46.3689, -23.9819 ], [ -46.3725, -23.9802 ], [ -46.3717, -23.9765 ], [ -46.3721, -23.9743 ], [ -46.3727, -23.9739 ], [ -46.375, -23.97 ], [ -46.3775, -23.9694 ], [ -46.3817, -23.9707 ], [ -46.3838, -23.9718 ], [ -46.3858, -23.9744 ], [ -46.3886, -23.9748 ], [ -46.3887, -23.9763 ], [ -46.3856, -23.978 ], [ -46.3837, -23.9784 ], [ -46.382, -23.9772 ], [ -46.3806, -23.9777 ], [ -46.3804, -23.9792 ], [ -46.3785, -23.9799 ], [ -46.3793, -23.9816 ], [ -46.3792, -23.9832 ], [ -46.3785, -23.9846 ], [ -46.3747, -23.9852 ], [ -46.3745, -23.9867 ], [ -46.3752, -23.9889 ], [ -46.3763, -23.9907 ], [ -46.3783, -23.9923 ], [ -46.3791, -23.9938 ], [ -46.3838, -23.9953 ], [ -46.3866, -23.9951 ], [ -46.3904, -23.9971 ], [ -46.3919, -23.9986 ] ] ] } },
{ "type": "Feature", "properties": { "cod_ibge": "3518701", "nome_mun": "Guarujá", "pop_2022": 287634, "regiao": "RMBS - Baixada Santista", "estado": "SP" }, "geometry": { "type": "MultiPolygon", "coordinates": [ [ [ [ -46.3063, -23.9931 ], [ -46.3015, -23.9932 ], [ -46.2975, -23.9922 ], [ -46.2928, -23.9886 ], [ -46.2909, -23.9867 ], [ -46.2896, -23.9841 ], [ -46.2891, -23.9785 ], [ -46.29, -23.9748 ], [ -46.2926, -23.9697 ], [ -46.2976, -23.9638 ], [ -46.3026, -23.9585 ], [ -46.3052, -23.9554 ], [ -46.3068, -23.9531 ], [ -46.3085, -23.9493 ], [ -46.3097, -23.9451 ], [ -46.3106, -23.9401 ], [ -46.3115, -23.9336 ], [ -46.3117, -23.9279 ], [ -46.3114, -23.9262 ], [ -46.3102, -23.9234 ], [ -46.3091, -23.9221 ], [ -46.3072, -23.921 ], [ -46.3045, -23.9201 ], [ -46.3012, -23.9173 ], [ -46.2997, -23.9166 ], [ -46.2968, -23.9164 ], [ -46.2955, -23.9168 ], [ -46.2946, -23.9183 ], [ -46.294, -23.9212 ], [ -46.2923, -23.9225 ], [ -46.2893, -23.923 ], [ -46.288, -23.9227 ], [ -46.2848, -23.9209 ], [ -46.2817, -23.9203 ], [ -46.2803, -23.9195 ], [ -46.2793, -23.9169 ], [ -46.2787, -23.9167 ], [ -46.2744, -23.9179 ], [ -46.2712, -23.9183 ], [ -46.2663, -23.9183 ], [ -46.264, -23.9187 ], [ -46.2625, -23.9206 ], [ -46.262, -23.9227 ], [ -46.2605, -23.9226 ], [ -46.2577, -23.9207 ], [ -46.2568, -23.9214 ], [ -46.2562, -23.9238 ], [ -46.255, -23.9239 ], [ -46.254, -23.9225 ], [ -46.2544, -23.9202 ], [ -46.2536, -23.9197 ], [ -46.251, -23.9202 ], [ -46.2486, -23.9195 ], [ -46.2472, -23.9209 ], [ -46.247, -23.924 ], [ -46.246, -23.925 ], [ -46.2427, -23.9246 ], [ -46.2398, -23.9234 ], [ -46.2376, -23.922 ], [ -46.2361, -23.92 ], [ -46.2349, -23.917 ], [ -46.2331, -23.9141 ], [ -46.2285, -23.9105 ], [ -46.2256, -23.9098 ], [ -46.2208, -23.9105 ], [ -46.2183, -23.9116 ], [ -46.214, -23.9148 ], [ -46.2119, -23.9159 ], [ -46.2093, -23.916 ], [ -46.2058, -23.9147 ], [ -46.2005, -23.9106 ], [ -46.195, -23.9072 ], [ -46.1939, -23.906 ], [ -46.1928, -23.904 ], [ -46.1927, -23.8987 ], [ -46.192, -23.8964 ], [ -46.1897, -23.8938 ], [ -46.1865, -23.8916 ], [ -46.1812, -23.8896 ], [ -46.1778, -23.8889 ], [ -46.174, -23.8878 ], [ -46.1731, -23.8872 ], [ -46.1699, -23.8837 ], [ -46.1659, -23.879 ], [ -46.161, -23.8745 ], [ -46.158, -23.8703 ], [ -46.1547, -23.863 ], [ -46.1522, -23.8608 ], [ -46.1406, -23.8579 ], [ -46.1366, -23.8573 ], [ -46.1332, -23.8565 ], [ -46.1331, -23.858 ], [ -46.1302, -23.8569 ], [ -46.127, -23.8567 ], [ -46.1253, -23.8572 ], [ -46.1252, -23.8588 ], [ -46.1238, -23.8607 ], [ -46.1258, -23.8617 ], [ -46.1275, -23.8631 ], [ -46.1288, -23.8633 ], [ -46.1304, -23.8627 ], [ -46.133, -23.8643 ], [ -46.1349, -23.8661 ], [ -46.1363, -23.8681 ], [ -46.1365, -23.8711 ], [ -46.1384, -23.8729 ], [ -46.1394, -23.876 ], [ -46.1376, -23.8774 ], [ -46.1403, -23.8793 ], [ -46.1409, -23.8808 ], [ -46.1402, -23.8829 ], [ -46.139, -23.8832 ], [ -46.1391, -23.8845 ], [ -46.1374, -23.8857 ], [ -46.1385, -23.889 ], [ -46.1381, -23.8899 ], [ -46.14, -23.8918 ], [ -46.1442, -23.8931 ], [ -46.1486, -23.8941 ], [ -46.1494, -23.8951 ], [ -46.1515, -23.8987 ], [ -46.1522, -23.9024 ], [ -46.1518, -23.9044 ], [ -46.1506, -23.9059 ], [ -46.1471, -23.9048 ], [ -46.147, -23.9063 ], [ -46.1488, -23.9066 ], [ -46.1509, -23.9082 ], [ -46.1525, -23.9078 ], [ -46.1551, -23.9092 ], [ -46.1564, -23.9093 ], [ -46.156, -23.9075 ], [ -46.1568, -23.9069 ], [ -46.1583, -23.9073 ], [ -46.1607, -23.9065 ], [ -46.1654, -23.9095 ], [ -46.1678, -23.9117 ], [ -46.1686, -23.9137 ], [ -46.1685, -23.9149 ], [ -46.1732, -23.9192 ], [ -46.1742, -23.9214 ], [ -46.1754, -23.9223 ], [ -46.1774, -23.9229 ], [ -46.1789, -23.9242 ], [ -46.1802, -23.9283 ], [ -46.1805, -23.9331 ], [ -46.1801, -23.9359 ], [ -46.1784, -23.939 ], [ -46.1753, -23.9412 ], [ -46.1739, -23.9416 ], [ -46.1733, -23.94 ], [ -46.1723, -23.9398 ], [ -46.1702, -23.9379 ], [ -46.1683, -23.9377 ], [ -46.1666, -23.9414 ], [ -46.1658, -23.9422 ], [ -46.1656, -23.9442 ], [ -46.1631, -23.9444 ], [ -46.1606, -23.9454 ], [ -46.1611, -23.9461 ], [ -46.165, -23.946 ], [ -46.1674, -23.9473 ], [ -46.168, -23.9492 ], [ -46.1703, -23.952 ], [ -46.1716, -23.9557 ], [ -46.1726, -23.9579 ], [ -46.1776, -23.9605 ], [ -46.1819, -23.9612 ], [ -46.1828, -23.9619 ], [ -46.1847, -23.9654 ], [ -46.1852, -23.9671 ], [ -46.1848, -23.9716 ], [ -46.1868, -23.9725 ], [ -46.186, -23.9743 ], [ -46.1862, -23.9758 ], [ -46.1873, -23.9772 ], [ -46.1869, -23.978 ], [ -46.1853, -23.978 ], [ -46.1864, -23.9828 ], [ -46.1847, -23.9826 ], [ -46.1863, -23.9853 ], [ -46.1861, -23.9873 ], [ -46.1844, -23.9875 ], [ -46.1839, -23.9886 ], [ -46.1817, -23.9893 ], [ -46.1822, -23.9911 ], [ -46.1848, -23.9922 ], [ -46.1861, -23.9919 ], [ -46.1881, -23.9899 ], [ -46.1913, -23.9899 ], [ -46.1927, -23.9917 ], [ -46.1952, -23.9932 ], [ -46.1957, -23.994 ], [ -46.1978, -23.9948 ], [ -46.2004, -23.9951 ], [ -46.2009, -23.9964 ], [ -46.1997, -23.9974 ], [ -46.2007, -23.9995 ], [ -46.2025, -24.0006 ], [ -46.2054, -24.0006 ], [ -46.2068, -24.0002 ], [ -46.2076, -23.9984 ], [ -46.2045, -23.995 ], [ -46.2027, -23.9941 ], [ -46.203, -23.9924 ], [ -46.2048, -23.9901 ], [ -46.2092, -23.9872 ], [ -46.2119, -23.9864 ], [ -46.2144, -23.9861 ], [ -46.2177, -23.9865 ], [ -46.2279, -23.9882 ], [ -46.2397, -23.9908 ], [ -46.2425, -23.9917 ], [ -46.2474, -23.9939 ], [ -46.2481, -23.9958 ], [ -46.2501, -23.9967 ], [ -46.2514, -23.9963 ], [ -46.2532, -23.9972 ], [ -46.2557, -23.9996 ], [ -46.2571, -23.9995 ], [ -46.2593, -24.0001 ], [ -46.2628, -24.0021 ], [ -46.2652, -24.0041 ], [ -46.2674, -24.0074 ], [ -46.2674, -24.0091 ], [ -46.2653, -24.0101 ], [ -46.2629, -24.0135 ], [ -46.2659, -24.0144 ], [ -46.2675, -24.0131 ], [ -46.2693, -24.0132 ], [ -46.2745, -24.0159 ], [ -46.2755, -24.0168 ], [ -46.2764, -24.019 ], [ -46.278, -24.0199 ], [ -46.2799, -24.0223 ], [ -46.2794, -24.0249 ], [ -46.2803, -24.026 ], [ -46.2802, -24.0273 ], [ -46.2776, -24.0311 ], [ -46.2781, -24.0364 ], [ -46.2804, -24.0377 ], [ -46.2816, -24.0379 ], [ -46.2818, -24.04 ], [ -46.2826, -24.0417 ], [ -46.2826, -24.043 ], [ -46.2854, -24.0439 ], [ -46.2875, -24.0451 ], [ -46.2893, -24.0446 ], [ -46.2877, -24.0421 ], [ -46.2898, -24.0406 ], [ -46.2887, -24.0386 ], [ -46.2891, -24.0365 ], [ -46.2876, -24.036 ], [ -46.288, -24.0344 ], [ -46.2847, -24.0324 ], [ -46.2844, -24.0303 ], [ -46.2857, -24.0282 ], [ -46.2841, -24.0265 ], [ -46.2861, -24.0242 ], [ -46.2887, -24.0256 ], [ -46.2899, -24.0244 ], [ -46.2921, -24.0231 ], [ -46.2925, -24.0219 ], [ -46.2908, -24.0197 ], [ -46.2925, -24.0178 ], [ -46.295, -24.016 ], [ -46.2993, -24.016 ], [ -46.3016, -24.0181 ], [ -46.3046, -24.0195 ], [ -46.3063, -24.0217 ], [ -46.3062, -24.0223 ], [ -46.3078, -24.0246 ], [ -46.3093, -24.0259 ], [ -46.3112, -24.0287 ], [ -46.3127, -24.027 ], [ -46.3122, -24.0216 ], [ -46.313, -24.0208 ], [ -46.3153, -24.0203 ], [ -46.3167, -24.0216 ], [ -46.3177, -24.024 ], [ -46.3201, -24.0243 ], [ -46.3214, -24.0227 ], [ -46.3235, -24.0229 ], [ -46.3247, -24.0213 ], [ -46.3233, -24.0183 ], [ -46.3229, -24.0163 ], [ -46.3229, -24.0134 ], [ -46.3236, -24.012 ], [ -46.3223, -24.0097 ], [ -46.3235, -24.0095 ], [ -46.322, -24.007 ], [ -46.3212, -24.0042 ], [ -46.3201, -24.003 ], [ -46.3205, -24.0013 ], [ -46.3222, -24.0005 ], [ -46.3212, -23.9988 ], [ -46.3194, -23.9973 ], [ -46.3175, -23.9978 ], [ -46.3166, -23.9971 ], [ -46.3156, -23.9982 ], [ -46.3133, -23.9983 ], [ -46.3107, -23.996 ], [ -46.3083, -23.9957 ], [ -46.3067, -23.9942 ], [ -46.3063, -23.9931 ] ] ], [ [ [ -46.2605, -24.0451 ], [ -46.2626, -24.048 ], [ -46.2618, -24.0491 ], [ -46.2617, -24.0506 ], [ -46.2604, -24.0514 ], [ -46.2608, -24.0524 ], [ -46.2624, -24.0527 ], [ -46.2647, -24.0518 ], [ -46.2662, -24.0494 ], [ -46.2645, -24.0483 ], [ -46.2627, -24.0452 ], [ -46.2605, -24.0451 ] ] ], [ [ [ -46.1809, -23.9707 ], [ -46.1801, -23.9711 ], [ -46.1814, -23.9729 ], [ -46.1813, -23.9752 ], [ -46.1822, -23.9757 ], [ -46.1844, -23.9743 ], [ -46.1837, -23.9722 ], [ -46.1825, -23.9711 ], [ -46.1809, -23.9707 ] ] ] ] } },
{ "type": "Feature", "properties": { "cod_ibge": "3513504", "nome_mun": "Cubatão", "pop_2022": 112471, "regiao": "RMBS - Baixada Santista", "estado": "SP" }, "geometry": { "type": "Polygon", "coordinates": [ [ [ -46.4103, -23.8154 ], [ -46.4085, -23.8148 ], [ -46.408, -23.8132 ], [ -46.4059, -23.8124 ], [ -46.4024, -23.8118 ], [ -46.3962, -23.8118 ], [ -46.3942, -23.8143 ], [ -46.3927, -23.8121 ], [ -46.3896, -23.81 ], [ -46.3863, -23.8093 ], [ -46.3836, -23.8097 ], [ -46.3827, -23.8091 ], [ -46.3807, -23.8061 ], [ -46.3776, -23.8041 ], [ -46.3768, -23.8019 ], [ -46.3755, -23.8001 ], [ -46.3747, -23.7977 ], [ -46.3733, -23.7955 ], [ -46.3745, -23.7946 ], [ -46.3772, -23.7948 ], [ -46.3764, -23.7935 ], [ -46.372, -23.7898 ], [ -46.3704, -23.7911 ], [ -46.3688, -23.7915 ], [ -46.3677, -23.7925 ], [ -46.3621, -23.7913 ], [ -46.3612, -23.7924 ], [ -46.3587, -23.7922 ], [ -46.357, -23.7913 ], [ -46.3544, -23.7915 ], [ -46.3536, -23.7905 ], [ -46.3538, -23.7887 ], [ -46.352, -23.7879 ], [ -46.3491, -23.7872 ], [ -46.3484, -23.7878 ], [ -46.3452, -23.7875 ], [ -46.3435, -23.7847 ], [ -46.3423, -23.7838 ], [ -46.3386, -23.7817 ], [ -46.3356, -23.7812 ], [ -46.3318, -23.7813 ], [ -46.3315, -23.782 ], [ -46.3295, -23.7823 ], [ -46.3289, -23.7832 ], [ -46.3253, -23.7842 ], [ -46.3235, -23.7853 ], [ -46.3208, -23.7851 ], [ -46.3202, -23.7855 ], [ -46.3203, -23.8031 ], [ -46.3231, -23.8035 ], [ -46.3251, -23.8045 ], [ -46.3276, -23.8053 ], [ -46.3294, -23.8072 ], [ -46.3295, -23.8082 ], [ -46.3309, -23.8091 ], [ -46.331, -23.8107 ], [ -46.3323, -23.8127 ], [ -46.3375, -23.8178 ], [ -46.3399, -23.8208 ], [ -46.3426, -23.8234 ], [ -46.3437, -23.8252 ], [ -46.3442, -23.8298 ], [ -46.3449, -23.831 ], [ -46.3472, -23.8331 ], [ -46.3483, -23.8346 ], [ -46.3496, -23.8393 ], [ -46.351, -23.8418 ], [ -46.3565, -23.845 ], [ -46.3588, -23.846 ], [ -46.3609, -23.8486 ], [ -46.364, -23.85 ], [ -46.3654, -23.8517 ], [ -46.3673, -23.8574 ], [ -46.3695, -23.8601 ], [ -46.3689, -23.8618 ], [ -46.3694, -23.8638 ], [ -46.3711, -23.8661 ], [ -46.3749, -23.8683 ], [ -46.3763, -23.8755 ], [ -46.3764, -23.879 ], [ -46.3751, -23.8817 ], [ -46.3749, -23.8852 ], [ -46.3768, -23.8905 ], [ -46.3773, -23.8934 ], [ -46.377, -23.9004 ], [ -46.376, -23.9031 ], [ -46.373, -23.9066 ], [ -46.3707, -23.9086 ], [ -46.3688, -23.9109 ], [ -46.3686, -23.9124 ], [ -46.3701, -23.9139 ], [ -46.3756, -23.9154 ], [ -46.3909, -23.9186 ], [ -46.3947, -23.9187 ], [ -46.3987, -23.9183 ], [ -46.4017, -23.9193 ], [ -46.4028, -23.9205 ], [ -46.403, -23.9218 ], [ -46.4004, -23.924 ], [ -46.3923, -23.9272 ], [ -46.3891, -23.93 ], [ -46.3863, -23.933 ], [ -46.3897, -23.9345 ], [ -46.3954, -23.9361 ], [ -46.398, -23.9362 ], [ -46.4014, -23.9357 ], [ -46.4067, -23.9342 ], [ -46.4101, -23.9345 ], [ -46.4123, -23.9343 ], [ -46.4224, -23.9348 ], [ -46.4256, -23.9358 ], [ -46.429, -23.9375 ], [ -46.4326, -23.938 ], [ -46.437, -23.9377 ], [ -46.4394, -23.9378 ], [ -46.4423, -23.9393 ], [ -46.4452, -23.9415 ], [ -46.4481, -23.9411 ], [ -46.4508, -23.9393 ], [ -46.4528, -23.9364 ], [ -46.4541, -23.9329 ], [ -46.4538, -23.9293 ], [ -46.4532, -23.9272 ], [ -46.4503, -23.9193 ], [ -46.4501, -23.9162 ], [ -46.4508, -23.9127 ], [ -46.4495, -23.9118 ], [ -46.4475, -23.9134 ], [ -46.4469, -23.9125 ], [ -46.4472, -23.9097 ], [ -46.4493, -23.9082 ], [ -46.4506, -23.9079 ], [ -46.4528, -23.9084 ], [ -46.4549, -23.9072 ], [ -46.457, -23.9085 ], [ -46.4571, -23.9093 ], [ -46.4603, -23.9118 ], [ -46.4632, -23.9153 ], [ -46.4688, -23.9168 ], [ -46.4717, -23.9185 ], [ -46.4756, -23.9185 ], [ -46.4795, -23.9174 ], [ -46.4828, -23.915 ], [ -46.4868, -23.9111 ], [ -46.4899, -23.9089 ], [ -46.4928, -23.9064 ], [ -46.4933, -23.9056 ], [ -46.4931, -23.9021 ], [ -46.4923, -23.9003 ], [ -46.4939, -23.9003 ], [ -46.4962, -23.8996 ], [ -46.493, -23.8956 ], [ -46.493, -23.8919 ], [ -46.4923, -23.89 ], [ -46.4902, -23.8882 ], [ -46.4884, -23.8854 ], [ -46.4858, -23.8835 ], [ -46.4837, -23.8839 ], [ -46.4844, -23.8857 ], [ -46.4829, -23.8858 ], [ -46.4813, -23.8842 ], [ -46.4802, -23.8821 ], [ -46.4778, -23.8791 ], [ -46.477, -23.8794 ], [ -46.4749, -23.8785 ], [ -46.4743, -23.8766 ], [ -46.473, -23.8748 ], [ -46.4709, -23.8733 ], [ -46.4694, -23.8729 ], [ -46.4688, -23.8714 ], [ -46.4677, -23.8707 ], [ -46.4671, -23.8673 ], [ -46.4664, -23.8656 ], [ -46.4673, -23.8641 ], [ -46.4668, -23.8627 ], [ -46.4654, -23.861 ], [ -46.4642, -23.8625 ], [ -46.4599, -23.8661 ], [ -46.4597, -23.8633 ], [ -46.459, -23.8625 ], [ -46.4586, -23.8604 ], [ -46.4577, -23.8602 ], [ -46.4571, -23.858 ], [ -46.4561, -23.8572 ], [ -46.455, -23.8546 ], [ -46.4539, -23.8534 ], [ -46.4521, -23.8526 ], [ -46.4507, -23.8513 ], [ -46.449, -23.8517 ], [ -46.447, -23.8508 ], [ -46.4435, -23.8502 ], [ -46.4413, -23.8475 ], [ -46.4398, -23.8444 ], [ -46.438, -23.8422 ], [ -46.4398, -23.8397 ], [ -46.4417, -23.8407 ], [ -46.4426, -23.8417 ], [ -46.4438, -23.8409 ], [ -46.442, -23.8388 ], [ -46.442, -23.8373 ], [ -46.4412, -23.8349 ], [ -46.4394, -23.8334 ], [ -46.439, -23.8318 ], [ -46.4416, -23.8298 ], [ -46.4439, -23.8307 ], [ -46.4446, -23.8293 ], [ -46.4373, -23.8285 ], [ -46.4382, -23.827 ], [ -46.4369, -23.8254 ], [ -46.4344, -23.8241 ], [ -46.4338, -23.8255 ], [ -46.4313, -23.826 ], [ -46.4263, -23.8251 ], [ -46.4244, -23.8241 ], [ -46.4227, -23.8226 ], [ -46.4206, -23.8201 ], [ -46.4151, -23.817 ], [ -46.4144, -23.818 ], [ -46.4116, -23.8167 ], [ -46.4103, -23.8154 ] ] ] } },
{ "type": "Feature", "properties": { "cod_ibge": "3541000", "nome_mun": "Praia Grande", "pop_2022": 349935, "regiao": "RMBS - Baixada Santista", "estado": "SP" }, "geometry": { "type": "Polygon", "coordinates": [ [ [ -46.3928, -23.9953 ], [ -46.3913, -24.0007 ], [ -46.3915, -24.0018 ], [ -46.3892, -24.0041 ], [ -46.3893, -24.0055 ], [ -46.3917, -24.0071 ], [ -46.3923, -24.0079 ], [ -46.3922, -24.0102 ], [ -46.3912, -24.0129 ], [ -46.3891, -24.0131 ], [ -46.3864, -24.0147 ], [ -46.3836, -24.0179 ], [ -46.3846, -24.0189 ], [ -46.3855, -24.0182 ], [ -46.3885, -24.0171 ], [ -46.3901, -24.017 ], [ -46.391, -24.0181 ], [ -46.3916, -24.0215 ], [ -46.3906, -24.022 ], [ -46.3902, -24.0237 ], [ -46.3918, -24.025 ], [ -46.3934, -24.0275 ], [ -46.3943, -24.0278 ], [ -46.3976, -24.0312 ], [ -46.3989, -24.0335 ], [ -46.3999, -24.0336 ], [ -46.4017, -24.0322 ], [ -46.3995, -24.0287 ], [ -46.3991, -24.0263 ], [ -46.3995, -24.0229 ], [ -46.3994, -24.0192 ], [ -46.4009, -24.0182 ], [ -46.4081, -24.0158 ], [ -46.4156, -24.0157 ], [ -46.4248, -24.0167 ], [ -46.4351, -24.0186 ], [ -46.4455, -24.0211 ], [ -46.455, -24.0239 ], [ -46.4651, -24.0274 ], [ -46.4843, -24.0349 ], [ -46.493, -24.0385 ], [ -46.5015, -24.0423 ], [ -46.5204, -24.0505 ], [ -46.5494, -24.0636 ], [ -46.583, -24.0797 ], [ -46.5913, -24.0834 ], [ -46.6044, -24.0897 ], [ -46.6074, -24.086 ], [ -46.6084, -24.0859 ], [ -46.6092, -24.0846 ], [ -46.6106, -24.0837 ], [ -46.6118, -24.0812 ], [ -46.6101, -24.077 ], [ -46.6083, -24.0746 ], [ -46.6063, -24.0708 ], [ -46.6048, -24.0672 ], [ -46.6016, -24.0653 ], [ -46.603, -24.0631 ], [ -46.6029, -24.0615 ], [ -46.6021, -24.0607 ], [ -46.6032, -24.0594 ], [ -46.6015, -24.0569 ], [ -46.6024, -24.0525 ], [ -46.6017, -24.0505 ], [ -46.6026, -24.0492 ], [ -46.6007, -24.0467 ], [ -46.5986, -24.0446 ], [ -46.6002, -24.0439 ], [ -46.6007, -24.0429 ], [ -46.604, -24.0424 ], [ -46.6061, -24.0408 ], [ -46.6079, -24.0383 ], [ -46.6089, -24.0378 ], [ -46.6068, -24.0351 ], [ -46.6051, -24.0323 ], [ -46.6042, -24.0294 ], [ -46.6038, -24.0267 ], [ -46.6051, -24.0254 ], [ -46.605, -24.0239 ], [ -46.6033, -24.0228 ], [ -46.602, -24.0212 ], [ -46.5995, -24.0194 ], [ -46.5996, -24.0186 ], [ -46.5972, -24.0169 ], [ -46.5947, -24.0141 ], [ -46.5892, -24.0098 ], [ -46.5898, -24.0064 ], [ -46.5915, -24.0056 ], [ -46.591, -24.0028 ], [ -46.5917, -23.9999 ], [ -46.5931, -23.9975 ], [ -46.5925, -23.9942 ], [ -46.5903, -23.9923 ], [ -46.5883, -23.989 ], [ -46.5841, -23.9857 ], [ -46.5793, -23.9854 ], [ -46.5784, -23.985 ], [ -46.5754, -23.982 ], [ -46.5757, -23.9799 ], [ -46.5733, -23.9796 ], [ -46.5734, -23.9768 ], [ -46.5717, -23.975 ], [ -46.5712, -23.9737 ], [ -46.5696, -23.9722 ], [ -46.5691, -23.9704 ], [ -46.5681, -23.9694 ], [ -46.5654, -23.9685 ], [ -46.5647, -23.9675 ], [ -46.5628, -23.9669 ], [ -46.561, -23.967 ], [ -46.5576, -23.9661 ], [ -46.5543, -23.9623 ], [ -46.5527, -23.9615 ], [ -46.5485, -23.9566 ], [ -46.5465, -23.9558 ], [ -46.5414, -23.9548 ], [ -46.5379, -23.9518 ], [ -46.5354, -23.9506 ], [ -46.5336, -23.9491 ], [ -46.5309, -23.9483 ], [ -46.5268, -23.9464 ], [ -46.5236, -23.9479 ], [ -46.5194, -23.9486 ], [ -46.518, -23.951 ], [ -46.5175, -23.9538 ], [ -46.52, -23.9553 ], [ -46.5219, -23.9575 ], [ -46.5219, -23.9585 ], [ -46.5179, -23.9626 ], [ -46.5153, -23.9639 ], [ -46.5142, -23.9651 ], [ -46.5142, -23.9667 ], [ -46.5133, -23.9682 ], [ -46.5134, -23.9696 ], [ -46.5126, -23.9707 ], [ -46.5137, -23.9726 ], [ -46.5135, -23.9749 ], [ -46.5121, -23.9771 ], [ -46.5106, -23.9775 ], [ -46.509, -23.9795 ], [ -46.5088, -23.9804 ], [ -46.5104, -23.9829 ], [ -46.5102, -23.985 ], [ -46.5091, -23.9857 ], [ -46.5093, -23.9878 ], [ -46.5066, -23.9893 ], [ -46.506, -23.9901 ], [ -46.4964, -23.9963 ], [ -46.495, -23.9976 ], [ -46.4951, -24.0005 ], [ -46.4961, -24.0018 ], [ -46.4951, -24.0026 ], [ -46.4922, -24.0036 ], [ -46.4914, -24.0018 ], [ -46.4902, -24.0008 ], [ -46.4895, -24.0023 ], [ -46.4858, -23.9995 ], [ -46.4852, -24.0007 ], [ -46.4855, -24.0021 ], [ -46.4837, -24.0025 ], [ -46.4845, -24.0047 ], [ -46.4836, -24.0064 ], [ -46.4823, -24.0057 ], [ -46.4818, -24.0045 ], [ -46.4787, -24.0053 ], [ -46.4756, -24.0052 ], [ -46.4735, -24.0022 ], [ -46.4727, -24.002 ], [ -46.4703, -24.0026 ], [ -46.4685, -24.0024 ], [ -46.4681, -24.0015 ], [ -46.4696, -23.9988 ], [ -46.4707, -23.996 ], [ -46.4703, -23.9952 ], [ -46.4687, -23.9956 ], [ -46.4662, -23.9983 ], [ -46.4644, -23.9989 ], [ -46.4633, -23.998 ], [ -46.4645, -23.9953 ], [ -46.464, -23.9934 ], [ -46.4592, -23.9915 ], [ -46.4546, -23.9907 ], [ -46.4533, -23.9898 ], [ -46.451, -23.9872 ], [ -46.4487, -23.9855 ], [ -46.446, -23.982 ], [ -46.4445, -23.9823 ], [ -46.4425, -23.9841 ], [ -46.4398, -23.985 ], [ -46.4358, -23.9848 ], [ -46.4346, -23.9844 ], [ -46.4336, -23.9832 ], [ -46.4333, -23.9814 ], [ -46.4336, -23.9789 ], [ -46.4332, -23.9779 ], [ -46.4316, -23.9775 ], [ -46.4291, -23.9784 ], [ -46.4259, -23.9786 ], [ -46.4229, -23.9774 ], [ -46.4216, -23.9783 ], [ -46.4204, -23.9801 ], [ -46.4179, -23.9832 ], [ -46.4135, -23.9862 ], [ -46.4085, -23.988 ], [ -46.4045, -23.9869 ], [ -46.4019, -23.9848 ], [ -46.4008, -23.9846 ], [ -46.3988, -23.987 ], [ -46.3978, -23.9892 ], [ -46.3964, -23.9936 ], [ -46.3928, -23.9953 ] ] ] } },
{ "type": "Feature", "properties": { "cod_ibge": "3506359", "nome_mun": "Bertioga", "pop_2022": 64188, "regiao": "RMBS - Baixada Santista", "estado": "SP" }, "geometry": { "type": "Polygon", "coordinates": [ [ [ -46.1332, -23.8565 ], [ -46.1366, -23.8573 ], [ -46.1406, -23.8579 ], [ -46.1522, -23.8608 ], [ -46.1547, -23.863 ], [ -46.158, -23.8703 ], [ -46.161, -23.8745 ], [ -46.1659, -23.879 ], [ -46.1699, -23.8837 ], [ -46.1731, -23.8872 ], [ -46.174, -23.8878 ], [ -46.1778, -23.8889 ], [ -46.1779, -23.8874 ], [ -46.1786, -23.8863 ], [ -46.1786, -23.8834 ], [ -46.1798, -23.8823 ], [ -46.1824, -23.8818 ], [ -46.1857, -23.8821 ], [ -46.1914, -23.8816 ], [ -46.1941, -23.8803 ], [ -46.1973, -23.8811 ], [ -46.1995, -23.8801 ], [ -46.1994, -23.8792 ], [ -46.2003, -23.8764 ], [ -46.2022, -23.875 ], [ -46.2045, -23.8746 ], [ -46.2052, -23.8724 ], [ -46.2078, -23.8705 ], [ -46.208, -23.8682 ], [ -46.2098, -23.8655 ], [ -46.2111, -23.8643 ], [ -46.2122, -23.8623 ], [ -46.2137, -23.861 ], [ -46.2166, -23.8593 ], [ -46.2218, -23.8594 ], [ -46.2261, -23.8592 ], [ -46.2277, -23.8582 ], [ -46.2291, -23.8582 ], [ -46.2336, -23.8603 ], [ -46.2339, -23.8582 ], [ -46.2363, -23.8557 ], [ -46.2366, -23.8526 ], [ -46.2362, -23.8513 ], [ -46.2368, -23.8501 ], [ -46.2357, -23.8488 ], [ -46.2362, -23.8465 ], [ -46.2349, -23.8425 ], [ -46.2353, -23.8409 ], [ -46.2381, -23.8404 ], [ -46.2385, -23.8394 ], [ -46.2361, -23.8372 ], [ -46.2355, -23.836 ], [ -46.2326, -23.8356 ], [ -46.2293, -23.8334 ], [ -46.226, -23.8319 ], [ -46.2228, -23.8331 ], [ -46.2184, -23.828 ], [ -46.2133, -23.8254 ], [ -46.2121, -23.8241 ], [ -46.213, -23.8225 ], [ -46.2143, -23.8222 ], [ -46.214, -23.8208 ], [ -46.2122, -23.8203 ], [ -46.211, -23.8152 ], [ -46.2098, -23.8132 ], [ -46.2138, -23.8111 ], [ -46.2162, -23.8109 ], [ -46.2178, -23.8101 ], [ -46.2192, -23.8101 ], [ -46.221, -23.8112 ], [ -46.2244, -23.8097 ], [ -46.2262, -23.8075 ], [ -46.2308, -23.8042 ], [ -46.2337, -23.8031 ], [ -46.2355, -23.8015 ], [ -46.2364, -23.7996 ], [ -46.2377, -23.799 ], [ -46.2399, -23.7993 ], [ -46.2389, -23.7958 ], [ -46.2369, -23.7939 ], [ -46.2367, -23.7925 ], [ -46.2356, -23.7913 ], [ -46.2364, -23.7895 ], [ -46.2342, -23.7884 ], [ -46.2342, -23.7869 ], [ -46.2379, -23.7849 ], [ -46.2377, -23.7832 ], [ -46.2388, -23.7795 ], [ -46.2421, -23.7777 ], [ -46.2425, -23.7759 ], [ -46.241, -23.7739 ], [ -46.2366, -23.7729 ], [ -46.2342, -23.7716 ], [ -46.231, -23.7719 ], [ -46.2287, -23.7713 ], [ -46.2271, -23.7713 ], [ -46.2254, -23.7728 ], [ -46.222, -23.7732 ], [ -46.2208, -23.7728 ], [ -46.22, -23.7706 ], [ -46.2186, -23.7696 ], [ -46.2156, -23.7634 ], [ -46.2157, -23.7608 ], [ -46.2155, -23.7574 ], [ -46.215, -23.7568 ], [ -46.213, -23.7572 ], [ -46.21, -23.7563 ], [ -46.2062, -23.7572 ], [ -46.2051, -23.7559 ], [ -46.2035, -23.7525 ], [ -46.2024, -23.7513 ], [ -46.2008, -23.7514 ], [ -46.1988, -23.7532 ], [ -46.1969, -23.7528 ], [ -46.1949, -23.7542 ], [ -46.1928, -23.7536 ], [ -46.1903, -23.7506 ], [ -46.19, -23.7479 ], [ -46.1889, -23.7466 ], [ -46.1864, -23.7447 ], [ -46.183, -23.7445 ], [ -46.1793, -23.7459 ], [ -46.1783, -23.7453 ], [ -46.1779, -23.7393 ], [ -46.1764, -23.7379 ], [ -46.1769, -23.7359 ], [ -46.1761, -23.7354 ], [ -46.1743, -23.7359 ], [ -46.1726, -23.7346 ], [ -46.1705, -23.7324 ], [ -46.1691, -23.7323 ], [ -46.1663, -23.7343 ], [ -46.1654, -23.7343 ], [ -46.1642, -23.7328 ], [ -46.1602, -23.7319 ], [ -46.1582, -23.7324 ], [ -46.1573, -23.7333 ], [ -46.157, -23.7354 ], [ -46.1557, -23.7362 ], [ -46.1529, -23.734 ], [ -46.1506, -23.7328 ], [ -46.1487, -23.7303 ], [ -46.148, -23.7284 ], [ -46.1451, -23.7271 ], [ -46.1399, -23.7259 ], [ -46.1384, -23.7264 ], [ -46.137, -23.7258 ], [ -46.1361, -23.7247 ], [ -46.1325, -23.7251 ], [ -46.1315, -23.7246 ], [ -46.131, -23.7215 ], [ -46.1294, -23.7205 ], [ -46.1287, -23.7186 ], [ -46.1275, -23.7169 ], [ -46.1264, -23.7132 ], [ -46.1254, -23.7132 ], [ -46.1242, -23.715 ], [ -46.1224, -23.7152 ], [ -46.1235, -23.7169 ], [ -46.1223, -23.7187 ], [ -46.1193, -23.7161 ], [ -46.117, -23.716 ], [ -46.1158, -23.7176 ], [ -46.1137, -23.7177 ], [ -46.1124, -23.7166 ], [ -46.1117, -23.7151 ], [ -46.1096, -23.7154 ], [ -46.1083, -23.7148 ], [ -46.1066, -23.7117 ], [ -46.1041, -23.7115 ], [ -46.1031, -23.7129 ], [ -46.104, -23.7149 ], [ -46.1037, -23.7157 ], [ -46.1009, -23.7184 ], [ -46.1002, -23.7205 ], [ -46.1016, -23.7222 ], [ -46.1012, -23.7234 ], [ -46.0995, -23.725 ], [ -46.0971, -23.7256 ], [ -46.0973, -23.7268 ], [ -46.0985, -23.7282 ], [ -46.1006, -23.7294 ], [ -46.103, -23.7291 ], [ -46.1048, -23.7295 ], [ -46.107, -23.7309 ], [ -46.1068, -23.7322 ], [ -46.1037, -23.7339 ], [ -46.1033, -23.7359 ], [ -46.1024, -23.7363 ], [ -46.0985, -23.7358 ], [ -46.0972, -23.7353 ], [ -46.0956, -23.7338 ], [ -46.0898, -23.7332 ], [ -46.0861, -23.7339 ], [ -46.0846, -23.7338 ], [ -46.0774, -23.7326 ], [ -46.075, -23.7311 ], [ -46.0731, -23.7312 ], [ -46.0705, -23.7299 ], [ -46.0677, -23.729 ], [ -46.0655, -23.7259 ], [ -46.0661, -23.7236 ], [ -46.0634, -23.7209 ], [ -46.059, -23.7185 ], [ -46.0576, -23.7164 ], [ -46.0565, -23.716 ], [ -46.0541, -23.7163 ], [ -46.0498, -23.7182 ], [ -46.045, -23.7198 ], [ -46.0416, -23.72 ], [ -46.0372, -23.721 ], [ -46.0337, -23.7208 ], [ -46.0309, -23.7201 ], [ -46.0281, -23.7189 ], [ -46.0266, -23.7176 ], [ -46.0261, -23.7158 ], [ -46.0224, -23.7153 ], [ -46.0201, -23.7157 ], [ -46.0167, -23.7148 ], [ -46.0135, -23.712 ], [ -46.0105, -23.7105 ], [ -46.0082, -23.7086 ], [ -46.0042, -23.7081 ], [ -46.0021, -23.7072 ], [ -45.9988, -23.7052 ], [ -45.9969, -23.7045 ], [ -45.9945, -23.7047 ], [ -45.993, -23.7058 ], [ -45.992, -23.7055 ], [ -45.9907, -23.7027 ], [ -45.9891, -23.7017 ], [ -45.9876, -23.6999 ], [ -45.9854, -23.6982 ], [ -45.9815, -23.6966 ], [ -45.9784, -23.6957 ], [ -45.9765, -23.694 ], [ -45.9749, -23.694 ], [ -45.9713, -23.6947 ], [ -45.9706, -23.6964 ], [ -45.9695, -23.6969 ], [ -45.9657, -23.6969 ], [ -45.9595, -23.6948 ], [ -45.9576, -23.6949 ], [ -45.9548, -23.6942 ], [ -45.9541, -23.6956 ], [ -45.9559, -23.6968 ], [ -45.9569, -23.6998 ], [ -45.9566, -23.7006 ], [ -45.9548, -23.7006 ], [ -45.9524, -23.6996 ], [ -45.9511, -23.7 ], [ -45.9513, -23.7017 ], [ -45.9505, -23.7023 ], [ -45.9452, -23.7008 ], [ -45.9434, -23.7009 ], [ -45.9412, -23.7001 ], [ -45.9405, -23.7013 ], [ -45.9384, -23.7014 ], [ -45.9377, -23.7006 ], [ -45.9361, -23.7012 ], [ -45.9313, -23.6981 ], [ -45.9293, -23.6955 ], [ -45.9279, -23.6952 ], [ -45.926, -23.6937 ], [ -45.9243, -23.6899 ], [ -45.9227, -23.6892 ], [ -45.9213, -23.6893 ], [ -45.9198, -23.6884 ], [ -45.9201, -23.6868 ], [ -45.9221, -23.686 ], [ -45.923, -23.685 ], [ -45.9244, -23.6813 ], [ -45.923, -23.6803 ], [ -45.9188, -23.6783 ], [ -45.9181, -23.6773 ], [ -45.918, -23.6745 ], [ -45.917, -23.6731 ], [ -45.9175, -23.6703 ], [ -45.9172, -23.6686 ], [ -45.916, -23.668 ], [ -45.9161, -23.6669 ], [ -45.9151, -23.6656 ], [ -45.913, -23.6652 ], [ -45.9119, -23.6644 ], [ -45.9088, -23.6648 ], [ -45.9056, -23.6643 ], [ -45.9049, -23.6631 ], [ -45.9055, -23.6608 ], [ -45.9049, -23.6604 ], [ -45.9015, -23.6594 ], [ -45.9003, -23.6586 ], [ -45.8999, -23.6562 ], [ -45.8976, -23.6563 ], [ -45.8946, -23.6553 ], [ -45.8919, -23.6559 ], [ -45.89, -23.6571 ], [ -45.8872, -23.6573 ], [ -45.8836, -23.6535 ], [ -45.8776, -23.6535 ], [ -45.8756, -23.6542 ], [ -45.8737, -23.6527 ], [ -45.8726, -23.6531 ], [ -45.8721, -23.6548 ], [ -45.87, -23.6552 ], [ -45.8668, -23.6544 ], [ -45.8648, -23.6527 ], [ -45.863, -23.6521 ], [ -45.862, -23.6523 ], [ -45.8597, -23.6549 ], [ -45.8574, -23.6551 ], [ -45.8556, -23.6535 ], [ -45.8565, -23.6506 ], [ -45.855, -23.6497 ], [ -45.8547, -23.6467 ], [ -45.8539, -23.6464 ], [ -45.851, -23.6477 ], [ -45.8503, -23.6473 ], [ -45.8504, -23.6442 ], [ -45.8484, -23.644 ], [ -45.848, -23.6453 ], [ -45.8469, -23.6455 ], [ -45.8461, -23.6439 ], [ -45.8448, -23.6438 ], [ -45.8431, -23.6472 ], [ -45.8411, -23.6486 ], [ -45.8373, -23.6481 ], [ -45.8363, -23.649 ], [ -45.8345, -23.6483 ], [ -45.8334, -23.6487 ], [ -45.8327, -23.6513 ], [ -45.831, -23.6518 ], [ -45.8317, -23.6537 ], [ -45.8331, -23.6559 ], [ -45.8317, -23.6573 ], [ -45.8318, -23.6612 ], [ -45.831, -23.6626 ], [ -45.8314, -23.6636 ], [ -45.8328, -23.6646 ], [ -45.8352, -23.6649 ], [ -45.838, -23.6691 ], [ -45.8374, -23.6699 ], [ -45.834, -23.6701 ], [ -45.8329, -23.6698 ], [ -45.8314, -23.6719 ], [ -45.8294, -23.6724 ], [ -45.8302, -23.6747 ], [ -45.8265, -23.6744 ], [ -45.8247, -23.6749 ], [ -45.8233, -23.6762 ], [ -45.8217, -23.6749 ], [ -45.8184, -23.6754 ], [ -45.8164, -23.6768 ], [ -45.8138, -23.6769 ], [ -45.8108, -23.6766 ], [ -45.8098, -23.6757 ], [ -45.8078, -23.6756 ], [ -45.8054, -23.6767 ], [ -45.8018, -23.6761 ], [ -45.8003, -23.6762 ], [ -45.7982, -23.6754 ], [ -45.7947, -23.6796 ], [ -45.794, -23.6807 ], [ -45.7961, -23.683 ], [ -45.7969, -23.6847 ], [ -45.7974, -23.6879 ], [ -45.7996, -23.6932 ], [ -45.7981, -23.694 ], [ -45.7976, -23.6957 ], [ -45.7978, -23.6976 ], [ -45.7965, -23.701 ], [ -45.7971, -23.7052 ], [ -45.7965, -23.7063 ], [ -45.7963, -23.7092 ], [ -45.7949, -23.712 ], [ -45.7948, -23.7156 ], [ -45.7973, -23.7178 ], [ -45.798, -23.7193 ], [ -45.7998, -23.7209 ], [ -45.8016, -23.7218 ], [ -45.8033, -23.7232 ], [ -45.8059, -23.7247 ], [ -45.8073, -23.7248 ], [ -45.8424, -23.7582 ], [ -45.8611, -23.7598 ], [ -45.871, -23.7609 ], [ -45.8753, -23.7617 ], [ -45.8764, -23.7624 ], [ -45.8804, -23.7633 ], [ -45.8814, -23.7625 ], [ -45.8898, -23.7641 ], [ -45.8969, -23.7657 ], [ -45.8983, -23.7654 ], [ -45.9175, -23.7695 ], [ -45.9412, -23.7757 ], [ -45.952, -23.779 ], [ -45.9586, -23.7812 ], [ -45.9726, -23.7854 ], [ -45.9779, -23.7873 ], [ -45.9881, -23.7918 ], [ -45.9906, -23.793 ], [ -45.992, -23.7941 ], [ -45.9928, -23.7957 ], [ -45.9917, -23.7965 ], [ -45.992, -23.7989 ], [ -45.9931, -23.8006 ], [ -45.9946, -23.8016 ], [ -45.9966, -23.8022 ], [ -45.9985, -23.8035 ], [ -46.0002, -23.8036 ], [ -46.0011, -23.8024 ], [ -46.0003, -23.8015 ], [ -46.0021, -23.7999 ], [ -46.0039, -23.7995 ], [ -46.0081, -23.8003 ], [ -46.0161, -23.8026 ], [ -46.0235, -23.8051 ], [ -46.0317, -23.8092 ], [ -46.0343, -23.8106 ], [ -46.0367, -23.8125 ], [ -46.0388, -23.8155 ], [ -46.0393, -23.8178 ], [ -46.0385, -23.8201 ], [ -46.0371, -23.8207 ], [ -46.0397, -23.8232 ], [ -46.0388, -23.8256 ], [ -46.0406, -23.8269 ], [ -46.0436, -23.8301 ], [ -46.0466, -23.8313 ], [ -46.0474, -23.8321 ], [ -46.0498, -23.8305 ], [ -46.0503, -23.8281 ], [ -46.0474, -23.8284 ], [ -46.0465, -23.8263 ], [ -46.0451, -23.8255 ], [ -46.0449, -23.8237 ], [ -46.0455, -23.8224 ], [ -46.0483, -23.8189 ], [ -46.0501, -23.8174 ], [ -46.0542, -23.8154 ], [ -46.0575, -23.8143 ], [ -46.0614, -23.8141 ], [ -46.0662, -23.8146 ], [ -46.0713, -23.8159 ], [ -46.0754, -23.8172 ], [ -46.0887, -23.8221 ], [ -46.1006, -23.8277 ], [ -46.1046, -23.8298 ], [ -46.1124, -23.8335 ], [ -46.1182, -23.8366 ], [ -46.1284, -23.8441 ], [ -46.1307, -23.8468 ], [ -46.1329, -23.8514 ], [ -46.1332, -23.8565 ] ] ] } },
{ "type": "Feature", "properties": { "cod_ibge": "3531100", "nome_mun": "Mongaguá", "pop_2022": 61951, "regiao": "RMBS - Baixada Santista", "estado": "SP" }, "geometry": { "type": "Polygon", "coordinates": [ [ [ -46.7094, -24.1441 ], [ -46.725, -24.1324 ], [ -46.7266, -24.1305 ], [ -46.7275, -24.1281 ], [ -46.728, -24.1249 ], [ -46.7291, -24.1241 ], [ -46.7269, -24.121 ], [ -46.728, -24.1199 ], [ -46.7273, -24.1182 ], [ -46.7297, -24.114 ], [ -46.7314, -24.1139 ], [ -46.7324, -24.1122 ], [ -46.7313, -24.1108 ], [ -46.7314, -24.1097 ], [ -46.7328, -24.1085 ], [ -46.7345, -24.1089 ], [ -46.7357, -24.1085 ], [ -46.7367, -24.1063 ], [ -46.7357, -24.106 ], [ -46.7346, -24.1043 ], [ -46.7304, -24.1022 ], [ -46.7313, -24.1007 ], [ -46.7334, -24.1004 ], [ -46.7336, -24.0992 ], [ -46.7327, -24.0985 ], [ -46.7332, -24.0963 ], [ -46.7343, -24.096 ], [ -46.7341, -24.0946 ], [ -46.7323, -24.0941 ], [ -46.7325, -24.0931 ], [ -46.7303, -24.0925 ], [ -46.7323, -24.0882 ], [ -46.7329, -24.0876 ], [ -46.7358, -24.0865 ], [ -46.7375, -24.0849 ], [ -46.7418, -24.0825 ], [ -46.7442, -24.0804 ], [ -46.7453, -24.0781 ], [ -46.7484, -24.0758 ], [ -46.7482, -24.0743 ], [ -46.746, -24.0733 ], [ -46.7445, -24.0719 ], [ -46.7432, -24.0691 ], [ -46.7433, -24.0665 ], [ -46.7429, -24.0643 ], [ -46.7408, -24.0621 ], [ -46.7374, -24.06 ], [ -46.7345, -24.057 ], [ -46.7291, -24.0539 ], [ -46.7271, -24.0514 ], [ -46.7242, -24.0495 ], [ -46.7209, -24.0488 ], [ -46.7169, -24.0467 ], [ -46.7142, -24.0462 ], [ -46.7085, -24.0461 ], [ -46.7063, -24.0451 ], [ -46.7043, -24.0452 ], [ -46.7016, -24.0467 ], [ -46.7001, -24.0455 ], [ -46.6995, -24.044 ], [ -46.699, -24.039 ], [ -46.6982, -24.0371 ], [ -46.6968, -24.0352 ], [ -46.6935, -24.0325 ], [ -46.6893, -24.0299 ], [ -46.6778, -24.0251 ], [ -46.6697, -24.0225 ], [ -46.6633, -24.0196 ], [ -46.6574, -24.0164 ], [ -46.6476, -24.0118 ], [ -46.6425, -24.0102 ], [ -46.6382, -24.0091 ], [ -46.6368, -24.0091 ], [ -46.634, -24.0101 ], [ -46.6317, -24.01 ], [ -46.6272, -24.0084 ], [ -46.6241, -24.0092 ], [ -46.6204, -24.008 ], [ -46.6187, -24.0064 ], [ -46.6171, -24.0038 ], [ -46.6153, -24.0021 ], [ -46.6127, -24.0012 ], [ -46.61, -24.0013 ], [ -46.6082, -23.9987 ], [ -46.6066, -23.9977 ], [ -46.6024, -23.9961 ], [ -46.6004, -23.997 ], [ -46.598, -23.9974 ], [ -46.5946, -23.9969 ], [ -46.5931, -23.9975 ], [ -46.5917, -23.9999 ], [ -46.591, -24.0028 ], [ -46.5915, -24.0056 ], [ -46.5898, -24.0064 ], [ -46.5892, -24.0098 ], [ -46.5947, -24.0141 ], [ -46.5972, -24.0169 ], [ -46.5996, -24.0186 ], [ -46.5995, -24.0194 ], [ -46.602, -24.0212 ], [ -46.6033, -24.0228 ], [ -46.605, -24.0239 ], [ -46.6051, -24.0254 ], [ -46.6038, -24.0267 ], [ -46.6042, -24.0294 ], [ -46.6051, -24.0323 ], [ -46.6068, -24.0351 ], [ -46.6089, -24.0378 ], [ -46.6079, -24.0383 ], [ -46.6061, -24.0408 ], [ -46.604, -24.0424 ], [ -46.6007, -24.0429 ], [ -46.6002, -24.0439 ], [ -46.5986, -24.0446 ], [ -46.6007, -24.0467 ], [ -46.6026, -24.0492 ], [ -46.6017, -24.0505 ], [ -46.6024, -24.0525 ], [ -46.6015, -24.0569 ], [ -46.6032, -24.0594 ], [ -46.6021, -24.0607 ], [ -46.6029, -24.0615 ], [ -46.603, -24.0631 ], [ -46.6016, -24.0653 ], [ -46.6048, -24.0672 ], [ -46.6063, -24.0708 ], [ -46.6083, -24.0746 ], [ -46.6101, -24.077 ], [ -46.6118, -24.0812 ], [ -46.6106, -24.0837 ], [ -46.6092, -24.0846 ], [ -46.6084, -24.0859 ], [ -46.6074, -24.086 ], [ -46.6044, -24.0897 ], [ -46.6174, -24.0961 ], [ -46.6265, -24.1003 ], [ -46.6351, -24.1045 ], [ -46.6507, -24.1125 ], [ -46.676, -24.1259 ], [ -46.6902, -24.1338 ], [ -46.6953, -24.1363 ], [ -46.7034, -24.1406 ], [ -46.7094, -24.1441 ] ] ] } },
{ "type": "Feature", "properties": { "cod_ibge": "3522109", "nome_mun": "Itanhaém", "pop_2022": 112476, "regiao": "RMBS - Baixada Santista", "estado": "SP" }, "geometry": { "type": "MultiPolygon", "coordinates": [ [ [ [ -46.8976, -24.2529 ], [ -46.9266, -24.2315 ], [ -46.9256, -24.2301 ], [ -46.9253, -24.2287 ], [ -46.9253, -24.2248 ], [ -46.9256, -24.2223 ], [ -46.9294, -24.2207 ], [ -46.9313, -24.2181 ], [ -46.9332, -24.2179 ], [ -46.935, -24.217 ], [ -46.9353, -24.215 ], [ -46.9333, -24.2138 ], [ -46.9343, -24.2119 ], [ -46.9343, -24.2107 ], [ -46.9351, -24.2095 ], [ -46.9353, -24.208 ], [ -46.9371, -24.2068 ], [ -46.9386, -24.2023 ], [ -46.9425, -24.2 ], [ -46.9428, -24.1991 ], [ -46.9444, -24.1977 ], [ -46.9467, -24.1974 ], [ -46.9489, -24.1959 ], [ -46.9485, -24.1944 ], [ -46.9513, -24.1926 ], [ -46.9519, -24.1909 ], [ -46.9515, -24.1876 ], [ -46.9522, -24.1864 ], [ -46.9503, -24.1838 ], [ -46.9499, -24.1821 ], [ -46.9483, -24.1807 ], [ -46.9485, -24.179 ], [ -46.9458, -24.1776 ], [ -46.9442, -24.1775 ], [ -46.942, -24.1762 ], [ -46.9431, -24.1738 ], [ -46.942, -24.1705 ], [ -46.9434, -24.1691 ], [ -46.9432, -24.1652 ], [ -46.9436, -24.1647 ], [ -46.9433, -24.1622 ], [ -46.9413, -24.1613 ], [ -46.9404, -24.1587 ], [ -46.9416, -24.1566 ], [ -46.9411, -24.1545 ], [ -46.9422, -24.1521 ], [ -46.9442, -24.1505 ], [ -46.9443, -24.1489 ], [ -46.9452, -24.148 ], [ -46.9448, -24.147 ], [ -46.9458, -24.1455 ], [ -46.9471, -24.1447 ], [ -46.9475, -24.1431 ], [ -46.9468, -24.1413 ], [ -46.9486, -24.1398 ], [ -46.9517, -24.1397 ], [ -46.9534, -24.1413 ], [ -46.9553, -24.1405 ], [ -46.9562, -24.1394 ], [ -46.9585, -24.1394 ], [ -46.9602, -24.1389 ], [ -46.9621, -24.1373 ], [ -46.9651, -24.1367 ], [ -46.9692, -24.1364 ], [ -46.9706, -24.1368 ], [ -46.9721, -24.1385 ], [ -46.9741, -24.138 ], [ -46.9755, -24.1361 ], [ -46.9789, -24.1333 ], [ -46.9798, -24.1317 ], [ -46.9817, -24.1301 ], [ -46.9829, -24.1272 ], [ -46.9828, -24.1258 ], [ -46.9832, -24.1233 ], [ -46.9807, -24.1232 ], [ -46.98, -24.1222 ], [ -46.9779, -24.122 ], [ -46.9768, -24.1192 ], [ -46.9748, -24.1174 ], [ -46.9752, -24.1151 ], [ -46.9727, -24.1141 ], [ -46.9716, -24.1124 ], [ -46.9718, -24.1102 ], [ -46.9684, -24.1077 ], [ -46.969, -24.1061 ], [ -46.9687, -24.105 ], [ -46.9696, -24.1026 ], [ -46.9695, -24.1011 ], [ -46.9689, -24.0975 ], [ -46.969, -24.0952 ], [ -46.9696, -24.092 ], [ -46.9719, -24.0903 ], [ -46.9762, -24.0885 ], [ -46.9787, -24.0864 ], [ -46.9781, -24.0814 ], [ -46.9787, -24.0808 ], [ -46.9809, -24.0806 ], [ -46.9818, -24.0776 ], [ -46.9833, -24.0761 ], [ -46.9832, -24.0741 ], [ -46.9815, -24.0713 ], [ -46.9813, -24.0701 ], [ -46.9793, -24.0681 ], [ -46.9783, -24.0659 ], [ -46.9786, -24.0643 ], [ -46.9768, -24.0625 ], [ -46.9734, -24.0611 ], [ -46.9707, -24.0616 ], [ -46.9691, -24.0606 ], [ -46.9685, -24.0593 ], [ -46.9647, -24.0584 ], [ -46.9636, -24.0563 ], [ -46.9638, -24.0551 ], [ -46.9652, -24.0544 ], [ -46.9667, -24.0546 ], [ -46.9673, -24.0532 ], [ -46.9671, -24.0508 ], [ -46.965, -24.0484 ], [ -46.9675, -24.0474 ], [ -46.9682, -24.0462 ], [ -46.9678, -24.0447 ], [ -46.965, -24.0433 ], [ -46.9631, -24.0458 ], [ -46.9608, -24.0459 ], [ -46.9588, -24.0449 ], [ -46.9568, -24.0449 ], [ -46.954, -24.0438 ], [ -46.953, -24.0452 ], [ -46.9515, -24.0443 ], [ -46.9505, -24.0425 ], [ -46.9488, -24.0425 ], [ -46.9461, -24.0436 ], [ -46.9458, -24.0406 ], [ -46.9438, -24.0406 ], [ -46.9405, -24.04 ], [ -46.9397, -24.0388 ], [ -46.9419, -24.0364 ], [ -46.9402, -24.0349 ], [ -46.938, -24.0337 ], [ -46.9362, -24.0334 ], [ -46.9354, -24.0349 ], [ -46.9342, -24.0357 ], [ -46.9336, -24.0375 ], [ -46.9339, -24.0388 ], [ -46.9326, -24.0422 ], [ -46.9303, -24.0445 ], [ -46.9282, -24.045 ], [ -46.9266, -24.044 ], [ -46.9237, -24.043 ], [ -46.9227, -24.042 ], [ -46.9206, -24.0415 ], [ -46.9166, -24.0437 ], [ -46.9148, -24.0432 ], [ -46.9113, -24.0415 ], [ -46.9098, -24.0419 ], [ -46.9088, -24.0435 ], [ -46.9084, -24.045 ], [ -46.9069, -24.0456 ], [ -46.9051, -24.0451 ], [ -46.9035, -24.0451 ], [ -46.9003, -24.0461 ], [ -46.8998, -24.0443 ], [ -46.8979, -24.0416 ], [ -46.8962, -24.0412 ], [ -46.894, -24.0417 ], [ -46.8929, -24.0411 ], [ -46.8922, -24.0397 ], [ -46.8906, -24.0385 ], [ -46.8893, -24.0386 ], [ -46.8882, -24.0367 ], [ -46.8893, -24.0359 ], [ -46.8916, -24.0366 ], [ -46.8933, -24.0361 ], [ -46.893, -24.0342 ], [ -46.8903, -24.0312 ], [ -46.8855, -24.0286 ], [ -46.8846, -24.0271 ], [ -46.8853, -24.0244 ], [ -46.8826, -24.0233 ], [ -46.88, -24.0239 ], [ -46.8775, -24.0238 ], [ -46.876, -24.0242 ], [ -46.8747, -24.0227 ], [ -46.8733, -24.0229 ], [ -46.8719, -24.0239 ], [ -46.8709, -24.022 ], [ -46.8698, -24.0209 ], [ -46.8683, -24.0208 ], [ -46.8677, -24.0192 ], [ -46.8694, -24.0165 ], [ -46.8719, -24.0166 ], [ -46.8733, -24.0161 ], [ -46.8734, -24.014 ], [ -46.8691, -24.0111 ], [ -46.8685, -24.0096 ], [ -46.8697, -24.0086 ], [ -46.8701, -24.007 ], [ -46.8699, -24.0051 ], [ -46.8707, -24.0025 ], [ -46.8692, -24.0007 ], [ -46.871, -23.9986 ], [ -46.8726, -23.9991 ], [ -46.8739, -24.0019 ], [ -46.8751, -24.0018 ], [ -46.8772, -23.9988 ], [ -46.8776, -23.9974 ], [ -46.8786, -23.9964 ], [ -46.879, -23.9948 ], [ -46.8814, -23.9934 ], [ -46.882, -23.9905 ], [ -46.883, -23.9896 ], [ -46.8828, -23.9871 ], [ -46.8831, -23.9852 ], [ -46.8815, -23.9831 ], [ -46.8799, -23.9831 ], [ -46.8751, -23.9793 ], [ -46.8736, -23.9786 ], [ -46.8725, -23.9793 ], [ -46.8676, -23.9801 ], [ -46.8653, -23.9777 ], [ -46.8629, -23.9759 ], [ -46.8623, -23.9742 ], [ -46.8607, -23.9738 ], [ -46.8578, -23.9739 ], [ -46.8566, -23.9726 ], [ -46.8553, -23.9735 ], [ -46.8539, -23.9715 ], [ -46.8513, -23.97 ], [ -46.849, -23.9663 ], [ -46.8486, -23.9651 ], [ -46.8452, -23.9627 ], [ -46.8409, -23.9625 ], [ -46.8396, -23.962 ], [ -46.8386, -23.9586 ], [ -46.8348, -23.9563 ], [ -46.8329, -23.9564 ], [ -46.8303, -23.9572 ], [ -46.8272, -23.957 ], [ -46.8238, -23.9562 ], [ -46.823, -23.9552 ], [ -46.8238, -23.9538 ], [ -46.825, -23.953 ], [ -46.826, -23.9514 ], [ -46.8275, -23.9514 ], [ -46.83, -23.9485 ], [ -46.8299, -23.9473 ], [ -46.8271, -23.9465 ], [ -46.8223, -23.9445 ], [ -46.8202, -23.9422 ], [ -46.8172, -23.9435 ], [ -46.8156, -23.9407 ], [ -46.8136, -23.9398 ], [ -46.8087, -23.9401 ], [ -46.8067, -23.9394 ], [ -46.8069, -23.9382 ], [ -46.8046, -23.9386 ], [ -46.8013, -23.9378 ], [ -46.8001, -23.938 ], [ -46.796, -23.9402 ], [ -46.7945, -23.9426 ], [ -46.7928, -23.9431 ], [ -46.7912, -23.9426 ], [ -46.7898, -23.9409 ], [ -46.7876, -23.9412 ], [ -46.7856, -23.9423 ], [ -46.7834, -23.9453 ], [ -46.7835, -23.9469 ], [ -46.7809, -23.9488 ], [ -46.7777, -23.95 ], [ -46.7757, -23.9499 ], [ -46.7742, -23.9503 ], [ -46.7749, -23.9529 ], [ -46.7742, -23.9538 ], [ -46.7751, -23.9564 ], [ -46.772, -23.9599 ], [ -46.7716, -23.961 ], [ -46.7698, -23.9609 ], [ -46.7683, -23.962 ], [ -46.7663, -23.9612 ], [ -46.7649, -23.9617 ], [ -46.7633, -23.9632 ], [ -46.7625, -23.9647 ], [ -46.7637, -23.9662 ], [ -46.7626, -23.9683 ], [ -46.7611, -23.9691 ], [ -46.7593, -23.9708 ], [ -46.7583, -23.9725 ], [ -46.7554, -23.9725 ], [ -46.7548, -23.9732 ], [ -46.7549, -23.9754 ], [ -46.7559, -23.9759 ], [ -46.7573, -23.9783 ], [ -46.7591, -23.9787 ], [ -46.7591, -23.9799 ], [ -46.7582, -23.9806 ], [ -46.7603, -23.9834 ], [ -46.7604, -23.9848 ], [ -46.7622, -23.9865 ], [ -46.7623, -23.988 ], [ -46.7644, -23.9885 ], [ -46.7648, -23.9901 ], [ -46.7664, -23.9917 ], [ -46.767, -23.995 ], [ -46.7682, -23.9961 ], [ -46.7682, -23.9988 ], [ -46.7709, -24.0008 ], [ -46.7739, -24.0021 ], [ -46.7747, -24.003 ], [ -46.7742, -24.005 ], [ -46.7723, -24.0064 ], [ -46.772, -24.0077 ], [ -46.7694, -24.0084 ], [ -46.768, -24.0063 ], [ -46.7664, -24.0054 ], [ -46.7649, -24.0062 ], [ -46.7627, -24.006 ], [ -46.7612, -24.0032 ], [ -46.7597, -24.0029 ], [ -46.758, -24.0013 ], [ -46.755, -23.9968 ], [ -46.7522, -23.9958 ], [ -46.751, -23.9965 ], [ -46.7494, -23.9954 ], [ -46.7492, -23.9943 ], [ -46.7451, -23.9939 ], [ -46.7427, -23.9919 ], [ -46.7404, -23.9924 ], [ -46.7376, -23.9919 ], [ -46.736, -23.9935 ], [ -46.7322, -23.9952 ], [ -46.7303, -23.9955 ], [ -46.7262, -23.9943 ], [ -46.7244, -23.9943 ], [ -46.721, -23.993 ], [ -46.72, -23.9946 ], [ -46.7175, -23.9958 ], [ -46.7148, -23.9962 ], [ -46.7136, -23.9954 ], [ -46.7128, -23.9939 ], [ -46.7103, -23.9934 ], [ -46.7081, -23.991 ], [ -46.7063, -23.9907 ], [ -46.7034, -23.9916 ], [ -46.6993, -23.9903 ], [ -46.6967, -23.9883 ], [ -46.6941, -23.9867 ], [ -46.6921, -23.9844 ], [ -46.6875, -23.9847 ], [ -46.6855, -23.9824 ], [ -46.6833, -23.9824 ], [ -46.6824, -23.9832 ], [ -46.6816, -23.9854 ], [ -46.68, -23.9872 ], [ -46.6754, -23.9894 ], [ -46.6735, -23.9885 ], [ -46.6717, -23.9891 ], [ -46.6678, -23.9882 ], [ -46.6653, -23.9881 ], [ -46.6618, -23.9882 ], [ -46.6591, -23.992 ], [ -46.6566, -23.9932 ], [ -46.6546, -23.9955 ], [ -46.653, -23.9967 ], [ -46.6509, -24.001 ], [ -46.6499, -24.0016 ], [ -46.6503, -24.0029 ], [ -46.6463, -24.0077 ], [ -46.6425, -24.0102 ], [ -46.6476, -24.0118 ], [ -46.6574, -24.0164 ], [ -46.6633, -24.0196 ], [ -46.6697, -24.0225 ], [ -46.6778, -24.0251 ], [ -46.6893, -24.0299 ], [ -46.6935, -24.0325 ], [ -46.6968, -24.0352 ], [ -46.6982, -24.0371 ], [ -46.699, -24.039 ], [ -46.6995, -24.044 ], [ -46.7001, -24.0455 ], [ -46.7016, -24.0467 ], [ -46.7043, -24.0452 ], [ -46.7063, -24.0451 ], [ -46.7085, -24.0461 ], [ -46.7142, -24.0462 ], [ -46.7169, -24.0467 ], [ -46.7209, -24.0488 ], [ -46.7242, -24.0495 ], [ -46.7271, -24.0514 ], [ -46.7291, -24.0539 ], [ -46.7345, -24.057 ], [ -46.7374, -24.06 ], [ -46.7408, -24.0621 ], [ -46.7429, -24.0643 ], [ -46.7433, -24.0665 ], [ -46.7432, -24.0691 ], [ -46.7445, -24.0719 ], [ -46.746, -24.0733 ], [ -46.7482, -24.0743 ], [ -46.7484, -24.0758 ], [ -46.7453, -24.0781 ], [ -46.7442, -24.0804 ], [ -46.7418, -24.0825 ], [ -46.7375, -24.0849 ], [ -46.7358, -24.0865 ], [ -46.7329, -24.0876 ], [ -46.7323, -24.0882 ], [ -46.7303, -24.0925 ], [ -46.7325, -24.0931 ], [ -46.7323, -24.0941 ], [ -46.7341, -24.0946 ], [ -46.7343, -24.096 ], [ -46.7332, -24.0963 ], [ -46.7327, -24.0985 ], [ -46.7336, -24.0992 ], [ -46.7334, -24.1004 ], [ -46.7313, -24.1007 ], [ -46.7304, -24.1022 ], [ -46.7346, -24.1043 ], [ -46.7357, -24.106 ], [ -46.7367, -24.1063 ], [ -46.7357, -24.1085 ], [ -46.7345, -24.1089 ], [ -46.7328, -24.1085 ], [ -46.7314, -24.1097 ], [ -46.7313, -24.1108 ], [ -46.7324, -24.1122 ], [ -46.7314, -24.1139 ], [ -46.7297, -24.114 ], [ -46.7273, -24.1182 ], [ -46.728, -24.1199 ], [ -46.7269, -24.121 ], [ -46.7291, -24.1241 ], [ -46.728, -24.1249 ], [ -46.7275, -24.1281 ], [ -46.7266, -24.1305 ], [ -46.725, -24.1324 ], [ -46.7094, -24.1441 ], [ -46.7284, -24.1549 ], [ -46.749, -24.1664 ], [ -46.773, -24.1794 ], [ -46.7834, -24.1849 ], [ -46.7888, -24.1872 ], [ -46.7896, -24.189 ], [ -46.7909, -24.1905 ], [ -46.7925, -24.1911 ], [ -46.7939, -24.1939 ], [ -46.7952, -24.1946 ], [ -46.7959, -24.1936 ], [ -46.799, -24.1945 ], [ -46.8009, -24.1956 ], [ -46.8011, -24.197 ], [ -46.8026, -24.1982 ], [ -46.8046, -24.1985 ], [ -46.8048, -24.2004 ], [ -46.8104, -24.2015 ], [ -46.8114, -24.2025 ], [ -46.8124, -24.2011 ], [ -46.8153, -24.2015 ], [ -46.8203, -24.2042 ], [ -46.8446, -24.2184 ], [ -46.8533, -24.2239 ], [ -46.8622, -24.2297 ], [ -46.8789, -24.2402 ], [ -46.8851, -24.2444 ], [ -46.8884, -24.2469 ], [ -46.8976, -24.2529 ] ] ], [ [ [ -46.8069, -24.374 ], [ -46.8053, -24.3746 ], [ -46.8056, -24.3759 ], [ -46.808, -24.3759 ], [ -46.808, -24.3744 ], [ -46.8069, -24.374 ] ] ], [ [ [ -46.6762, -24.4782 ], [ -46.6749, -24.4781 ], [ -46.6749, -24.4803 ], [ -46.6742, -24.4821 ], [ -46.6747, -24.4839 ], [ -46.6716, -24.4857 ], [ -46.6714, -24.4887 ], [ -46.6762, -24.492 ], [ -46.6775, -24.4909 ], [ -46.6765, -24.4886 ], [ -46.6767, -24.4874 ], [ -46.6779, -24.4847 ], [ -46.6772, -24.4816 ], [ -46.6776, -24.4787 ], [ -46.6762, -24.4782 ] ] ] ] } },
{ "type": "Feature", "properties": { "cod_ibge": "3537602", "nome_mun": "Peruíbe", "pop_2022": 68344, "regiao": "RMBS - Baixada Santista", "estado": "SP" }, "geometry": { "type": "MultiPolygon", "coordinates": [ [ [ [ -46.8976, -24.2529 ], [ -46.9205, -24.2674 ], [ -46.9316, -24.2747 ], [ -46.9402, -24.2808 ], [ -46.9476, -24.2862 ], [ -46.9631, -24.2981 ], [ -46.9718, -24.3051 ], [ -46.9786, -24.3109 ], [ -46.985, -24.3167 ], [ -46.9939, -24.3254 ], [ -46.9991, -24.3315 ], [ -47.0019, -24.3356 ], [ -47.0025, -24.3374 ], [ -47.0007, -24.3402 ], [ -46.9994, -24.3413 ], [ -47.0005, -24.3422 ], [ -47.0006, -24.3435 ], [ -47.0015, -24.3442 ], [ -47.0015, -24.3455 ], [ -47.0005, -24.3476 ], [ -47.0003, -24.349 ], [ -46.9992, -24.3507 ], [ -46.9966, -24.3501 ], [ -46.9964, -24.3512 ], [ -46.9987, -24.3516 ], [ -46.9996, -24.3537 ], [ -46.9992, -24.3548 ], [ -47.0013, -24.3569 ], [ -47.0015, -24.3599 ], [ -47.002, -24.3613 ], [ -47.0068, -24.3667 ], [ -47.0093, -24.3672 ], [ -47.0131, -24.3721 ], [ -47.0154, -24.3755 ], [ -47.0166, -24.3778 ], [ -47.0182, -24.3788 ], [ -47.0174, -24.3812 ], [ -47.017, -24.385 ], [ -47.0163, -24.3874 ], [ -47.0138, -24.3875 ], [ -47.0132, -24.3886 ], [ -47.0109, -24.3881 ], [ -47.0087, -24.3894 ], [ -47.0108, -24.39 ], [ -47.0102, -24.395 ], [ -47.0094, -24.3966 ], [ -47.0065, -24.3967 ], [ -47.005, -24.3977 ], [ -47.0016, -24.3977 ], [ -47.0012, -24.3989 ], [ -47.0016, -24.4003 ], [ -47.0042, -24.401 ], [ -47.005, -24.4016 ], [ -47.0046, -24.4059 ], [ -47.0036, -24.409 ], [ -47.0047, -24.4101 ], [ -47.0082, -24.4099 ], [ -47.0096, -24.4112 ], [ -47.0089, -24.4126 ], [ -47.0077, -24.4127 ], [ -47.0076, -24.4139 ], [ -47.0086, -24.4147 ], [ -47.0112, -24.4145 ], [ -47.0153, -24.4125 ], [ -47.0192, -24.4148 ], [ -47.0208, -24.4162 ], [ -47.0217, -24.4182 ], [ -47.0203, -24.419 ], [ -47.0203, -24.42 ], [ -47.0215, -24.4226 ], [ -47.0247, -24.4236 ], [ -47.0257, -24.4253 ], [ -47.0281, -24.4261 ], [ -47.0288, -24.4271 ], [ -47.0311, -24.4274 ], [ -47.032, -24.4268 ], [ -47.0372, -24.4269 ], [ -47.0388, -24.4279 ], [ -47.0414, -24.4283 ], [ -47.0443, -24.4295 ], [ -47.0454, -24.4305 ], [ -47.0473, -24.4301 ], [ -47.0499, -24.4324 ], [ -47.0533, -24.4331 ], [ -47.0586, -24.4362 ], [ -47.0779, -24.4482 ], [ -47.0785, -24.4448 ], [ -47.0784, -24.4411 ], [ -47.081, -24.4377 ], [ -47.0809, -24.4354 ], [ -47.0813, -24.4341 ], [ -47.0858, -24.4307 ], [ -47.0885, -24.4334 ], [ -47.0929, -24.4355 ], [ -47.0966, -24.4349 ], [ -47.102, -24.4333 ], [ -47.1036, -24.4324 ], [ -47.105, -24.4308 ], [ -47.1083, -24.4295 ], [ -47.1079, -24.4271 ], [ -47.1089, -24.4263 ], [ -47.1113, -24.4263 ], [ -47.1141, -24.4207 ], [ -47.1153, -24.419 ], [ -47.1177, -24.4176 ], [ -47.1166, -24.4128 ], [ -47.1146, -24.4117 ], [ -47.1136, -24.4097 ], [ -47.1137, -24.4079 ], [ -47.1127, -24.406 ], [ -47.1133, -24.4035 ], [ -47.113, -24.4014 ], [ -47.1119, -24.3991 ], [ -47.1093, -24.3984 ], [ -47.1074, -24.3973 ], [ -47.1058, -24.3951 ], [ -47.1013, -24.3927 ], [ -47.1008, -24.392 ], [ -47.1015, -24.3904 ], [ -47.1045, -24.3896 ], [ -47.107, -24.3884 ], [ -47.111, -24.3881 ], [ -47.1132, -24.3859 ], [ -47.1122, -24.384 ], [ -47.111, -24.3829 ], [ -47.1138, -24.38 ], [ -47.1162, -24.379 ], [ -47.1164, -24.3766 ], [ -47.1145, -24.374 ], [ -47.1142, -24.3718 ], [ -47.1169, -24.3696 ], [ -47.1177, -24.3671 ], [ -47.1208, -24.3648 ], [ -47.1188, -24.3624 ], [ -47.1178, -24.36 ], [ -47.1127, -24.3561 ], [ -47.1122, -24.3541 ], [ -47.1111, -24.352 ], [ -47.1096, -24.3512 ], [ -47.1077, -24.3508 ], [ -47.1042, -24.3534 ], [ -47.1022, -24.3541 ], [ -47.0959, -24.3539 ], [ -47.0944, -24.3533 ], [ -47.0904, -24.3524 ], [ -47.0863, -24.348 ], [ -47.0848, -24.3476 ], [ -47.0812, -24.3459 ], [ -47.0799, -24.345 ], [ -47.0773, -24.3444 ], [ -47.074, -24.3429 ], [ -47.072, -24.3439 ], [ -47.0705, -24.3435 ], [ -47.067, -24.3435 ], [ -47.0644, -24.3438 ], [ -47.0638, -24.3428 ], [ -47.0635, -24.3384 ], [ -47.0607, -24.3377 ], [ -47.0582, -24.3381 ], [ -47.0562, -24.3388 ], [ -47.0521, -24.336 ], [ -47.0507, -24.3354 ], [ -47.046, -24.3348 ], [ -47.045, -24.3344 ], [ -47.0425, -24.331 ], [ -47.0396, -24.329 ], [ -47.0389, -24.3265 ], [ -47.0365, -24.3242 ], [ -47.0346, -24.3215 ], [ -47.0329, -24.3171 ], [ -47.0329, -24.3159 ], [ -47.0312, -24.311 ], [ -47.0303, -24.3097 ], [ -47.0279, -24.3028 ], [ -47.0265, -24.3009 ], [ -47.0263, -24.2992 ], [ -47.0247, -24.2934 ], [ -47.0247, -24.2916 ], [ -47.0237, -24.2883 ], [ -47.0211, -24.2835 ], [ -47.0211, -24.2827 ], [ -47.0229, -24.2817 ], [ -47.024, -24.2803 ], [ -47.027, -24.2799 ], [ -47.0279, -24.2781 ], [ -47.029, -24.2781 ], [ -47.0317, -24.2791 ], [ -47.0334, -24.2792 ], [ -47.0399, -24.2738 ], [ -47.0409, -24.2736 ], [ -47.0436, -24.2743 ], [ -47.0471, -24.2763 ], [ -47.0488, -24.2767 ], [ -47.0519, -24.2732 ], [ -47.0516, -24.2711 ], [ -47.0524, -24.2701 ], [ -47.0539, -24.2696 ], [ -47.0555, -24.2676 ], [ -47.0559, -24.266 ], [ -47.057, -24.2643 ], [ -47.0566, -24.2617 ], [ -47.055, -24.2582 ], [ -47.0534, -24.2562 ], [ -47.0512, -24.2543 ], [ -47.0486, -24.2512 ], [ -47.0495, -24.2501 ], [ -47.0451, -24.2499 ], [ -47.0445, -24.2489 ], [ -47.0462, -24.2464 ], [ -47.0461, -24.2447 ], [ -47.0439, -24.2429 ], [ -47.0436, -24.2396 ], [ -47.0416, -24.2371 ], [ -47.0395, -24.2353 ], [ -47.0381, -24.2334 ], [ -47.036, -24.2333 ], [ -47.0313, -24.2317 ], [ -47.0299, -24.2292 ], [ -47.0305, -24.2273 ], [ -47.0305, -24.2234 ], [ -47.0293, -24.2197 ], [ -47.0321, -24.219 ], [ -47.0337, -24.2195 ], [ -47.0355, -24.2223 ], [ -47.0394, -24.2221 ], [ -47.0403, -24.2186 ], [ -47.0432, -24.2167 ], [ -47.0442, -24.2172 ], [ -47.0468, -24.2162 ], [ -47.0484, -24.2166 ], [ -47.0519, -24.2138 ], [ -47.0528, -24.2141 ], [ -47.0537, -24.2125 ], [ -47.0557, -24.2111 ], [ -47.0593, -24.2112 ], [ -47.0612, -24.2091 ], [ -47.0644, -24.2035 ], [ -47.0653, -24.2026 ], [ -47.0674, -24.2015 ], [ -47.0685, -24.1991 ], [ -47.0672, -24.1975 ], [ -47.0707, -24.1955 ], [ -47.0668, -24.1927 ], [ -47.0652, -24.1924 ], [ -47.0657, -24.1901 ], [ -47.0646, -24.187 ], [ -47.0632, -24.1864 ], [ -47.0598, -24.1858 ], [ -47.0578, -24.185 ], [ -47.0566, -24.183 ], [ -47.054, -24.1816 ], [ -47.0513, -24.1822 ], [ -47.0492, -24.1816 ], [ -47.0425, -24.1776 ], [ -47.0414, -24.175 ], [ -47.0422, -24.1733 ], [ -47.0405, -24.1699 ], [ -47.0382, -24.1681 ], [ -47.0367, -24.1649 ], [ -47.0342, -24.1626 ], [ -47.0328, -24.1598 ], [ -47.031, -24.1576 ], [ -47.0328, -24.1543 ], [ -47.032, -24.1521 ], [ -47.0331, -24.1493 ], [ -47.0334, -24.147 ], [ -47.0311, -24.1483 ], [ -47.0284, -24.1471 ], [ -47.0263, -24.1451 ], [ -47.0235, -24.1445 ], [ -47.0198, -24.1432 ], [ -47.0186, -24.142 ], [ -47.014, -24.1417 ], [ -47.0125, -24.1406 ], [ -47.0099, -24.1376 ], [ -47.0098, -24.1355 ], [ -47.0109, -24.1333 ], [ -47.0102, -24.1317 ], [ -47.0079, -24.1307 ], [ -47.0078, -24.1294 ], [ -47.0052, -24.1277 ], [ -47.0033, -24.1277 ], [ -47.0029, -24.1268 ], [ -46.9989, -24.1258 ], [ -46.9969, -24.124 ], [ -46.996, -24.1243 ], [ -46.9939, -24.1227 ], [ -46.9916, -24.122 ], [ -46.9872, -24.1232 ], [ -46.9863, -24.125 ], [ -46.9849, -24.1247 ], [ -46.9832, -24.1233 ], [ -46.9828, -24.1258 ], [ -46.9829, -24.1272 ], [ -46.9817, -24.1301 ], [ -46.9798, -24.1317 ], [ -46.9789, -24.1333 ], [ -46.9755, -24.1361 ], [ -46.9741, -24.138 ], [ -46.9721, -24.1385 ], [ -46.9706, -24.1368 ], [ -46.9692, -24.1364 ], [ -46.9651, -24.1367 ], [ -46.9621, -24.1373 ], [ -46.9602, -24.1389 ], [ -46.9585, -24.1394 ], [ -46.9562, -24.1394 ], [ -46.9553, -24.1405 ], [ -46.9534, -24.1413 ], [ -46.9517, -24.1397 ], [ -46.9486, -24.1398 ], [ -46.9468, -24.1413 ], [ -46.9475, -24.1431 ], [ -46.9471, -24.1447 ], [ -46.9458, -24.1455 ], [ -46.9448, -24.147 ], [ -46.9452, -24.148 ], [ -46.9443, -24.1489 ], [ -46.9442, -24.1505 ], [ -46.9422, -24.1521 ], [ -46.9411, -24.1545 ], [ -46.9416, -24.1566 ], [ -46.9404, -24.1587 ], [ -46.9413, -24.1613 ], [ -46.9433, -24.1622 ], [ -46.9436, -24.1647 ], [ -46.9432, -24.1652 ], [ -46.9434, -24.1691 ], [ -46.942, -24.1705 ], [ -46.9431, -24.1738 ], [ -46.942, -24.1762 ], [ -46.9442, -24.1775 ], [ -46.9458, -24.1776 ], [ -46.9485, -24.179 ], [ -46.9483, -24.1807 ], [ -46.9499, -24.1821 ], [ -46.9503, -24.1838 ], [ -46.9522, -24.1864 ], [ -46.9515, -24.1876 ], [ -46.9519, -24.1909 ], [ -46.9513, -24.1926 ], [ -46.9485, -24.1944 ], [ -46.9489, -24.1959 ], [ -46.9467, -24.1974 ], [ -46.9444, -24.1977 ], [ -46.9428, -24.1991 ], [ -46.9425, -24.2 ], [ -46.9386, -24.2023 ], [ -46.9371, -24.2068 ], [ -46.9353, -24.208 ], [ -46.9351, -24.2095 ], [ -46.9343, -24.2107 ], [ -46.9343, -24.2119 ], [ -46.9333, -24.2138 ], [ -46.9353, -24.215 ], [ -46.935, -24.217 ], [ -46.9332, -24.2179 ], [ -46.9313, -24.2181 ], [ -46.9294, -24.2207 ], [ -46.9256, -24.2223 ], [ -46.9253, -24.2248 ], [ -46.9253, -24.2287 ], [ -46.9256, -24.2301 ], [ -46.9266, -24.2315 ], [ -46.8976, -24.2529 ] ] ], [ [ [ -47.0004, -24.4092 ], [ -47.0017, -24.4106 ], [ -47.0034, -24.4098 ], [ -47.0006, -24.4085 ], [ -47.0004, -24.4092 ] ] ], [ [ [ -46.9848, -24.3792 ], [ -46.9836, -24.3807 ], [ -46.9847, -24.3825 ], [ -46.9858, -24.3825 ], [ -46.9876, -24.3815 ], [ -46.9872, -24.3796 ], [ -46.9861, -24.3799 ], [ -46.9848, -24.3792 ] ] ] ] } }
]
}
