{
"type": "FeatureCollection",
"name": "localidades_baranquilla_segun_pot",
"crs": { "type": "name", "properties": { "name": "urn:ogc:def:crs:OGC:1.3:CRS84" } },
"xy_coordinate_resolution": 1e-06,
"features": [
{ "type": "Feature", "properties": { "localidad": "Metropolitana", "AREA_Has": 1142.0 }, "geometry": { "type": "Polygon", "coordinates": [ [ [ -74.849995, 10.938846 ], [ -74.849409, 10.939094 ], [ -74.848002, 10.93998 ], [ -74.845487, 10.941244 ], [ -74.843519, 10.942286 ], [ -74.841741, 10.942788 ], [ -74.839017, 10.943583 ], [ -74.838379, 10.943707 ], [ -74.837981, 10.9437 ], [ -74.835564, 10.943479 ], [ -74.833724, 10.943333 ], [ -74.833726, 10.943318 ], [ -74.832316, 10.943197 ], [ -74.831661, 10.943205 ], [ -74.831343, 10.943244 ], [ -74.831041, 10.943317 ], [ -74.829679, 10.943574 ], [ -74.827542, 10.944015 ], [ -74.825512, 10.944448 ], [ -74.824728, 10.944682 ], [ -74.823056, 10.945234 ], [ -74.821778, 10.945681 ], [ -74.816181, 10.947557 ], [ -74.815243, 10.947888 ], [ -74.814509, 10.948214 ], [ -74.813891, 10.948548 ], [ -74.813458, 10.948848 ], [ -74.813148, 10.949087 ], [ -74.812795, 10.949393 ], [ -74.812598, 10.949576 ], [ -74.811354, 10.950859 ], [ -74.810835, 10.951369 ], [ -74.808863, 10.953415 ], [ -74.808198, 10.954078 ], [ -74.807526, 10.954796 ], [ -74.806394, 10.955923 ], [ -74.805809, 10.956542 ], [ -74.806094, 10.956722 ], [ -74.805344, 10.957947 ], [ -74.804385, 10.959213 ], [ -74.803698, 10.960626 ], [ -74.80327, 10.96178 ], [ -74.803289, 10.962067 ], [ -74.803269, 10.962127 ], [ -74.803041, 10.962249 ], [ -74.8029, 10.962296 ], [ -74.802682, 10.962318 ], [ -74.802472, 10.962284 ], [ -74.802286, 10.962192 ], [ -74.801847, 10.961814 ], [ -74.80172, 10.961736 ], [ -74.800816, 10.961629 ], [ -74.800648, 10.961567 ], [ -74.800351, 10.961343 ], [ -74.798814, 10.96234 ], [ -74.798327, 10.962592 ], [ -74.797809, 10.962741 ], [ -74.797236, 10.96282 ], [ -74.79565, 10.962948 ], [ -74.795043, 10.96297 ], [ -74.794161, 10.963367 ], [ -74.792363, 10.964257 ], [ -74.791974, 10.964425 ], [ -74.793217, 10.961825 ], [ -74.793651, 10.960662 ], [ -74.794738, 10.958549 ], [ -74.796613, 10.954605 ], [ -74.796937, 10.953813 ], [ -74.79743, 10.952831 ], [ -74.797583, 10.952637 ], [ -74.79784, 10.952384 ], [ -74.798383, 10.951949 ], [ -74.799294, 10.951166 ], [ -74.79972, 10.950674 ], [ -74.799855, 10.950221 ], [ -74.799852, 10.949764 ], [ -74.799595, 10.943491 ], [ -74.799578, 10.941892 ], [ -74.799378, 10.940462 ], [ -74.799224, 10.938306 ], [ -74.799203, 10.934314 ], [ -74.79923, 10.93378 ], [ -74.799219, 10.932281 ], [ -74.799192, 10.931747 ], [ -74.799164, 10.927222 ], [ -74.799125, 10.926671 ], [ -74.799172, 10.925932 ], [ -74.799408, 10.925489 ], [ -74.799645, 10.925293 ], [ -74.80072, 10.925019 ], [ -74.801201, 10.924782 ], [ -74.801635, 10.924429 ], [ -74.801994, 10.924036 ], [ -74.802078, 10.923641 ], [ -74.802646, 10.923158 ], [ -74.803163, 10.922623 ], [ -74.80377, 10.922243 ], [ -74.804821, 10.922304 ], [ -74.805162, 10.922438 ], [ -74.805421, 10.922339 ], [ -74.805617, 10.92235 ], [ -74.806765, 10.922013 ], [ -74.807305, 10.921945 ], [ -74.808025, 10.921721 ], [ -74.808498, 10.921742 ], [ -74.809016, 10.921808 ], [ -74.809421, 10.921942 ], [ -74.80943, 10.92228 ], [ -74.81026, 10.922221 ], [ -74.810414, 10.922272 ], [ -74.810853, 10.922316 ], [ -74.810862, 10.922495 ], [ -74.811734, 10.922466 ], [ -74.811781, 10.922441 ], [ -74.81181, 10.922543 ], [ -74.814453, 10.922433 ], [ -74.814603, 10.922462 ], [ -74.814917, 10.922342 ], [ -74.815391, 10.922274 ], [ -74.815765, 10.921747 ], [ -74.816406, 10.921115 ], [ -74.817581, 10.920273 ], [ -74.818534, 10.919799 ], [ -74.818847, 10.919541 ], [ -74.819068, 10.919009 ], [ -74.819602, 10.918377 ], [ -74.819976, 10.918271 ], [ -74.820884, 10.918061 ], [ -74.821258, 10.917903 ], [ -74.821792, 10.916692 ], [ -74.822326, 10.916218 ], [ -74.824126, 10.915224 ], [ -74.825042, 10.914873 ], [ -74.826427, 10.913922 ], [ -74.826544, 10.914057 ], [ -74.82668, 10.914075 ], [ -74.826949, 10.914204 ], [ -74.827225, 10.914433 ], [ -74.827508, 10.914638 ], [ -74.827761, 10.914733 ], [ -74.828282, 10.914789 ], [ -74.828652, 10.914913 ], [ -74.82889, 10.914926 ], [ -74.829754, 10.915089 ], [ -74.831098, 10.915633 ], [ -74.831639, 10.915574 ], [ -74.831811, 10.915623 ], [ -74.83191, 10.915707 ], [ -74.832156, 10.915703 ], [ -74.832399, 10.915869 ], [ -74.833178, 10.916595 ], [ -74.833473, 10.916924 ], [ -74.833596, 10.917101 ], [ -74.833675, 10.917183 ], [ -74.833778, 10.9172 ], [ -74.833791, 10.917223 ], [ -74.833638, 10.917921 ], [ -74.834421, 10.918364 ], [ -74.834719, 10.918421 ], [ -74.834778, 10.918406 ], [ -74.83514, 10.91857 ], [ -74.835968, 10.919188 ], [ -74.838717, 10.921166 ], [ -74.839306, 10.921381 ], [ -74.839887, 10.921677 ], [ -74.840016, 10.921714 ], [ -74.840345, 10.921758 ], [ -74.839641, 10.923284 ], [ -74.838984, 10.924619 ], [ -74.839027, 10.92462 ], [ -74.838389, 10.926383 ], [ -74.839274, 10.926855 ], [ -74.840701, 10.927371 ], [ -74.841263, 10.927557 ], [ -74.841699, 10.927731 ], [ -74.842762, 10.928353 ], [ -74.843226, 10.928768 ], [ -74.843611, 10.929271 ], [ -74.847004, 10.933242 ], [ -74.847959, 10.934438 ], [ -74.848957, 10.935839 ], [ -74.84935, 10.936738 ], [ -74.849813, 10.937424 ], [ -74.85017, 10.93859 ], [ -74.850183, 10.93883 ], [ -74.849995, 10.938846 ] ] ] } },
{ "type": "Feature", "properties": { "localidad": "Norte - Centro Historico", "AREA_Has": 5283.1 }, "geometry": { "type": "Polygon", "coordinates": [ [ [ -74.902612, 10.952958 ], [ -74.906156, 10.951302 ], [ -74.907715, 10.950464 ], [ -74.910513, 10.949152 ], [ -74.911935, 10.948456 ], [ -74.915407, 10.946798 ], [ -74.916334, 10.946343 ], [ -74.9184, 10.945287 ], [ -74.918419, 10.945441 ], [ -74.918401, 10.945571 ], [ -74.918401, 10.945831 ], [ -74.918515, 10.946072 ], [ -74.918704, 10.946387 ], [ -74.918761, 10.946572 ], [ -74.918856, 10.947129 ], [ -74.918838, 10.947426 ], [ -74.918876, 10.947704 ], [ -74.918953, 10.948038 ], [ -74.918973, 10.948614 ], [ -74.919105, 10.948818 ], [ -74.91914, 10.949278 ], [ -74.919045, 10.949768 ], [ -74.918719, 10.950318 ], [ -74.918106, 10.952081 ], [ -74.917837, 10.952574 ], [ -74.917837, 10.953086 ], [ -74.917914, 10.953522 ], [ -74.917972, 10.954091 ], [ -74.917703, 10.954641 ], [ -74.917435, 10.954907 ], [ -74.916782, 10.955286 ], [ -74.916533, 10.955571 ], [ -74.916168, 10.955628 ], [ -74.915862, 10.955988 ], [ -74.915209, 10.956348 ], [ -74.914763, 10.956746 ], [ -74.911846, 10.957874 ], [ -74.911865, 10.957937 ], [ -74.910607, 10.957965 ], [ -74.909469, 10.95792 ], [ -74.909046, 10.957838 ], [ -74.908854, 10.957711 ], [ -74.908624, 10.957448 ], [ -74.908367, 10.957366 ], [ -74.908211, 10.957376 ], [ -74.907789, 10.957775 ], [ -74.90766, 10.957847 ], [ -74.907375, 10.957838 ], [ -74.907284, 10.957902 ], [ -74.907219, 10.958083 ], [ -74.907155, 10.958183 ], [ -74.9071, 10.958328 ], [ -74.906568, 10.958628 ], [ -74.906311, 10.958719 ], [ -74.906155, 10.958918 ], [ -74.90609, 10.959136 ], [ -74.906081, 10.959272 ], [ -74.906035, 10.959327 ], [ -74.905833, 10.959399 ], [ -74.90554, 10.95939 ], [ -74.905439, 10.959526 ], [ -74.905384, 10.959708 ], [ -74.905393, 10.960116 ], [ -74.905332, 10.960272 ], [ -74.90527, 10.960333 ], [ -74.905229, 10.960335 ], [ -74.90524, 10.96036 ], [ -74.900227, 10.960681 ], [ -74.899034, 10.962613 ], [ -74.902192, 10.965279 ], [ -74.904014, 10.966414 ], [ -74.904771, 10.96742 ], [ -74.905707, 10.96904 ], [ -74.90633, 10.969696 ], [ -74.906865, 10.970308 ], [ -74.907576, 10.970701 ], [ -74.908286, 10.970787 ], [ -74.909308, 10.971441 ], [ -74.908734, 10.972495 ], [ -74.905315, 10.971628 ], [ -74.905316, 10.971891 ], [ -74.904433, 10.973647 ], [ -74.898365, 10.977478 ], [ -74.897348, 10.97884 ], [ -74.896598, 10.980157 ], [ -74.895849, 10.98222 ], [ -74.893854, 10.983014 ], [ -74.892035, 10.983019 ], [ -74.888257, 10.980662 ], [ -74.887146, 10.979919 ], [ -74.886832, 10.978955 ], [ -74.884919, 10.977075 ], [ -74.883158, 10.974521 ], [ -74.882998, 10.974412 ], [ -74.883023, 10.974587 ], [ -74.882962, 10.974545 ], [ -74.88277, 10.974754 ], [ -74.8826, 10.97491 ], [ -74.882562, 10.974974 ], [ -74.882435, 10.97539 ], [ -74.882457, 10.975649 ], [ -74.882416, 10.975675 ], [ -74.882387, 10.975719 ], [ -74.882367, 10.975896 ], [ -74.882301, 10.976057 ], [ -74.882297, 10.976579 ], [ -74.882192, 10.976913 ], [ -74.882196, 10.977461 ], [ -74.882219, 10.977531 ], [ -74.882481, 10.977747 ], [ -74.88275, 10.977894 ], [ -74.882786, 10.977951 ], [ -74.882793, 10.978079 ], [ -74.882926, 10.978314 ], [ -74.882981, 10.978368 ], [ -74.883083, 10.978422 ], [ -74.883215, 10.978461 ], [ -74.883379, 10.978627 ], [ -74.883481, 10.978681 ], [ -74.883594, 10.978716 ], [ -74.883696, 10.978716 ], [ -74.883786, 10.978758 ], [ -74.883844, 10.978827 ], [ -74.883848, 10.978905 ], [ -74.883813, 10.979001 ], [ -74.88377, 10.979047 ], [ -74.883692, 10.979028 ], [ -74.883434, 10.979032 ], [ -74.883321, 10.979055 ], [ -74.883114, 10.979048 ], [ -74.88309, 10.979021 ], [ -74.882934, 10.978994 ], [ -74.882797, 10.97892 ], [ -74.882723, 10.978916 ], [ -74.882672, 10.978967 ], [ -74.882641, 10.979024 ], [ -74.882579, 10.979075 ], [ -74.882497, 10.979075 ], [ -74.882376, 10.979017 ], [ -74.882193, 10.979183 ], [ -74.88214, 10.979267 ], [ -74.88214, 10.979335 ], [ -74.882384, 10.979748 ], [ -74.882607, 10.979905 ], [ -74.882645, 10.979989 ], [ -74.882713, 10.980064 ], [ -74.882842, 10.980159 ], [ -74.882808, 10.980359 ], [ -74.882892, 10.980483 ], [ -74.883203, 10.980632 ], [ -74.883212, 10.980724 ], [ -74.883111, 10.980823 ], [ -74.882943, 10.980848 ], [ -74.882808, 10.980948 ], [ -74.882691, 10.980989 ], [ -74.882472, 10.980989 ], [ -74.882414, 10.98094 ], [ -74.882346, 10.980948 ], [ -74.882288, 10.981031 ], [ -74.882225, 10.981186 ], [ -74.882145, 10.98128 ], [ -74.882053, 10.981355 ], [ -74.881977, 10.981371 ], [ -74.881851, 10.981296 ], [ -74.88175, 10.981454 ], [ -74.881574, 10.981454 ], [ -74.881481, 10.981438 ], [ -74.881381, 10.981321 ], [ -74.881288, 10.981272 ], [ -74.881196, 10.981321 ], [ -74.880818, 10.981595 ], [ -74.880759, 10.98162 ], [ -74.880558, 10.981687 ], [ -74.880474, 10.981637 ], [ -74.880415, 10.981554 ], [ -74.880322, 10.981512 ], [ -74.88018, 10.98162 ], [ -74.880138, 10.981596 ], [ -74.879869, 10.981828 ], [ -74.879793, 10.981836 ], [ -74.879743, 10.981886 ], [ -74.879743, 10.981986 ], [ -74.879659, 10.982201 ], [ -74.879827, 10.982268 ], [ -74.87986, 10.982384 ], [ -74.87981, 10.982484 ], [ -74.879852, 10.982567 ], [ -74.879944, 10.9826 ], [ -74.879911, 10.982766 ], [ -74.879777, 10.982832 ], [ -74.879659, 10.982816 ], [ -74.879558, 10.982749 ], [ -74.879306, 10.982782 ], [ -74.879121, 10.982832 ], [ -74.879004, 10.982882 ], [ -74.878903, 10.982882 ], [ -74.878592, 10.982998 ], [ -74.878433, 10.983164 ], [ -74.878424, 10.983339 ], [ -74.8785, 10.98338 ], [ -74.878475, 10.983455 ], [ -74.878349, 10.983521 ], [ -74.878198, 10.983637 ], [ -74.878105, 10.983662 ], [ -74.877962, 10.983787 ], [ -74.877719, 10.983795 ], [ -74.877643, 10.983903 ], [ -74.877694, 10.984152 ], [ -74.87761, 10.984169 ], [ -74.877551, 10.98421 ], [ -74.877551, 10.984368 ], [ -74.877517, 10.984484 ], [ -74.87745, 10.984476 ], [ -74.877366, 10.984492 ], [ -74.877408, 10.984658 ], [ -74.877417, 10.984841 ], [ -74.877324, 10.984858 ], [ -74.877228, 10.984814 ], [ -74.877118, 10.98493 ], [ -74.876849, 10.984966 ], [ -74.876597, 10.985038 ], [ -74.876544, 10.985216 ], [ -74.876472, 10.985323 ], [ -74.876598, 10.9855 ], [ -74.876761, 10.985642 ], [ -74.876725, 10.985873 ], [ -74.876618, 10.986051 ], [ -74.876475, 10.986229 ], [ -74.876206, 10.986531 ], [ -74.876161, 10.986556 ], [ -74.876093, 10.986788 ], [ -74.876009, 10.98691 ], [ -74.875942, 10.986971 ], [ -74.875807, 10.987054 ], [ -74.875645, 10.987115 ], [ -74.875499, 10.987204 ], [ -74.875135, 10.987309 ], [ -74.874843, 10.987314 ], [ -74.874456, 10.987364 ], [ -74.874355, 10.987326 ], [ -74.874127, 10.987358 ], [ -74.873929, 10.987503 ], [ -74.873845, 10.987752 ], [ -74.873829, 10.987924 ], [ -74.873902, 10.988051 ], [ -74.873997, 10.988145 ], [ -74.874176, 10.988162 ], [ -74.874378, 10.988206 ], [ -74.874479, 10.988306 ], [ -74.874714, 10.988367 ], [ -74.874995, 10.988655 ], [ -74.875045, 10.988782 ], [ -74.875056, 10.988843 ], [ -74.875045, 10.988987 ], [ -74.874967, 10.989092 ], [ -74.874899, 10.989275 ], [ -74.874759, 10.989408 ], [ -74.874591, 10.989663 ], [ -74.874535, 10.989768 ], [ -74.874485, 10.989923 ], [ -74.874395, 10.990039 ], [ -74.874339, 10.990178 ], [ -74.874339, 10.99025 ], [ -74.874373, 10.990338 ], [ -74.87447, 10.990429 ], [ -74.874546, 10.990477 ], [ -74.874664, 10.990687 ], [ -74.874776, 10.990743 ], [ -74.874866, 10.990765 ], [ -74.874984, 10.990759 ], [ -74.875129, 10.990698 ], [ -74.875309, 10.990593 ], [ -74.875639, 10.990499 ], [ -74.875746, 10.990443 ], [ -74.876032, 10.990216 ], [ -74.876206, 10.990189 ], [ -74.876284, 10.990222 ], [ -74.876419, 10.99036 ], [ -74.876475, 10.990515 ], [ -74.876514, 10.990687 ], [ -74.876419, 10.991019 ], [ -74.876279, 10.991324 ], [ -74.876099, 10.991623 ], [ -74.876032, 10.991717 ], [ -74.875954, 10.991788 ], [ -74.875879, 10.992056 ], [ -74.875844, 10.992483 ], [ -74.875923, 10.992655 ], [ -74.875934, 10.992769 ], [ -74.875956, 10.992821 ], [ -74.876137, 10.993091 ], [ -74.876208, 10.993152 ], [ -74.87626, 10.993231 ], [ -74.87626, 10.99329 ], [ -74.876216, 10.993344 ], [ -74.876238, 10.993431 ], [ -74.87641, 10.993466 ], [ -74.876552, 10.993435 ], [ -74.876644, 10.993435 ], [ -74.876715, 10.993479 ], [ -74.876785, 10.993557 ], [ -74.876838, 10.993549 ], [ -74.8769, 10.993727 ], [ -74.876988, 10.993801 ], [ -74.877015, 10.993867 ], [ -74.877006, 10.993958 ], [ -74.876803, 10.994132 ], [ -74.876706, 10.994268 ], [ -74.876622, 10.994294 ], [ -74.876525, 10.994237 ], [ -74.876433, 10.994246 ], [ -74.876269, 10.994355 ], [ -74.876234, 10.994416 ], [ -74.875943, 10.994542 ], [ -74.875798, 10.994568 ], [ -74.875546, 10.994717 ], [ -74.875352, 10.994943 ], [ -74.875401, 10.995033 ], [ -74.875454, 10.995069 ], [ -74.875462, 10.99513 ], [ -74.875433, 10.995215 ], [ -74.87529, 10.995253 ], [ -74.875193, 10.99534 ], [ -74.875224, 10.995422 ], [ -74.875604, 10.99561 ], [ -74.875665, 10.995592 ], [ -74.875776, 10.995457 ], [ -74.875873, 10.995418 ], [ -74.87604, 10.995401 ], [ -74.876239, 10.995435 ], [ -74.876433, 10.995501 ], [ -74.876525, 10.995575 ], [ -74.876658, 10.995745 ], [ -74.876755, 10.996002 ], [ -74.87675, 10.996224 ], [ -74.876543, 10.996638 ], [ -74.876393, 10.996782 ], [ -74.876306, 10.996841 ], [ -74.883332, 11.001973 ], [ -74.874616, 11.011013 ], [ -74.873496, 11.010159 ], [ -74.871698, 11.008976 ], [ -74.871245, 11.009472 ], [ -74.87113, 11.009711 ], [ -74.870647, 11.010451 ], [ -74.87052, 11.010688 ], [ -74.870343, 11.010969 ], [ -74.870023, 11.011323 ], [ -74.869845, 11.011443 ], [ -74.869762, 11.011551 ], [ -74.869386, 11.012177 ], [ -74.869262, 11.012484 ], [ -74.868904, 11.013178 ], [ -74.868705, 11.013435 ], [ -74.868634, 11.013514 ], [ -74.868519, 11.013603 ], [ -74.868152, 11.013807 ], [ -74.867561, 11.014175 ], [ -74.867274, 11.014389 ], [ -74.867077, 11.014603 ], [ -74.866778, 11.014823 ], [ -74.866748, 11.014825 ], [ -74.866552, 11.015001 ], [ -74.866432, 11.015076 ], [ -74.866345, 11.015162 ], [ -74.866283, 11.015256 ], [ -74.866259, 11.015332 ], [ -74.866259, 11.015436 ], [ -74.866231, 11.015509 ], [ -74.866101, 11.015608 ], [ -74.865905, 11.015795 ], [ -74.865714, 11.01613 ], [ -74.865292, 11.016781 ], [ -74.860129, 11.016782 ], [ -74.859812, 11.0165 ], [ -74.857248, 11.016835 ], [ -74.854045, 11.017225 ], [ -74.853217, 11.017244 ], [ -74.852291, 11.017192 ], [ -74.851422, 11.017068 ], [ -74.85065, 11.016893 ], [ -74.850016, 11.016689 ], [ -74.84952, 11.016503 ], [ -74.848924, 11.016239 ], [ -74.84793, 11.015718 ], [ -74.842522, 11.012812 ], [ -74.842136, 11.012695 ], [ -74.841829, 11.012656 ], [ -74.841425, 11.012715 ], [ -74.840243, 11.013159 ], [ -74.839955, 11.013296 ], [ -74.839769, 11.01341 ], [ -74.839594, 11.013554 ], [ -74.83953, 11.013636 ], [ -74.839214, 11.014167 ], [ -74.838481, 11.015987 ], [ -74.838067, 11.016958 ], [ -74.838505, 11.015828 ], [ -74.839263, 11.013985 ], [ -74.839491, 11.013325 ], [ -74.840228, 11.011489 ], [ -74.831731, 11.006934 ], [ -74.830207, 11.006146 ], [ -74.829971, 11.006041 ], [ -74.830314, 11.005314 ], [ -74.829816, 11.005055 ], [ -74.828902, 11.00462 ], [ -74.8288, 11.004547 ], [ -74.828502, 11.004258 ], [ -74.828175, 11.004054 ], [ -74.827985, 11.003989 ], [ -74.827884, 11.003973 ], [ -74.824609, 11.003098 ], [ -74.824344, 11.003092 ], [ -74.823508, 11.003135 ], [ -74.822746, 11.003134 ], [ -74.821398, 11.003089 ], [ -74.820851, 11.003048 ], [ -74.820222, 11.002946 ], [ -74.819727, 11.002826 ], [ -74.819387, 11.00269 ], [ -74.818736, 11.002376 ], [ -74.81799, 11.00394 ], [ -74.817084, 11.005914 ], [ -74.816755, 11.006579 ], [ -74.81816, 11.007227 ], [ -74.818276, 11.007292 ], [ -74.817212, 11.007819 ], [ -74.816995, 11.008028 ], [ -74.816429, 11.008505 ], [ -74.815518, 11.009671 ], [ -74.815151, 11.010176 ], [ -74.813256, 11.00931 ], [ -74.813955, 11.008754 ], [ -74.813829, 11.008686 ], [ -74.812117, 11.007918 ], [ -74.811823, 11.008395 ], [ -74.811717, 11.00864 ], [ -74.811466, 11.009352 ], [ -74.810971, 11.010999 ], [ -74.81027, 11.011743 ], [ -74.810644, 11.011836 ], [ -74.810786, 11.011893 ], [ -74.810463, 11.012265 ], [ -74.810291, 11.012496 ], [ -74.809917, 11.013304 ], [ -74.809592, 11.013934 ], [ -74.808909, 11.015127 ], [ -74.808693, 11.015733 ], [ -74.811011, 11.016303 ], [ -74.81075, 11.017304 ], [ -74.810721, 11.017369 ], [ -74.809667, 11.018799 ], [ -74.809351, 11.019172 ], [ -74.809237, 11.019284 ], [ -74.808051, 11.018973 ], [ -74.808026, 11.01904 ], [ -74.807974, 11.019079 ], [ -74.807781, 11.019476 ], [ -74.807383, 11.019878 ], [ -74.80709, 11.020209 ], [ -74.806659, 11.020528 ], [ -74.805474, 11.020872 ], [ -74.805066, 11.020964 ], [ -74.80287, 11.022914 ], [ -74.802696, 11.023127 ], [ -74.802245, 11.024079 ], [ -74.802044, 11.024387 ], [ -74.801452, 11.024871 ], [ -74.801331, 11.025019 ], [ -74.801268, 11.02513 ], [ -74.801081, 11.025728 ], [ -74.800988, 11.025966 ], [ -74.800824, 11.026295 ], [ -74.800348, 11.027699 ], [ -74.800304, 11.027603 ], [ -74.800295, 11.027512 ], [ -74.800261, 11.027426 ], [ -74.800149, 11.027273 ], [ -74.799898, 11.026995 ], [ -74.79966, 11.026704 ], [ -74.799046, 11.026134 ], [ -74.798862, 11.02611 ], [ -74.798653, 11.025689 ], [ -74.798431, 11.025383 ], [ -74.798363, 11.025321 ], [ -74.798276, 11.025278 ], [ -74.798213, 11.025206 ], [ -74.798135, 11.025186 ], [ -74.798114, 11.025133 ], [ -74.798046, 11.025071 ], [ -74.797872, 11.024851 ], [ -74.797644, 11.024693 ], [ -74.797581, 11.024621 ], [ -74.797538, 11.02454 ], [ -74.797363, 11.024468 ], [ -74.797262, 11.02431 ], [ -74.797092, 11.024224 ], [ -74.796928, 11.024114 ], [ -74.796855, 11.024056 ], [ -74.796802, 11.023975 ], [ -74.796719, 11.023932 ], [ -74.796593, 11.023788 ], [ -74.796434, 11.023678 ], [ -74.796347, 11.02365 ], [ -74.796274, 11.023592 ], [ -74.796177, 11.023329 ], [ -74.796109, 11.023267 ], [ -74.795853, 11.023147 ], [ -74.795732, 11.023009 ], [ -74.795625, 11.022851 ], [ -74.795538, 11.022812 ], [ -74.795461, 11.022755 ], [ -74.795349, 11.022602 ], [ -74.795204, 11.022482 ], [ -74.795001, 11.022281 ], [ -74.794923, 11.022229 ], [ -74.794807, 11.022085 ], [ -74.794671, 11.021961 ], [ -74.794628, 11.021879 ], [ -74.794439, 11.021669 ], [ -74.794352, 11.021635 ], [ -74.794081, 11.021257 ], [ -74.793945, 11.021119 ], [ -74.793655, 11.02075 ], [ -74.793505, 11.02064 ], [ -74.793379, 11.020497 ], [ -74.793296, 11.020449 ], [ -74.793229, 11.020387 ], [ -74.793185, 11.020195 ], [ -74.793011, 11.020128 ], [ -74.792919, 11.020109 ], [ -74.792841, 11.020052 ], [ -74.792667, 11.01999 ], [ -74.792614, 11.019913 ], [ -74.792468, 11.019798 ], [ -74.792352, 11.019655 ], [ -74.792328, 11.019564 ], [ -74.792188, 11.01932 ], [ -74.792038, 11.0192 ], [ -74.791878, 11.0191 ], [ -74.791737, 11.018975 ], [ -74.791553, 11.01876 ], [ -74.791239, 11.01854 ], [ -74.791176, 11.018468 ], [ -74.791152, 11.018466 ], [ -74.791118, 11.018403 ], [ -74.791045, 11.018341 ], [ -74.790963, 11.018298 ], [ -74.79059, 11.018006 ], [ -74.790527, 11.017939 ], [ -74.79045, 11.017887 ], [ -74.790334, 11.017743 ], [ -74.790193, 11.017619 ], [ -74.790038, 11.017514 ], [ -74.789946, 11.01748 ], [ -74.789704, 11.017327 ], [ -74.789617, 11.017289 ], [ -74.789462, 11.017174 ], [ -74.789341, 11.01703 ], [ -74.788997, 11.016695 ], [ -74.78891, 11.016533 ], [ -74.788886, 11.016437 ], [ -74.788828, 11.016346 ], [ -74.788722, 11.016193 ], [ -74.788533, 11.015987 ], [ -74.788, 11.01548 ], [ -74.787845, 11.01538 ], [ -74.787642, 11.015193 ], [ -74.787521, 11.015054 ], [ -74.787177, 11.014805 ], [ -74.787085, 11.014719 ], [ -74.787027, 11.014643 ], [ -74.78695, 11.014456 ], [ -74.786809, 11.014317 ], [ -74.786727, 11.01427 ], [ -74.786601, 11.014107 ], [ -74.786446, 11.01403 ], [ -74.786349, 11.013868 ], [ -74.786286, 11.013801 ], [ -74.786131, 11.013691 ], [ -74.785928, 11.013499 ], [ -74.785638, 11.01326 ], [ -74.785163, 11.012954 ], [ -74.784742, 11.01259 ], [ -74.784432, 11.01238 ], [ -74.784345, 11.012346 ], [ -74.784103, 11.012188 ], [ -74.784006, 11.01203 ], [ -74.783938, 11.011968 ], [ -74.783774, 11.011877 ], [ -74.783556, 11.011695 ], [ -74.783391, 11.0116 ], [ -74.78326, 11.011461 ], [ -74.783173, 11.011408 ], [ -74.783057, 11.011265 ], [ -74.782917, 11.011136 ], [ -74.782757, 11.011035 ], [ -74.782689, 11.010973 ], [ -74.782646, 11.010892 ], [ -74.782515, 11.010743 ], [ -74.78236, 11.010628 ], [ -74.782263, 11.010471 ], [ -74.781919, 11.010035 ], [ -74.781677, 11.009877 ], [ -74.781614, 11.009805 ], [ -74.781532, 11.009753 ], [ -74.780937, 11.009466 ], [ -74.780869, 11.00937 ], [ -74.780786, 11.009322 ], [ -74.780443, 11.009174 ], [ -74.780109, 11.008987 ], [ -74.780065, 11.008906 ], [ -74.780055, 11.008815 ], [ -74.780007, 11.008734 ], [ -74.779862, 11.0086 ], [ -74.77961, 11.008327 ], [ -74.779455, 11.008097 ], [ -74.778981, 11.008021 ], [ -74.778889, 11.008025 ], [ -74.778714, 11.00781 ], [ -74.778627, 11.007647 ], [ -74.778569, 11.007576 ], [ -74.778482, 11.007547 ], [ -74.778327, 11.007442 ], [ -74.778201, 11.007308 ], [ -74.777954, 11.006906 ], [ -74.777824, 11.006777 ], [ -74.77778, 11.006695 ], [ -74.777722, 11.006523 ], [ -74.77762, 11.00636 ], [ -74.777441, 11.00615 ], [ -74.777098, 11.005585 ], [ -74.777088, 11.005596 ], [ -74.777001, 11.00551 ], [ -74.7769, 11.005357 ], [ -74.776764, 11.005233 ], [ -74.776508, 11.00495 ], [ -74.776488, 11.00486 ], [ -74.776445, 11.004778 ], [ -74.776329, 11.00463 ], [ -74.77598, 11.004319 ], [ -74.775767, 11.004013 ], [ -74.775506, 11.003735 ], [ -74.77537, 11.003486 ], [ -74.775031, 11.003041 ], [ -74.774915, 11.002898 ], [ -74.774528, 11.002501 ], [ -74.774334, 11.00218 ], [ -74.774208, 11.002046 ], [ -74.774131, 11.001783 ], [ -74.774024, 11.001525 ], [ -74.773753, 11.001132 ], [ -74.773632, 11.000994 ], [ -74.773376, 11.000601 ], [ -74.773192, 11.000386 ], [ -74.773056, 11.000257 ], [ -74.773008, 11.000176 ], [ -74.772964, 11.000094 ], [ -74.772969, 10.999893 ], [ -74.772955, 10.999855 ], [ -74.772644, 10.999563 ], [ -74.772519, 10.99953 ], [ -74.77235, 10.999444 ], [ -74.772267, 10.999396 ], [ -74.772127, 10.999276 ], [ -74.772114, 10.999284 ], [ -74.77202, 10.999118 ], [ -74.77189, 10.998989 ], [ -74.771773, 10.998841 ], [ -74.771599, 10.998759 ], [ -74.771531, 10.998692 ], [ -74.771507, 10.998601 ], [ -74.771454, 10.99852 ], [ -74.771318, 10.998396 ], [ -74.771188, 10.998142 ], [ -74.771047, 10.998022 ], [ -74.770936, 10.997874 ], [ -74.770791, 10.997759 ], [ -74.770592, 10.997444 ], [ -74.770321, 10.99719 ], [ -74.770287, 10.997104 ], [ -74.770123, 10.996879 ], [ -74.769876, 10.996731 ], [ -74.769808, 10.996668 ], [ -74.769711, 10.996501 ], [ -74.769639, 10.996444 ], [ -74.76946, 10.996396 ], [ -74.769377, 10.996348 ], [ -74.769319, 10.996271 ], [ -74.76929, 10.996185 ], [ -74.769164, 10.996051 ], [ -74.769072, 10.996056 ], [ -74.768893, 10.995994 ], [ -74.76883, 10.995927 ], [ -74.768763, 10.99575 ], [ -74.768709, 10.995673 ], [ -74.768685, 10.995582 ], [ -74.768724, 10.995496 ], [ -74.768709, 10.995405 ], [ -74.768646, 10.995338 ], [ -74.768564, 10.995286 ], [ -74.76839, 10.995223 ], [ -74.768269, 10.995085 ], [ -74.768094, 10.995003 ], [ -74.768003, 10.994979 ], [ -74.767915, 10.994927 ], [ -74.767654, 10.994659 ], [ -74.767572, 10.994616 ], [ -74.767368, 10.994424 ], [ -74.767228, 10.99408 ], [ -74.767073, 10.99397 ], [ -74.767063, 10.993879 ], [ -74.767025, 10.993793 ], [ -74.766938, 10.993759 ], [ -74.766904, 10.993673 ], [ -74.766846, 10.993601 ], [ -74.766773, 10.993544 ], [ -74.766676, 10.993376 ], [ -74.766657, 10.993286 ], [ -74.766594, 10.993214 ], [ -74.766516, 10.993156 ], [ -74.766473, 10.992975 ], [ -74.766429, 10.992888 ], [ -74.76625, 10.992668 ], [ -74.766187, 10.992487 ], [ -74.766183, 10.992396 ], [ -74.766105, 10.992228 ], [ -74.766062, 10.992051 ], [ -74.765892, 10.991826 ], [ -74.765883, 10.991735 ], [ -74.765839, 10.991649 ], [ -74.765708, 10.99152 ], [ -74.765573, 10.991276 ], [ -74.765447, 10.990831 ], [ -74.765282, 10.990602 ], [ -74.765195, 10.990434 ], [ -74.765069, 10.990286 ], [ -74.76504, 10.990195 ], [ -74.764939, 10.990042 ], [ -74.764827, 10.989783 ], [ -74.764794, 10.989602 ], [ -74.764707, 10.989338 ], [ -74.764561, 10.989099 ], [ -74.764489, 10.989042 ], [ -74.764397, 10.989027 ], [ -74.764314, 10.988975 ], [ -74.764252, 10.988908 ], [ -74.764169, 10.98886 ], [ -74.763913, 10.988554 ], [ -74.763898, 10.988463 ], [ -74.763792, 10.9883 ], [ -74.763588, 10.987879 ], [ -74.763472, 10.987731 ], [ -74.763448, 10.98764 ], [ -74.763351, 10.987472 ], [ -74.763259, 10.987214 ], [ -74.763182, 10.987171 ], [ -74.763119, 10.987094 ], [ -74.76309, 10.987008 ], [ -74.763061, 10.986827 ], [ -74.763022, 10.98674 ], [ -74.762935, 10.986578 ], [ -74.762756, 10.986362 ], [ -74.762713, 10.986281 ], [ -74.762659, 10.986104 ], [ -74.762504, 10.98587 ], [ -74.762388, 10.985616 ], [ -74.762345, 10.985439 ], [ -74.762277, 10.985372 ], [ -74.762156, 10.985119 ], [ -74.762069, 10.98508 ], [ -74.762011, 10.985152 ], [ -74.761938, 10.985095 ], [ -74.762054, 10.984951 ], [ -74.76187, 10.984621 ], [ -74.761783, 10.984353 ], [ -74.761783, 10.984257 ], [ -74.761755, 10.984165 ], [ -74.761766, 10.98406 ], [ -74.761704, 10.983991 ], [ -74.76159, 10.983693 ], [ -74.761529, 10.983624 ], [ -74.761504, 10.983442 ], [ -74.761455, 10.983267 ], [ -74.761245, 10.982655 ], [ -74.761129, 10.982407 ], [ -74.761045, 10.982052 ], [ -74.760976, 10.981991 ], [ -74.760892, 10.981824 ], [ -74.760859, 10.981642 ], [ -74.760805, 10.981591 ], [ -74.760766, 10.981524 ], [ -74.760732, 10.981342 ], [ -74.760553, 10.980955 ], [ -74.760607, 10.980931 ], [ -74.760573, 10.980873 ], [ -74.760457, 10.980424 ], [ -74.760379, 10.980256 ], [ -74.760307, 10.979888 ], [ -74.760302, 10.979706 ], [ -74.760316, 10.979615 ], [ -74.760239, 10.979443 ], [ -74.76022, 10.979352 ], [ -74.760225, 10.97917 ], [ -74.760142, 10.97906 ], [ -74.760031, 10.978993 ], [ -74.759947, 10.978907 ], [ -74.759939, 10.978812 ], [ -74.759891, 10.978649 ], [ -74.759876, 10.978376 ], [ -74.759794, 10.978209 ], [ -74.759745, 10.978022 ], [ -74.759721, 10.97784 ], [ -74.759789, 10.977307 ], [ -74.761963, 10.977723 ], [ -74.763075, 10.977954 ], [ -74.763455, 10.977972 ], [ -74.763835, 10.977913 ], [ -74.764189, 10.977824 ], [ -74.764883, 10.977754 ], [ -74.766452, 10.977631 ], [ -74.767798, 10.977642 ], [ -74.768665, 10.977689 ], [ -74.769278, 10.977608 ], [ -74.769973, 10.977487 ], [ -74.769918, 10.975379 ], [ -74.769965, 10.974738 ], [ -74.77007, 10.974316 ], [ -74.772245, 10.974693 ], [ -74.774088, 10.975048 ], [ -74.774318, 10.97508 ], [ -74.774934, 10.97526 ], [ -74.775339, 10.975401 ], [ -74.776765, 10.975976 ], [ -74.779382, 10.97711 ], [ -74.781761, 10.978057 ], [ -74.782882, 10.978473 ], [ -74.784101, 10.978845 ], [ -74.786098, 10.979513 ], [ -74.786997, 10.979786 ], [ -74.788482, 10.980181 ], [ -74.789393, 10.980445 ], [ -74.789437, 10.980445 ], [ -74.790241, 10.980651 ], [ -74.790295, 10.980652 ], [ -74.790287, 10.980684 ], [ -74.791977, 10.981061 ], [ -74.794395, 10.981641 ], [ -74.794649, 10.981739 ], [ -74.796302, 10.982472 ], [ -74.799564, 10.983943 ], [ -74.800149, 10.984158 ], [ -74.800266, 10.984167 ], [ -74.800397, 10.984149 ], [ -74.800542, 10.984074 ], [ -74.801215, 10.98354 ], [ -74.801522, 10.983397 ], [ -74.801734, 10.983363 ], [ -74.80281, 10.983273 ], [ -74.803216, 10.983304 ], [ -74.804704, 10.983714 ], [ -74.804708, 10.983696 ], [ -74.806207, 10.984021 ], [ -74.806446, 10.984048 ], [ -74.808124, 10.984533 ], [ -74.810512, 10.985192 ], [ -74.811717, 10.985556 ], [ -74.812126, 10.985661 ], [ -74.812284, 10.985691 ], [ -74.812366, 10.985689 ], [ -74.812491, 10.985629 ], [ -74.812702, 10.985601 ], [ -74.817702, 10.987003 ], [ -74.818793, 10.987282 ], [ -74.818976, 10.987306 ], [ -74.819238, 10.987303 ], [ -74.819426, 10.987278 ], [ -74.819745, 10.987105 ], [ -74.819988, 10.986932 ], [ -74.820994, 10.986291 ], [ -74.822151, 10.985526 ], [ -74.822872, 10.985088 ], [ -74.82308, 10.985005 ], [ -74.823316, 10.984941 ], [ -74.823545, 10.984906 ], [ -74.825826, 10.984741 ], [ -74.826375, 10.98471 ], [ -74.826586, 10.984727 ], [ -74.826806, 10.984771 ], [ -74.826993, 10.984848 ], [ -74.827249, 10.985012 ], [ -74.827398, 10.985149 ], [ -74.827545, 10.985349 ], [ -74.827689, 10.985606 ], [ -74.827857, 10.986015 ], [ -74.827942, 10.986181 ], [ -74.828054, 10.986334 ], [ -74.828187, 10.986467 ], [ -74.828416, 10.986623 ], [ -74.828595, 10.986699 ], [ -74.828837, 10.986746 ], [ -74.829084, 10.986739 ], [ -74.829323, 10.986678 ], [ -74.829472, 10.986608 ], [ -74.829629, 10.986509 ], [ -74.829832, 10.986322 ], [ -74.831908, 10.983678 ], [ -74.832131, 10.983363 ], [ -74.832347, 10.983155 ], [ -74.832549, 10.983035 ], [ -74.832717, 10.982974 ], [ -74.83295, 10.982929 ], [ -74.836087, 10.982665 ], [ -74.837236, 10.982414 ], [ -74.846292, 10.980125 ], [ -74.846965, 10.979822 ], [ -74.850441, 10.978145 ], [ -74.857974, 10.974475 ], [ -74.881977, 10.962887 ], [ -74.891623, 10.958335 ], [ -74.897606, 10.955399 ], [ -74.902646, 10.952999 ], [ -74.902612, 10.952958 ] ] ] } },
{ "type": "Feature", "properties": { "localidad": "Riomar", "AREA_Has": 1487.7 }, "geometry": { "type": "Polygon", "coordinates": [ [ [ -74.862636, 11.048493 ], [ -74.862564, 11.048767 ], [ -74.861825, 11.048407 ], [ -74.86085, 11.048577 ], [ -74.858866, 11.049353 ], [ -74.856464, 11.050914 ], [ -74.854044, 11.052529 ], [ -74.853275, 11.053298 ], [ -74.852522, 11.053539 ], [ -74.850653, 11.054987 ], [ -74.848949, 11.056362 ], [ -74.847029, 11.058502 ], [ -74.845315, 11.061168 ], [ -74.844529, 11.062782 ], [ -74.844439, 11.063179 ], [ -74.84464, 11.063362 ], [ -74.844847, 11.063597 ], [ -74.844941, 11.063679 ], [ -74.84589, 11.065306 ], [ -74.846616, 11.066491 ], [ -74.846979, 11.067374 ], [ -74.847482, 11.0698 ], [ -74.848096, 11.073109 ], [ -74.848654, 11.07526 ], [ -74.848962, 11.077135 ], [ -74.849213, 11.078211 ], [ -74.849743, 11.08083 ], [ -74.850302, 11.083229 ], [ -74.850553, 11.084387 ], [ -74.851763, 11.090517 ], [ -74.851948, 11.09214 ], [ -74.851965, 11.092635 ], [ -74.852313, 11.094563 ], [ -74.855329, 11.106613 ], [ -74.854854, 11.106806 ], [ -74.853542, 11.102146 ], [ -74.852138, 11.096501 ], [ -74.851783, 11.094772 ], [ -74.851137, 11.090923 ], [ -74.850687, 11.088024 ], [ -74.850638, 11.087633 ], [ -74.850555, 11.087197 ], [ -74.850449, 11.086492 ], [ -74.849198, 11.08107 ], [ -74.847091, 11.071588 ], [ -74.846535, 11.068722 ], [ -74.846197, 11.067368 ], [ -74.845799, 11.066386 ], [ -74.844408, 11.064128 ], [ -74.842659, 11.061675 ], [ -74.841168, 11.059538 ], [ -74.840921, 11.059141 ], [ -74.840727, 11.05894 ], [ -74.840543, 11.05861 ], [ -74.840427, 11.058467 ], [ -74.840321, 11.058299 ], [ -74.840195, 11.058051 ], [ -74.840137, 11.057974 ], [ -74.839952, 11.057759 ], [ -74.83988, 11.057697 ], [ -74.839788, 11.057697 ], [ -74.839725, 11.057764 ], [ -74.839638, 11.057926 ], [ -74.839555, 11.057969 ], [ -74.839633, 11.057797 ], [ -74.839686, 11.057721 ], [ -74.839681, 11.057539 ], [ -74.839604, 11.057271 ], [ -74.839429, 11.056941 ], [ -74.839357, 11.056883 ], [ -74.839221, 11.056639 ], [ -74.838863, 11.056209 ], [ -74.838785, 11.056037 ], [ -74.838718, 11.05597 ], [ -74.838669, 11.055888 ], [ -74.838601, 11.055826 ], [ -74.838519, 11.055778 ], [ -74.838466, 11.055692 ], [ -74.838379, 11.05564 ], [ -74.83834, 11.055554 ], [ -74.838195, 11.055439 ], [ -74.838083, 11.05529 ], [ -74.83801, 11.055233 ], [ -74.837894, 11.055085 ], [ -74.837817, 11.055027 ], [ -74.837754, 11.054956 ], [ -74.837705, 11.054874 ], [ -74.837628, 11.054822 ], [ -74.837507, 11.054673 ], [ -74.837429, 11.054621 ], [ -74.837308, 11.054477 ], [ -74.837148, 11.054372 ], [ -74.836969, 11.054157 ], [ -74.836805, 11.054071 ], [ -74.836766, 11.053984 ], [ -74.836669, 11.053961 ], [ -74.836611, 11.053889 ], [ -74.836596, 11.053798 ], [ -74.836558, 11.053712 ], [ -74.8365, 11.05364 ], [ -74.836127, 11.053233 ], [ -74.836083, 11.053152 ], [ -74.83601, 11.05309 ], [ -74.835957, 11.053013 ], [ -74.835797, 11.052908 ], [ -74.83573, 11.052841 ], [ -74.835608, 11.052693 ], [ -74.835565, 11.052612 ], [ -74.835492, 11.052554 ], [ -74.835371, 11.052411 ], [ -74.835216, 11.052305 ], [ -74.835163, 11.052229 ], [ -74.83494, 11.052066 ], [ -74.834887, 11.05199 ], [ -74.834727, 11.05188 ], [ -74.834674, 11.051803 ], [ -74.834403, 11.051545 ], [ -74.834243, 11.051435 ], [ -74.834141, 11.051277 ], [ -74.834054, 11.051248 ], [ -74.833991, 11.051181 ], [ -74.833821, 11.051095 ], [ -74.833749, 11.051038 ], [ -74.83372, 11.050952 ], [ -74.833647, 11.050894 ], [ -74.833526, 11.050746 ], [ -74.833386, 11.050626 ], [ -74.833265, 11.050483 ], [ -74.833187, 11.05043 ], [ -74.833066, 11.050287 ], [ -74.833022, 11.050205 ], [ -74.832887, 11.050076 ], [ -74.832843, 11.04999 ], [ -74.832829, 11.049899 ], [ -74.832708, 11.04976 ], [ -74.832432, 11.049378 ], [ -74.832185, 11.0491 ], [ -74.832083, 11.048942 ], [ -74.831938, 11.048828 ], [ -74.831817, 11.048684 ], [ -74.831536, 11.04843 ], [ -74.831372, 11.048264 ], [ -74.83126, 11.048117 ], [ -74.83111, 11.048002 ], [ -74.830911, 11.047806 ], [ -74.830742, 11.04771 ], [ -74.830601, 11.047591 ], [ -74.830519, 11.047543 ], [ -74.830243, 11.047285 ], [ -74.830025, 11.047108 ], [ -74.829826, 11.046787 ], [ -74.829676, 11.04661 ], [ -74.829637, 11.046524 ], [ -74.829449, 11.046318 ], [ -74.829366, 11.046151 ], [ -74.829211, 11.046041 ], [ -74.82909, 11.045902 ], [ -74.828863, 11.045735 ], [ -74.828722, 11.04561 ], [ -74.82847, 11.045486 ], [ -74.828199, 11.045237 ], [ -74.827962, 11.045084 ], [ -74.827788, 11.045012 ], [ -74.827545, 11.044864 ], [ -74.827124, 11.044505 ], [ -74.827071, 11.044429 ], [ -74.826998, 11.044371 ], [ -74.826742, 11.044233 ], [ -74.826572, 11.043998 ], [ -74.826504, 11.043931 ], [ -74.826422, 11.043879 ], [ -74.826296, 11.043745 ], [ -74.826219, 11.043692 ], [ -74.826131, 11.043663 ], [ -74.825899, 11.043505 ], [ -74.825831, 11.043438 ], [ -74.825662, 11.043352 ], [ -74.825637, 11.043261 ], [ -74.825589, 11.04318 ], [ -74.825521, 11.043118 ], [ -74.825473, 11.043166 ], [ -74.825429, 11.043132 ], [ -74.825381, 11.043051 ], [ -74.825168, 11.042955 ], [ -74.825144, 11.043027 ], [ -74.825081, 11.042994 ], [ -74.825114, 11.042946 ], [ -74.824446, 11.042635 ], [ -74.824349, 11.04263 ], [ -74.824315, 11.042716 ], [ -74.824185, 11.042845 ], [ -74.824146, 11.042931 ], [ -74.824054, 11.042955 ], [ -74.823986, 11.042893 ], [ -74.823918, 11.042721 ], [ -74.823851, 11.042649 ], [ -74.82373, 11.042391 ], [ -74.823618, 11.042233 ], [ -74.823531, 11.042199 ], [ -74.823439, 11.04219 ], [ -74.823192, 11.042051 ], [ -74.823124, 11.041989 ], [ -74.822756, 11.041903 ], [ -74.822621, 11.041774 ], [ -74.822587, 11.041769 ], [ -74.822538, 11.041731 ], [ -74.822088, 11.041582 ], [ -74.821914, 11.041506 ], [ -74.82173, 11.041472 ], [ -74.821463, 11.041377 ], [ -74.821284, 11.041338 ], [ -74.821216, 11.041271 ], [ -74.820945, 11.041199 ], [ -74.820848, 11.041214 ], [ -74.820684, 11.041118 ], [ -74.820592, 11.041113 ], [ -74.820509, 11.041156 ], [ -74.820417, 11.041176 ], [ -74.82033, 11.041008 ], [ -74.820272, 11.040936 ], [ -74.820132, 11.040812 ], [ -74.820035, 11.040817 ], [ -74.819948, 11.040845 ], [ -74.819807, 11.040721 ], [ -74.81972, 11.04075 ], [ -74.819638, 11.040702 ], [ -74.819584, 11.040621 ], [ -74.819589, 11.04053 ], [ -74.819662, 11.040472 ], [ -74.819705, 11.040391 ], [ -74.819589, 11.040133 ], [ -74.81957, 11.040042 ], [ -74.818926, 11.03963 ], [ -74.818853, 11.039568 ], [ -74.81881, 11.039487 ], [ -74.818567, 11.0392 ], [ -74.818422, 11.039075 ], [ -74.81835, 11.039018 ], [ -74.8183, 11.0391 ], [ -74.817397, 11.038569 ], [ -74.817451, 11.038468 ], [ -74.817412, 11.038373 ], [ -74.817257, 11.038468 ], [ -74.817053, 11.038325 ], [ -74.817082, 11.038263 ], [ -74.816918, 11.038177 ], [ -74.816845, 11.038258 ], [ -74.81654, 11.038019 ], [ -74.816463, 11.038105 ], [ -74.815722, 11.037579 ], [ -74.815112, 11.037052 ], [ -74.81439, 11.036502 ], [ -74.814182, 11.036249 ], [ -74.813993, 11.036177 ], [ -74.813916, 11.036119 ], [ -74.813567, 11.035971 ], [ -74.813247, 11.035775 ], [ -74.812981, 11.035679 ], [ -74.812812, 11.035593 ], [ -74.812376, 11.035421 ], [ -74.812211, 11.03533 ], [ -74.812061, 11.035205 ], [ -74.811892, 11.035124 ], [ -74.811659, 11.034966 ], [ -74.811407, 11.034837 ], [ -74.811359, 11.034756 ], [ -74.811267, 11.034746 ], [ -74.811185, 11.034703 ], [ -74.811034, 11.034588 ], [ -74.810947, 11.03456 ], [ -74.810941, 11.034573 ], [ -74.810831, 11.034483 ], [ -74.810473, 11.034296 ], [ -74.809703, 11.033938 ], [ -74.80965, 11.033861 ], [ -74.809635, 11.03377 ], [ -74.809543, 11.033751 ], [ -74.809475, 11.033689 ], [ -74.809291, 11.033636 ], [ -74.809223, 11.033569 ], [ -74.809049, 11.033507 ], [ -74.808957, 11.033507 ], [ -74.808793, 11.033416 ], [ -74.808725, 11.033354 ], [ -74.808633, 11.033335 ], [ -74.808289, 11.033186 ], [ -74.808207, 11.033143 ], [ -74.808144, 11.033076 ], [ -74.807897, 11.032942 ], [ -74.807805, 11.032914 ], [ -74.807645, 11.032804 ], [ -74.807553, 11.032785 ], [ -74.807519, 11.032811 ], [ -74.80749, 11.032775 ], [ -74.807466, 11.032684 ], [ -74.807374, 11.032665 ], [ -74.80704, 11.032478 ], [ -74.806817, 11.032311 ], [ -74.806773, 11.032225 ], [ -74.806618, 11.032119 ], [ -74.80643, 11.032105 ], [ -74.806338, 11.032076 ], [ -74.805752, 11.03178 ], [ -74.805437, 11.031579 ], [ -74.805175, 11.031474 ], [ -74.804938, 11.03132 ], [ -74.804754, 11.031253 ], [ -74.804522, 11.031091 ], [ -74.804352, 11.031005 ], [ -74.804207, 11.03089 ], [ -74.804037, 11.030804 ], [ -74.80397, 11.030742 ], [ -74.803771, 11.030646 ], [ -74.803694, 11.030593 ], [ -74.803636, 11.030521 ], [ -74.80336, 11.03044 ], [ -74.803277, 11.030397 ], [ -74.803132, 11.030277 ], [ -74.802885, 11.030139 ], [ -74.802619, 11.02988 ], [ -74.802444, 11.029823 ], [ -74.802275, 11.029742 ], [ -74.802149, 11.029608 ], [ -74.802052, 11.029703 ], [ -74.801442, 11.029196 ], [ -74.80151, 11.029091 ], [ -74.801423, 11.029033 ], [ -74.801394, 11.029053 ], [ -74.801432, 11.029105 ], [ -74.801307, 11.029186 ], [ -74.801055, 11.028885 ], [ -74.801113, 11.028832 ], [ -74.801064, 11.028799 ], [ -74.801026, 11.028832 ], [ -74.800421, 11.028148 ], [ -74.800517, 11.028024 ], [ -74.800348, 11.027699 ], [ -74.800824, 11.026295 ], [ -74.800988, 11.025966 ], [ -74.801081, 11.025728 ], [ -74.801268, 11.02513 ], [ -74.801331, 11.025019 ], [ -74.801452, 11.024871 ], [ -74.802044, 11.024387 ], [ -74.802245, 11.024079 ], [ -74.802696, 11.023127 ], [ -74.80287, 11.022914 ], [ -74.805066, 11.020964 ], [ -74.805474, 11.020872 ], [ -74.806659, 11.020528 ], [ -74.80709, 11.020209 ], [ -74.807383, 11.019878 ], [ -74.807781, 11.019476 ], [ -74.807974, 11.019079 ], [ -74.808026, 11.01904 ], [ -74.808051, 11.018973 ], [ -74.809237, 11.019284 ], [ -74.809351, 11.019172 ], [ -74.809667, 11.018799 ], [ -74.810721, 11.017369 ], [ -74.81075, 11.017304 ], [ -74.811011, 11.016303 ], [ -74.808693, 11.015733 ], [ -74.808909, 11.015127 ], [ -74.809592, 11.013934 ], [ -74.809917, 11.013304 ], [ -74.810291, 11.012496 ], [ -74.810463, 11.012265 ], [ -74.810786, 11.011893 ], [ -74.810644, 11.011836 ], [ -74.81027, 11.011743 ], [ -74.810971, 11.010999 ], [ -74.811466, 11.009352 ], [ -74.811717, 11.00864 ], [ -74.811823, 11.008395 ], [ -74.812117, 11.007918 ], [ -74.813829, 11.008686 ], [ -74.813955, 11.008754 ], [ -74.813256, 11.00931 ], [ -74.815151, 11.010176 ], [ -74.815518, 11.009671 ], [ -74.816429, 11.008505 ], [ -74.817154, 11.007879 ], [ -74.817212, 11.007819 ], [ -74.818276, 11.007292 ], [ -74.81816, 11.007227 ], [ -74.816755, 11.006579 ], [ -74.817084, 11.005914 ], [ -74.81799, 11.00394 ], [ -74.818736, 11.002376 ], [ -74.819562, 11.002766 ], [ -74.819727, 11.002826 ], [ -74.820222, 11.002946 ], [ -74.820851, 11.003048 ], [ -74.821851, 11.003105 ], [ -74.823312, 11.003136 ], [ -74.824344, 11.003092 ], [ -74.824609, 11.003098 ], [ -74.828072, 11.004014 ], [ -74.828265, 11.004101 ], [ -74.828426, 11.004203 ], [ -74.828573, 11.004318 ], [ -74.8288, 11.004547 ], [ -74.828902, 11.00462 ], [ -74.829816, 11.005055 ], [ -74.830314, 11.005314 ], [ -74.829971, 11.006041 ], [ -74.830207, 11.006146 ], [ -74.831731, 11.006934 ], [ -74.840228, 11.011489 ], [ -74.839491, 11.013325 ], [ -74.839263, 11.013985 ], [ -74.838505, 11.015828 ], [ -74.838317, 11.016333 ], [ -74.837562, 11.018205 ], [ -74.836994, 11.019576 ], [ -74.836573, 11.020641 ], [ -74.836227, 11.021421 ], [ -74.835881, 11.022318 ], [ -74.834965, 11.024514 ], [ -74.833369, 11.028525 ], [ -74.833054, 11.029266 ], [ -74.832818, 11.029771 ], [ -74.831913, 11.031534 ], [ -74.831497, 11.032185 ], [ -74.83101, 11.0329 ], [ -74.830575, 11.033484 ], [ -74.830065, 11.034135 ], [ -74.829057, 11.035276 ], [ -74.827481, 11.036846 ], [ -74.827242, 11.037108 ], [ -74.827108, 11.037368 ], [ -74.827055, 11.037526 ], [ -74.826972, 11.038045 ], [ -74.826921, 11.038576 ], [ -74.826891, 11.038709 ], [ -74.826775, 11.038926 ], [ -74.826946, 11.038903 ], [ -74.827105, 11.038839 ], [ -74.827181, 11.038846 ], [ -74.827705, 11.038621 ], [ -74.829643, 11.037629 ], [ -74.833475, 11.035473 ], [ -74.834502, 11.034878 ], [ -74.834793, 11.034739 ], [ -74.835498, 11.034547 ], [ -74.836696, 11.034562 ], [ -74.837403, 11.034503 ], [ -74.837596, 11.034451 ], [ -74.837923, 11.034275 ], [ -74.838325, 11.033981 ], [ -74.839337, 11.03293 ], [ -74.840304, 11.032416 ], [ -74.845288, 11.031071 ], [ -74.849976, 11.029853 ], [ -74.850428, 11.029799 ], [ -74.851423, 11.029819 ], [ -74.85286, 11.029913 ], [ -74.853831, 11.030023 ], [ -74.855149, 11.030331 ], [ -74.859241, 11.031352 ], [ -74.859724, 11.031233 ], [ -74.860706, 11.028381 ], [ -74.860764, 11.028388 ], [ -74.860907, 11.028363 ], [ -74.862177, 11.027847 ], [ -74.862333, 11.027665 ], [ -74.863501, 11.026576 ], [ -74.863765, 11.026251 ], [ -74.863916, 11.025904 ], [ -74.864576, 11.024746 ], [ -74.865107, 11.025343 ], [ -74.866535, 11.025213 ], [ -74.867471, 11.024327 ], [ -74.867744, 11.023853 ], [ -74.868092, 11.023532 ], [ -74.868785, 11.022938 ], [ -74.869157, 11.022558 ], [ -74.869446, 11.02215 ], [ -74.869642, 11.021903 ], [ -74.869994, 11.021331 ], [ -74.870157, 11.021113 ], [ -74.871756, 11.022275 ], [ -74.869991, 11.02446 ], [ -74.868811, 11.025888 ], [ -74.868333, 11.026486 ], [ -74.868275, 11.026582 ], [ -74.868306, 11.026591 ], [ -74.868293, 11.026605 ], [ -74.871193, 11.027304 ], [ -74.871275, 11.027434 ], [ -74.872284, 11.02867 ], [ -74.87228, 11.028743 ], [ -74.872194, 11.028869 ], [ -74.87197, 11.029371 ], [ -74.871888, 11.029494 ], [ -74.871744, 11.029639 ], [ -74.87178, 11.02971 ], [ -74.871857, 11.029797 ], [ -74.872844, 11.031162 ], [ -74.872938, 11.031249 ], [ -74.873189, 11.03132 ], [ -74.873502, 11.031528 ], [ -74.873504, 11.031607 ], [ -74.873259, 11.032748 ], [ -74.873121, 11.03351 ], [ -74.872927, 11.033947 ], [ -74.872728, 11.034083 ], [ -74.872598, 11.034252 ], [ -74.872598, 11.034332 ], [ -74.872565, 11.034495 ], [ -74.872482, 11.034738 ], [ -74.872281, 11.035173 ], [ -74.871985, 11.036008 ], [ -74.871907, 11.03628 ], [ -74.871547, 11.037081 ], [ -74.871495, 11.037314 ], [ -74.871397, 11.037456 ], [ -74.871246, 11.037863 ], [ -74.871187, 11.038089 ], [ -74.871024, 11.038354 ], [ -74.870965, 11.038613 ], [ -74.870828, 11.039039 ], [ -74.870775, 11.039324 ], [ -74.870697, 11.03946 ], [ -74.870664, 11.039628 ], [ -74.870664, 11.039789 ], [ -74.870684, 11.039873 ], [ -74.870736, 11.039964 ], [ -74.870775, 11.040086 ], [ -74.870965, 11.040306 ], [ -74.871018, 11.040481 ], [ -74.871096, 11.040539 ], [ -74.871161, 11.040655 ], [ -74.871299, 11.041069 ], [ -74.871476, 11.041392 ], [ -74.8716, 11.041696 ], [ -74.871665, 11.041973 ], [ -74.871639, 11.042238 ], [ -74.871456, 11.042523 ], [ -74.871103, 11.042697 ], [ -74.871018, 11.042775 ], [ -74.870802, 11.04304 ], [ -74.870508, 11.043357 ], [ -74.870331, 11.043667 ], [ -74.870312, 11.043803 ], [ -74.87039, 11.043867 ], [ -74.870573, 11.043867 ], [ -74.870658, 11.043971 ], [ -74.870625, 11.044106 ], [ -74.870508, 11.044197 ], [ -74.870475, 11.044242 ], [ -74.870534, 11.04432 ], [ -74.87056, 11.044384 ], [ -74.870527, 11.044488 ], [ -74.870338, 11.044785 ], [ -74.87039, 11.044843 ], [ -74.870475, 11.044856 ], [ -74.870403, 11.044998 ], [ -74.870259, 11.045179 ], [ -74.870128, 11.045489 ], [ -74.869978, 11.04569 ], [ -74.869893, 11.046058 ], [ -74.86986, 11.04631 ], [ -74.864836, 11.046979 ], [ -74.863862, 11.047303 ], [ -74.863256, 11.04758 ], [ -74.862636, 11.048493 ] ] ] } },
{ "type": "Feature", "properties": { "localidad": "Suroriental", "AREA_Has": 1352.5 }, "geometry": { "type": "Polygon", "coordinates": [ [ [ -74.75882, 10.95072 ], [ -74.758779, 10.950312 ], [ -74.758725, 10.950039 ], [ -74.758725, 10.949857 ], [ -74.758696, 10.949675 ], [ -74.758759, 10.949503 ], [ -74.75873, 10.949321 ], [ -74.75873, 10.94914 ], [ -74.758842, 10.94858 ], [ -74.758866, 10.94792 ], [ -74.758905, 10.947834 ], [ -74.758934, 10.947006 ], [ -74.758968, 10.946643 ], [ -74.759026, 10.94647 ], [ -74.759027, 10.94604 ], [ -74.758993, 10.945954 ], [ -74.758993, 10.945863 ], [ -74.759037, 10.945591 ], [ -74.759084, 10.945418 ], [ -74.763379, 10.945539 ], [ -74.763759, 10.945187 ], [ -74.763874, 10.94516 ], [ -74.764025, 10.945039 ], [ -74.764211, 10.944793 ], [ -74.764494, 10.94454 ], [ -74.764566, 10.944438 ], [ -74.764717, 10.944298 ], [ -74.7649, 10.944196 ], [ -74.765111, 10.943933 ], [ -74.765308, 10.94375 ], [ -74.765469, 10.943784 ], [ -74.765512, 10.943912 ], [ -74.765537, 10.943927 ], [ -74.765724, 10.943921 ], [ -74.765799, 10.943941 ], [ -74.765829, 10.943981 ], [ -74.765835, 10.94407 ], [ -74.765803, 10.944239 ], [ -74.765814, 10.944316 ], [ -74.765872, 10.944441 ], [ -74.766066, 10.944508 ], [ -74.766189, 10.944511 ], [ -74.766264, 10.944496 ], [ -74.766331, 10.944432 ], [ -74.766618, 10.944908 ], [ -74.767152, 10.945086 ], [ -74.767362, 10.945086 ], [ -74.767528, 10.945207 ], [ -74.767653, 10.945254 ], [ -74.76826, 10.945347 ], [ -74.768392, 10.945338 ], [ -74.768628, 10.945226 ], [ -74.768773, 10.945177 ], [ -74.769269, 10.94527 ], [ -74.769398, 10.945276 ], [ -74.769496, 10.945226 ], [ -74.769593, 10.945133 ], [ -74.76964, 10.944987 ], [ -74.769647, 10.944807 ], [ -74.769707, 10.944677 ], [ -74.76982, 10.944568 ], [ -74.769993, 10.944506 ], [ -74.770461, 10.944378 ], [ -74.772004, 10.944379 ], [ -74.774041, 10.944322 ], [ -74.774766, 10.944026 ], [ -74.775544, 10.943492 ], [ -74.775856, 10.942871 ], [ -74.776071, 10.942838 ], [ -74.776378, 10.942533 ], [ -74.776378, 10.942335 ], [ -74.776441, 10.942199 ], [ -74.776377, 10.94193 ], [ -74.776376, 10.94162 ], [ -74.776785, 10.94101 ], [ -74.777504, 10.940941 ], [ -74.777616, 10.940899 ], [ -74.777756, 10.940583 ], [ -74.777605, 10.940451 ], [ -74.777659, 10.940293 ], [ -74.777623, 10.940179 ], [ -74.777815, 10.939826 ], [ -74.777961, 10.939419 ], [ -74.778666, 10.937752 ], [ -74.778625, 10.937712 ], [ -74.779418, 10.935788 ], [ -74.779734, 10.935068 ], [ -74.780696, 10.934837 ], [ -74.781328, 10.935458 ], [ -74.782063, 10.937588 ], [ -74.782267, 10.937898 ], [ -74.782342, 10.937751 ], [ -74.782616, 10.937356 ], [ -74.783059, 10.937199 ], [ -74.783654, 10.937083 ], [ -74.78421, 10.936729 ], [ -74.784493, 10.936493 ], [ -74.784608, 10.936178 ], [ -74.784691, 10.935863 ], [ -74.785012, 10.935666 ], [ -74.785446, 10.935509 ], [ -74.785721, 10.935274 ], [ -74.785731, 10.935249 ], [ -74.786788, 10.934613 ], [ -74.787379, 10.93422 ], [ -74.788231, 10.934253 ], [ -74.789071, 10.934173 ], [ -74.790198, 10.933707 ], [ -74.790544, 10.93364 ], [ -74.790687, 10.933556 ], [ -74.791355, 10.933371 ], [ -74.791779, 10.932955 ], [ -74.791855, 10.932523 ], [ -74.792053, 10.932011 ], [ -74.792176, 10.9315 ], [ -74.792506, 10.931075 ], [ -74.792728, 10.931056 ], [ -74.792858, 10.93108 ], [ -74.793072, 10.93118 ], [ -74.793181, 10.93118 ], [ -74.793533, 10.930969 ], [ -74.793607, 10.930954 ], [ -74.79377, 10.93099 ], [ -74.794327, 10.930755 ], [ -74.79444, 10.93062 ], [ -74.794549, 10.930592 ], [ -74.794652, 10.930514 ], [ -74.794699, 10.930442 ], [ -74.794752, 10.930254 ], [ -74.795121, 10.929888 ], [ -74.795678, 10.929967 ], [ -74.795998, 10.929771 ], [ -74.796592, 10.929314 ], [ -74.79684, 10.929155 ], [ -74.798195, 10.928445 ], [ -74.798691, 10.928087 ], [ -74.79905, 10.927654 ], [ -74.799164, 10.927222 ], [ -74.799192, 10.931747 ], [ -74.799219, 10.932281 ], [ -74.79923, 10.93378 ], [ -74.799203, 10.934314 ], [ -74.799224, 10.938306 ], [ -74.799378, 10.940462 ], [ -74.799578, 10.941892 ], [ -74.799595, 10.943491 ], [ -74.799852, 10.949764 ], [ -74.799855, 10.950221 ], [ -74.79972, 10.950674 ], [ -74.799294, 10.951166 ], [ -74.798383, 10.951949 ], [ -74.79784, 10.952384 ], [ -74.797583, 10.952637 ], [ -74.79743, 10.952831 ], [ -74.796937, 10.953813 ], [ -74.796613, 10.954605 ], [ -74.794738, 10.958549 ], [ -74.793651, 10.960662 ], [ -74.793217, 10.961825 ], [ -74.791974, 10.964425 ], [ -74.791061, 10.966438 ], [ -74.790504, 10.968037 ], [ -74.790038, 10.969559 ], [ -74.789853, 10.970365 ], [ -74.789022, 10.973124 ], [ -74.788063, 10.976165 ], [ -74.787346, 10.978852 ], [ -74.787066, 10.979802 ], [ -74.786098, 10.979513 ], [ -74.784101, 10.978845 ], [ -74.782882, 10.978473 ], [ -74.781761, 10.978057 ], [ -74.779382, 10.97711 ], [ -74.776765, 10.975976 ], [ -74.775339, 10.975401 ], [ -74.774934, 10.97526 ], [ -74.774318, 10.97508 ], [ -74.774088, 10.975048 ], [ -74.772245, 10.974693 ], [ -74.77007, 10.974316 ], [ -74.769965, 10.974738 ], [ -74.769918, 10.975379 ], [ -74.769973, 10.977487 ], [ -74.769278, 10.977608 ], [ -74.768665, 10.977689 ], [ -74.767798, 10.977642 ], [ -74.766452, 10.977631 ], [ -74.764883, 10.977754 ], [ -74.764189, 10.977824 ], [ -74.763835, 10.977913 ], [ -74.763455, 10.977972 ], [ -74.763075, 10.977954 ], [ -74.761963, 10.977724 ], [ -74.759789, 10.977307 ], [ -74.759833, 10.976979 ], [ -74.75992, 10.976711 ], [ -74.759877, 10.976625 ], [ -74.759809, 10.976558 ], [ -74.759562, 10.976424 ], [ -74.75947, 10.9764 ], [ -74.759446, 10.976309 ], [ -74.759446, 10.976218 ], [ -74.759499, 10.976037 ], [ -74.759678, 10.975821 ], [ -74.759683, 10.97573 ], [ -74.759659, 10.97564 ], [ -74.759514, 10.9754 ], [ -74.75948, 10.975314 ], [ -74.75945, 10.974775 ], [ -74.759678, 10.974756 ], [ -74.759678, 10.974703 ], [ -74.759581, 10.974469 ], [ -74.759581, 10.974378 ], [ -74.759499, 10.974211 ], [ -74.75945, 10.974034 ], [ -74.759378, 10.973976 ], [ -74.759286, 10.973947 ], [ -74.759213, 10.97389 ], [ -74.759208, 10.973799 ], [ -74.759237, 10.973713 ], [ -74.759203, 10.973436 ], [ -74.759136, 10.973168 ], [ -74.759112, 10.973 ], [ -74.759102, 10.972527 ], [ -74.759073, 10.97234 ], [ -74.759059, 10.972015 ], [ -74.758923, 10.972034 ], [ -74.758923, 10.971953 ], [ -74.759015, 10.971929 ], [ -74.75902, 10.971838 ], [ -74.758996, 10.971747 ], [ -74.758996, 10.971656 ], [ -74.759054, 10.971479 ], [ -74.759064, 10.971388 ], [ -74.759064, 10.971297 ], [ -74.759039, 10.971206 ], [ -74.759049, 10.970929 ], [ -74.75903, 10.970848 ], [ -74.758909, 10.970847 ], [ -74.758851, 10.970776 ], [ -74.758851, 10.970407 ], [ -74.758764, 10.967862 ], [ -74.758509, 10.961299 ], [ -74.758869, 10.959662 ], [ -74.758781, 10.959017 ], [ -74.758796, 10.958371 ], [ -74.75867, 10.958185 ], [ -74.758665, 10.958089 ], [ -74.758665, 10.957907 ], [ -74.758689, 10.957816 ], [ -74.758733, 10.957735 ], [ -74.758743, 10.957281 ], [ -74.758782, 10.95719 ], [ -74.758796, 10.957099 ], [ -74.758796, 10.956735 ], [ -74.758767, 10.956271 ], [ -74.758791, 10.956089 ], [ -74.758777, 10.956089 ], [ -74.758789, 10.956044 ], [ -74.75878, 10.955863 ], [ -74.758809, 10.955681 ], [ -74.758785, 10.95559 ], [ -74.758838, 10.955317 ], [ -74.758828, 10.955226 ], [ -74.758785, 10.95514 ], [ -74.758804, 10.955049 ], [ -74.758799, 10.954686 ], [ -74.758853, 10.954609 ], [ -74.758814, 10.954337 ], [ -74.758843, 10.954155 ], [ -74.758853, 10.953514 ], [ -74.758843, 10.953423 ], [ -74.758761, 10.95316 ], [ -74.758766, 10.952978 ], [ -74.758747, 10.952811 ], [ -74.758708, 10.952777 ], [ -74.758659, 10.952777 ], [ -74.758655, 10.952854 ], [ -74.758538, 10.952844 ], [ -74.758568, 10.952289 ], [ -74.758645, 10.952122 ], [ -74.75865, 10.952031 ], [ -74.758698, 10.951949 ], [ -74.758834, 10.95182 ], [ -74.758858, 10.951729 ], [ -74.758873, 10.951543 ], [ -74.758902, 10.951457 ], [ -74.758982, 10.951346 ], [ -74.759028, 10.951103 ], [ -74.758892, 10.950978 ], [ -74.758839, 10.950902 ], [ -74.75881, 10.950816 ], [ -74.75882, 10.95072 ] ] ] } },
{ "type": "Feature", "properties": { "localidad": "Suroccidente", "AREA_Has": 3798.1 }, "geometry": { "type": "Polygon", "coordinates": [ [ [ -74.906156, 10.951302 ], [ -74.902612, 10.952958 ], [ -74.902646, 10.952999 ], [ -74.897606, 10.955399 ], [ -74.891623, 10.958335 ], [ -74.881977, 10.962887 ], [ -74.857974, 10.974475 ], [ -74.850441, 10.978145 ], [ -74.846965, 10.979822 ], [ -74.846292, 10.980125 ], [ -74.837236, 10.982414 ], [ -74.836087, 10.982665 ], [ -74.83295, 10.982929 ], [ -74.832717, 10.982974 ], [ -74.832549, 10.983035 ], [ -74.832347, 10.983155 ], [ -74.832131, 10.983363 ], [ -74.831908, 10.983678 ], [ -74.829832, 10.986322 ], [ -74.829701, 10.986452 ], [ -74.829552, 10.986561 ], [ -74.829323, 10.986678 ], [ -74.829165, 10.986724 ], [ -74.82892, 10.98675 ], [ -74.828674, 10.986721 ], [ -74.828474, 10.986651 ], [ -74.828261, 10.986526 ], [ -74.828116, 10.986401 ], [ -74.827943, 10.986182 ], [ -74.82762, 10.985476 ], [ -74.827464, 10.985226 ], [ -74.827326, 10.985078 ], [ -74.827083, 10.984897 ], [ -74.826901, 10.984806 ], [ -74.826806, 10.984771 ], [ -74.826586, 10.984727 ], [ -74.826375, 10.98471 ], [ -74.823545, 10.984906 ], [ -74.823316, 10.984941 ], [ -74.82308, 10.985005 ], [ -74.822872, 10.985088 ], [ -74.822514, 10.985299 ], [ -74.819988, 10.986932 ], [ -74.819745, 10.987105 ], [ -74.819556, 10.987211 ], [ -74.819426, 10.987278 ], [ -74.819238, 10.987303 ], [ -74.818976, 10.987306 ], [ -74.818793, 10.987282 ], [ -74.817702, 10.987003 ], [ -74.812702, 10.985601 ], [ -74.812491, 10.985629 ], [ -74.812366, 10.985689 ], [ -74.812284, 10.985691 ], [ -74.812126, 10.985661 ], [ -74.811717, 10.985556 ], [ -74.810512, 10.985192 ], [ -74.808124, 10.984533 ], [ -74.806446, 10.984048 ], [ -74.806207, 10.984021 ], [ -74.804708, 10.983696 ], [ -74.804704, 10.983714 ], [ -74.803216, 10.983304 ], [ -74.80281, 10.983273 ], [ -74.801734, 10.983363 ], [ -74.801522, 10.983397 ], [ -74.801215, 10.98354 ], [ -74.800542, 10.984074 ], [ -74.800397, 10.984149 ], [ -74.800266, 10.984167 ], [ -74.800149, 10.984158 ], [ -74.799564, 10.983943 ], [ -74.796302, 10.982472 ], [ -74.794649, 10.981739 ], [ -74.794395, 10.981641 ], [ -74.791977, 10.981061 ], [ -74.790287, 10.980684 ], [ -74.790295, 10.980652 ], [ -74.790241, 10.980651 ], [ -74.789437, 10.980445 ], [ -74.789393, 10.980445 ], [ -74.788482, 10.980181 ], [ -74.787066, 10.979802 ], [ -74.787346, 10.978852 ], [ -74.788063, 10.976165 ], [ -74.789022, 10.973124 ], [ -74.789853, 10.970365 ], [ -74.790038, 10.969559 ], [ -74.790504, 10.968037 ], [ -74.791061, 10.966438 ], [ -74.791974, 10.964425 ], [ -74.792363, 10.964257 ], [ -74.794161, 10.963367 ], [ -74.795043, 10.96297 ], [ -74.79565, 10.962948 ], [ -74.797236, 10.96282 ], [ -74.797809, 10.962741 ], [ -74.798327, 10.962592 ], [ -74.798814, 10.96234 ], [ -74.800351, 10.961343 ], [ -74.800648, 10.961567 ], [ -74.800816, 10.961629 ], [ -74.80172, 10.961736 ], [ -74.801847, 10.961814 ], [ -74.802286, 10.962192 ], [ -74.802472, 10.962284 ], [ -74.802682, 10.962318 ], [ -74.8029, 10.962296 ], [ -74.803041, 10.962249 ], [ -74.803269, 10.962127 ], [ -74.803289, 10.962067 ], [ -74.80327, 10.96178 ], [ -74.803698, 10.960626 ], [ -74.804385, 10.959213 ], [ -74.805344, 10.957947 ], [ -74.806094, 10.956722 ], [ -74.805809, 10.956542 ], [ -74.806394, 10.955923 ], [ -74.807526, 10.954796 ], [ -74.808198, 10.954078 ], [ -74.808863, 10.953415 ], [ -74.810835, 10.951369 ], [ -74.811354, 10.950859 ], [ -74.812598, 10.949576 ], [ -74.813148, 10.949087 ], [ -74.813458, 10.948848 ], [ -74.813891, 10.948548 ], [ -74.814509, 10.948214 ], [ -74.815243, 10.947888 ], [ -74.816181, 10.947557 ], [ -74.821778, 10.945681 ], [ -74.823056, 10.945234 ], [ -74.824728, 10.944682 ], [ -74.825512, 10.944448 ], [ -74.829679, 10.943574 ], [ -74.831041, 10.943317 ], [ -74.831343, 10.943244 ], [ -74.831661, 10.943205 ], [ -74.832316, 10.943197 ], [ -74.833726, 10.943318 ], [ -74.833724, 10.943333 ], [ -74.835564, 10.943479 ], [ -74.837981, 10.9437 ], [ -74.838379, 10.943707 ], [ -74.839017, 10.943583 ], [ -74.841741, 10.942788 ], [ -74.843519, 10.942286 ], [ -74.845487, 10.941244 ], [ -74.848002, 10.93998 ], [ -74.849409, 10.939094 ], [ -74.849995, 10.938846 ], [ -74.852413, 10.938631 ], [ -74.853885, 10.93839 ], [ -74.855377, 10.937928 ], [ -74.856771, 10.937446 ], [ -74.85739, 10.937211 ], [ -74.85757, 10.937095 ], [ -74.858158, 10.937082 ], [ -74.858303, 10.937094 ], [ -74.859476, 10.937292 ], [ -74.869057, 10.939046 ], [ -74.870586, 10.940025 ], [ -74.874213, 10.942433 ], [ -74.877903, 10.944844 ], [ -74.877634, 10.945174 ], [ -74.878397, 10.945197 ], [ -74.879406, 10.945137 ], [ -74.879452, 10.94504 ], [ -74.880752, 10.945185 ], [ -74.881575, 10.94522 ], [ -74.881562, 10.945279 ], [ -74.882679, 10.945371 ], [ -74.88373, 10.945434 ], [ -74.883733, 10.945376 ], [ -74.884413, 10.945433 ], [ -74.885889, 10.945433 ], [ -74.886095, 10.945502 ], [ -74.892077, 10.945711 ], [ -74.892179, 10.945701 ], [ -74.892311, 10.945625 ], [ -74.892277, 10.945789 ], [ -74.8922, 10.946425 ], [ -74.892307, 10.947269 ], [ -74.8924, 10.947723 ], [ -74.892246, 10.948893 ], [ -74.892221, 10.949529 ], [ -74.892288, 10.950074 ], [ -74.892355, 10.950451 ], [ -74.893065, 10.950462 ], [ -74.894143, 10.950511 ], [ -74.894944, 10.950262 ], [ -74.895942, 10.950103 ], [ -74.896297, 10.950271 ], [ -74.896547, 10.950297 ], [ -74.89702, 10.950243 ], [ -74.898084, 10.94989 ], [ -74.898951, 10.949758 ], [ -74.900173, 10.949728 ], [ -74.901477, 10.949958 ], [ -74.902363, 10.950062 ], [ -74.905394, 10.950053 ], [ -74.907715, 10.950464 ], [ -74.906156, 10.951302 ] ] ] } },
{ "type": "Feature", "properties": { "localidad": "Norte - Centro Historico", "AREA_Has": 5283.1 }, "geometry": { "type": "Polygon", "coordinates": [ [ [ -74.836227, 11.021421 ], [ -74.836573, 11.020641 ], [ -74.835748, 11.022734 ], [ -74.835577, 11.023144 ], [ -74.835538, 11.023146 ], [ -74.835881, 11.022318 ], [ -74.836227, 11.021421 ] ] ] } }
]
}
