{
"type": "FeatureCollection",
"name": "manchas_urbanas_consolidadas_ine",
"crs": { "type": "name", "properties": { "name": "urn:ogc:def:crs:OGC:1.3:CRS84" } },
"xy_coordinate_resolution": 1e-06,
"features": [
{ "type": "Feature", "properties": { "objectid": 206, "comuna": "Casablanca", "st_area_sh": 4987104.6690199999, "st_length_": 17278.954730599999, "Localidad": "Casablanca", "Entidad": "Ciudad" }, "geometry": { "type": "Polygon", "coordinates": [ [ [ -71.393081, -33.333366 ], [ -71.393502, -33.33347 ], [ -71.394387, -33.333117 ], [ -71.394682, -33.332776 ], [ -71.394014, -33.33132 ], [ -71.393602, -33.330865 ], [ -71.393084, -33.330683 ], [ -71.392147, -33.32912 ], [ -71.39583, -33.327468 ], [ -71.396572, -33.328173 ], [ -71.397455, -33.327756 ], [ -71.398441, -33.328312 ], [ -71.398906, -33.327936 ], [ -71.400987, -33.327528 ], [ -71.401297, -33.326357 ], [ -71.401924, -33.325626 ], [ -71.403096, -33.325332 ], [ -71.405764, -33.324849 ], [ -71.406326, -33.325595 ], [ -71.407458, -33.325551 ], [ -71.410723, -33.323707 ], [ -71.410527, -33.32322 ], [ -71.41013, -33.323103 ], [ -71.409791, -33.322535 ], [ -71.411349, -33.321099 ], [ -71.412384, -33.320712 ], [ -71.412777, -33.320449 ], [ -71.412516, -33.319959 ], [ -71.412084, -33.320159 ], [ -71.411839, -33.319557 ], [ -71.41301, -33.319157 ], [ -71.414086, -33.31897 ], [ -71.414594, -33.31805 ], [ -71.41453, -33.317633 ], [ -71.415409, -33.316488 ], [ -71.413694, -33.316282 ], [ -71.414543, -33.315062 ], [ -71.415324, -33.314187 ], [ -71.416988, -33.315225 ], [ -71.418243, -33.313843 ], [ -71.419347, -33.312939 ], [ -71.419566, -33.312342 ], [ -71.420887, -33.31069 ], [ -71.420743, -33.310614 ], [ -71.421369, -33.309933 ], [ -71.417201, -33.308466 ], [ -71.416178, -33.309284 ], [ -71.413242, -33.312274 ], [ -71.412355, -33.311841 ], [ -71.410767, -33.313078 ], [ -71.410146, -33.312643 ], [ -71.412469, -33.309292 ], [ -71.414002, -33.310412 ], [ -71.415585, -33.308481 ], [ -71.413319, -33.307024 ], [ -71.415378, -33.304429 ], [ -71.415502, -33.304107 ], [ -71.414555, -33.303551 ], [ -71.413486, -33.304769 ], [ -71.412635, -33.30417 ], [ -71.412895, -33.303816 ], [ -71.412339, -33.303517 ], [ -71.41283, -33.303057 ], [ -71.410271, -33.301302 ], [ -71.410061, -33.303567 ], [ -71.408248, -33.302411 ], [ -71.404152, -33.306994 ], [ -71.405879, -33.308238 ], [ -71.407377, -33.308319 ], [ -71.408133, -33.308739 ], [ -71.407697, -33.309464 ], [ -71.405376, -33.312044 ], [ -71.4011, -33.316048 ], [ -71.397752, -33.318599 ], [ -71.395255, -33.320991 ], [ -71.393212, -33.323111 ], [ -71.390853, -33.328309 ], [ -71.388863, -33.330059 ], [ -71.389032, -33.330681 ], [ -71.389529, -33.33147 ], [ -71.388921, -33.331916 ], [ -71.389979, -33.333314 ], [ -71.390967, -33.333295 ], [ -71.391893, -33.333061 ], [ -71.392483, -33.333074 ], [ -71.393081, -33.333366 ] ] ] } },
{ "type": "Feature", "properties": { "objectid": 235, "comuna": "Quilpue", "st_area_sh": 35383643.9758, "st_length_": 68554.565504500002, "Localidad": "Quilpue", "Entidad": "Ciudad" }, "geometry": { "type": "MultiPolygon", "coordinates": [ [ [ [ -71.47828, -33.030749 ], [ -71.477305, -33.031039 ], [ -71.476951, -33.031377 ], [ -71.476602, -33.03152 ], [ -71.476505, -33.031688 ], [ -71.476568, -33.031867 ], [ -71.477151, -33.032345 ], [ -71.477631, -33.032575 ], [ -71.477541, -33.032756 ], [ -71.478223, -33.03342 ], [ -71.478186, -33.034197 ], [ -71.477771, -33.035048 ], [ -71.477595, -33.035157 ], [ -71.477324, -33.035151 ], [ -71.476934, -33.034866 ], [ -71.476635, -33.034411 ], [ -71.476505, -33.033635 ], [ -71.476113, -33.033313 ], [ -71.474761, -33.033491 ], [ -71.473472, -33.033846 ], [ -71.472691, -33.034151 ], [ -71.472583, -33.034272 ], [ -71.472577, -33.034423 ], [ -71.472908, -33.034915 ], [ -71.472997, -33.035349 ], [ -71.473254, -33.035936 ], [ -71.473339, -33.036558 ], [ -71.473447, -33.036677 ], [ -71.473334, -33.036775 ], [ -71.472933, -33.036725 ], [ -71.472675, -33.036884 ], [ -71.47259, -33.03773 ], [ -71.473233, -33.037891 ], [ -71.474065, -33.03798 ], [ -71.474669, -33.038367 ], [ -71.475759, -33.038522 ], [ -71.476216, -33.038781 ], [ -71.476341, -33.038951 ], [ -71.475869, -33.039118 ], [ -71.475453, -33.039368 ], [ -71.47598, -33.039805 ], [ -71.476397, -33.040278 ], [ -71.476644, -33.040861 ], [ -71.47672, -33.041476 ], [ -71.476942, -33.041558 ], [ -71.477243, -33.041546 ], [ -71.477303, -33.042688 ], [ -71.48386, -33.042557 ], [ -71.48383, -33.04212 ], [ -71.484409, -33.040948 ], [ -71.484653, -33.040222 ], [ -71.48493, -33.038217 ], [ -71.484929, -33.037701 ], [ -71.484084, -33.037674 ], [ -71.484246, -33.035812 ], [ -71.484393, -33.035342 ], [ -71.484326, -33.034951 ], [ -71.484036, -33.034649 ], [ -71.483287, -33.034559 ], [ -71.482847, -33.034411 ], [ -71.482215, -33.034056 ], [ -71.480434, -33.032728 ], [ -71.47998, -33.032056 ], [ -71.479739, -33.030833 ], [ -71.479444, -33.030379 ], [ -71.479258, -33.030678 ], [ -71.47828, -33.030749 ] ] ], [ [ [ -71.404458, -33.03033 ], [ -71.404436, -33.029074 ], [ -71.402911, -33.029159 ], [ -71.402279, -33.029083 ], [ -71.401222, -33.029127 ], [ -71.401234, -33.029585 ], [ -71.39946, -33.029611 ], [ -71.399436, -33.032602 ], [ -71.399333, -33.033011 ], [ -71.399272, -33.034659 ], [ -71.399109, -33.034732 ], [ -71.399321, -33.045594 ], [ -71.398586, -33.045956 ], [ -71.398276, -33.045977 ], [ -71.399155, -33.054918 ], [ -71.399858, -33.064694 ], [ -71.400015, -33.065701 ], [ -71.400772, -33.065604 ], [ -71.401477, -33.070889 ], [ -71.400473, -33.071452 ], [ -71.398435, -33.072108 ], [ -71.397081, -33.072864 ], [ -71.396204, -33.073046 ], [ -71.395595, -33.072967 ], [ -71.395794, -33.071048 ], [ -71.395511, -33.071004 ], [ -71.390994, -33.074832 ], [ -71.388494, -33.074261 ], [ -71.389014, -33.074922 ], [ -71.388748, -33.078746 ], [ -71.390023, -33.078404 ], [ -71.391348, -33.078251 ], [ -71.393743, -33.078524 ], [ -71.396226, -33.075008 ], [ -71.398211, -33.074413 ], [ -71.400245, -33.073948 ], [ -71.403158, -33.072921 ], [ -71.403016, -33.073414 ], [ -71.402653, -33.073939 ], [ -71.402717, -33.074121 ], [ -71.402959, -33.074217 ], [ -71.403598, -33.074071 ], [ -71.403781, -33.074116 ], [ -71.403987, -33.074324 ], [ -71.404305, -33.074269 ], [ -71.404561, -33.073904 ], [ -71.404763, -33.073811 ], [ -71.404793, -33.073671 ], [ -71.404733, -33.073252 ], [ -71.404414, -33.072934 ], [ -71.404281, -33.07239 ], [ -71.404612, -33.072413 ], [ -71.404812, -33.072239 ], [ -71.404765, -33.071419 ], [ -71.40453, -33.070267 ], [ -71.403084, -33.065166 ], [ -71.404237, -33.064929 ], [ -71.405008, -33.064372 ], [ -71.405433, -33.063698 ], [ -71.406231, -33.063405 ], [ -71.406906, -33.063257 ], [ -71.407054, -33.063395 ], [ -71.406942, -33.063847 ], [ -71.40692, -33.064614 ], [ -71.406426, -33.065457 ], [ -71.410337, -33.065307 ], [ -71.410551, -33.06455 ], [ -71.41059, -33.063772 ], [ -71.411115, -33.063935 ], [ -71.411577, -33.064427 ], [ -71.411983, -33.064467 ], [ -71.412411, -33.064137 ], [ -71.41271, -33.063495 ], [ -71.413014, -33.063236 ], [ -71.413292, -33.06316 ], [ -71.414537, -33.063168 ], [ -71.415184, -33.062922 ], [ -71.415421, -33.062696 ], [ -71.415457, -33.061837 ], [ -71.416145, -33.061637 ], [ -71.41697, -33.061559 ], [ -71.416733, -33.062756 ], [ -71.4166, -33.063146 ], [ -71.415862, -33.06423 ], [ -71.415523, -33.066413 ], [ -71.414545, -33.06632 ], [ -71.414334, -33.067257 ], [ -71.413993, -33.067659 ], [ -71.413828, -33.068037 ], [ -71.413786, -33.068548 ], [ -71.413912, -33.069049 ], [ -71.410052, -33.070062 ], [ -71.409554, -33.070173 ], [ -71.408858, -33.070125 ], [ -71.407862, -33.07043 ], [ -71.408, -33.070821 ], [ -71.408278, -33.071156 ], [ -71.40939, -33.071769 ], [ -71.410064, -33.071378 ], [ -71.410797, -33.07107 ], [ -71.412418, -33.070665 ], [ -71.412719, -33.071418 ], [ -71.413453, -33.071242 ], [ -71.413812, -33.071944 ], [ -71.412445, -33.072369 ], [ -71.4123, -33.072549 ], [ -71.412802, -33.073475 ], [ -71.413759, -33.073865 ], [ -71.413524, -33.074694 ], [ -71.413559, -33.075109 ], [ -71.413988, -33.075188 ], [ -71.414504, -33.075103 ], [ -71.415242, -33.075151 ], [ -71.415747, -33.075015 ], [ -71.416164, -33.07476 ], [ -71.416625, -33.075397 ], [ -71.417136, -33.075711 ], [ -71.416382, -33.07619 ], [ -71.416043, -33.076267 ], [ -71.415217, -33.076868 ], [ -71.415869, -33.077999 ], [ -71.416676, -33.077785 ], [ -71.417192, -33.078844 ], [ -71.417488, -33.078851 ], [ -71.417764, -33.079231 ], [ -71.418603, -33.078556 ], [ -71.418155, -33.07764 ], [ -71.418784, -33.077305 ], [ -71.418521, -33.076374 ], [ -71.41827, -33.075911 ], [ -71.418252, -33.075271 ], [ -71.417644, -33.074283 ], [ -71.41784, -33.074102 ], [ -71.418083, -33.073583 ], [ -71.418383, -33.073249 ], [ -71.418496, -33.0725 ], [ -71.418972, -33.071478 ], [ -71.41892, -33.071399 ], [ -71.419156, -33.070987 ], [ -71.419015, -33.070733 ], [ -71.41871, -33.070618 ], [ -71.417484, -33.071152 ], [ -71.417235, -33.069067 ], [ -71.41798, -33.068817 ], [ -71.419704, -33.068061 ], [ -71.419634, -33.067677 ], [ -71.420274, -33.067304 ], [ -71.42001, -33.066811 ], [ -71.419488, -33.066647 ], [ -71.41866, -33.067237 ], [ -71.416768, -33.068193 ], [ -71.417375, -33.064997 ], [ -71.41593, -33.065112 ], [ -71.41596, -33.064589 ], [ -71.417503, -33.064285 ], [ -71.417868, -33.063254 ], [ -71.418072, -33.062353 ], [ -71.418241, -33.062107 ], [ -71.419864, -33.062038 ], [ -71.422203, -33.062216 ], [ -71.422356, -33.062694 ], [ -71.422341, -33.063999 ], [ -71.422272, -33.064384 ], [ -71.422068, -33.064831 ], [ -71.421162, -33.065744 ], [ -71.421149, -33.066588 ], [ -71.422012, -33.067108 ], [ -71.422499, -33.067074 ], [ -71.42247, -33.067659 ], [ -71.420556, -33.068418 ], [ -71.421039, -33.069414 ], [ -71.420659, -33.069821 ], [ -71.419163, -33.07041 ], [ -71.420082, -33.072171 ], [ -71.419899, -33.073568 ], [ -71.419696, -33.07439 ], [ -71.419425, -33.074782 ], [ -71.419288, -33.076314 ], [ -71.419384, -33.077023 ], [ -71.419617, -33.077126 ], [ -71.422207, -33.07643 ], [ -71.422202, -33.076236 ], [ -71.422976, -33.076406 ], [ -71.423064, -33.077984 ], [ -71.425922, -33.07554 ], [ -71.425928, -33.07529 ], [ -71.426647, -33.075053 ], [ -71.427096, -33.074709 ], [ -71.42776, -33.074671 ], [ -71.427824, -33.074334 ], [ -71.42833, -33.074088 ], [ -71.42913, -33.073998 ], [ -71.429426, -33.074131 ], [ -71.429718, -33.074122 ], [ -71.430422, -33.073711 ], [ -71.43205, -33.073216 ], [ -71.432008, -33.073016 ], [ -71.432568, -33.072694 ], [ -71.43267, -33.072696 ], [ -71.433041, -33.07316 ], [ -71.433565, -33.073603 ], [ -71.435171, -33.073377 ], [ -71.436868, -33.07371 ], [ -71.436934, -33.073321 ], [ -71.436629, -33.072466 ], [ -71.43709, -33.071552 ], [ -71.435585, -33.070763 ], [ -71.435385, -33.070013 ], [ -71.435367, -33.069367 ], [ -71.434753, -33.069379 ], [ -71.434073, -33.069759 ], [ -71.433063, -33.071157 ], [ -71.432651, -33.071491 ], [ -71.43032, -33.072146 ], [ -71.430191, -33.07175 ], [ -71.4294, -33.0721 ], [ -71.428686, -33.072265 ], [ -71.426505, -33.0688 ], [ -71.429529, -33.066477 ], [ -71.429545, -33.066272 ], [ -71.429459, -33.06608 ], [ -71.430221, -33.065806 ], [ -71.430725, -33.065384 ], [ -71.430642, -33.065017 ], [ -71.430146, -33.064214 ], [ -71.430832, -33.063975 ], [ -71.431202, -33.063932 ], [ -71.431326, -33.063997 ], [ -71.431517, -33.064181 ], [ -71.431617, -33.064473 ], [ -71.431576, -33.064705 ], [ -71.431392, -33.064948 ], [ -71.431421, -33.065015 ], [ -71.431657, -33.065307 ], [ -71.432013, -33.065496 ], [ -71.433717, -33.065699 ], [ -71.434017, -33.065218 ], [ -71.434192, -33.065031 ], [ -71.434305, -33.065022 ], [ -71.43435, -33.065064 ], [ -71.434074, -33.065757 ], [ -71.434031, -33.066364 ], [ -71.434319, -33.066613 ], [ -71.43472, -33.066699 ], [ -71.435454, -33.067083 ], [ -71.435945, -33.066675 ], [ -71.43626, -33.066818 ], [ -71.437026, -33.066206 ], [ -71.437603, -33.066397 ], [ -71.437292, -33.067308 ], [ -71.43729, -33.067584 ], [ -71.437364, -33.068131 ], [ -71.437734, -33.069401 ], [ -71.438126, -33.069502 ], [ -71.439631, -33.069613 ], [ -71.439892, -33.070516 ], [ -71.441066, -33.070166 ], [ -71.44165, -33.069984 ], [ -71.441547, -33.069439 ], [ -71.440743, -33.068294 ], [ -71.439729, -33.067273 ], [ -71.439801, -33.066628 ], [ -71.43996, -33.066127 ], [ -71.44052, -33.065976 ], [ -71.440529, -33.064198 ], [ -71.439169, -33.064647 ], [ -71.438875, -33.064364 ], [ -71.438796, -33.063995 ], [ -71.440511, -33.063088 ], [ -71.441712, -33.062582 ], [ -71.443591, -33.062655 ], [ -71.445929, -33.06286 ], [ -71.450538, -33.062857 ], [ -71.452129, -33.062701 ], [ -71.454932, -33.062036 ], [ -71.455528, -33.061596 ], [ -71.456206, -33.060884 ], [ -71.456613, -33.060657 ], [ -71.457183, -33.060549 ], [ -71.458418, -33.060582 ], [ -71.4594, -33.06032 ], [ -71.459858, -33.060065 ], [ -71.460195, -33.059702 ], [ -71.460376, -33.059268 ], [ -71.460013, -33.058867 ], [ -71.459508, -33.058724 ], [ -71.459485, -33.058481 ], [ -71.459708, -33.058103 ], [ -71.460165, -33.057928 ], [ -71.46069, -33.057993 ], [ -71.46117, -33.058184 ], [ -71.461564, -33.058482 ], [ -71.461799, -33.058791 ], [ -71.463087, -33.058964 ], [ -71.465058, -33.059025 ], [ -71.46685, -33.05918 ], [ -71.467175, -33.05934 ], [ -71.467451, -33.059617 ], [ -71.468174, -33.06068 ], [ -71.468619, -33.060716 ], [ -71.468807, -33.060605 ], [ -71.468605, -33.059757 ], [ -71.469277, -33.058929 ], [ -71.470003, -33.058657 ], [ -71.470685, -33.058638 ], [ -71.470796, -33.058485 ], [ -71.470974, -33.058064 ], [ -71.470974, -33.057222 ], [ -71.471196, -33.056752 ], [ -71.471176, -33.056591 ], [ -71.471023, -33.05621 ], [ -71.470679, -33.055841 ], [ -71.469806, -33.055615 ], [ -71.467423, -33.055602 ], [ -71.467342, -33.055299 ], [ -71.467907, -33.054863 ], [ -71.468937, -33.054433 ], [ -71.469479, -33.053995 ], [ -71.469868, -33.053336 ], [ -71.469941, -33.052493 ], [ -71.470141, -33.05201 ], [ -71.470463, -33.051679 ], [ -71.470906, -33.051524 ], [ -71.470865, -33.051215 ], [ -71.471008, -33.050941 ], [ -71.471484, -33.050689 ], [ -71.471928, -33.05017 ], [ -71.472256, -33.049947 ], [ -71.473013, -33.049633 ], [ -71.473632, -33.04985 ], [ -71.473622, -33.050572 ], [ -71.473807, -33.05059 ], [ -71.474266, -33.050535 ], [ -71.47467, -33.050345 ], [ -71.476012, -33.050418 ], [ -71.476132, -33.050079 ], [ -71.476204, -33.049611 ], [ -71.476174, -33.04914 ], [ -71.476084, -33.048794 ], [ -71.475781, -33.048229 ], [ -71.475704, -33.047717 ], [ -71.475799, -33.047189 ], [ -71.476417, -33.04589 ], [ -71.476505, -33.045394 ], [ -71.476502, -33.041127 ], [ -71.476167, -33.040371 ], [ -71.475733, -33.039844 ], [ -71.474468, -33.038944 ], [ -71.473273, -33.038438 ], [ -71.472534, -33.038269 ], [ -71.471971, -33.038238 ], [ -71.471275, -33.038332 ], [ -71.470628, -33.038566 ], [ -71.469504, -33.039629 ], [ -71.468945, -33.040309 ], [ -71.468029, -33.041118 ], [ -71.467249, -33.04162 ], [ -71.466249, -33.042004 ], [ -71.465693, -33.042132 ], [ -71.464824, -33.042171 ], [ -71.463078, -33.04203 ], [ -71.462235, -33.042082 ], [ -71.461414, -33.042367 ], [ -71.459381, -33.043315 ], [ -71.458579, -33.043459 ], [ -71.457596, -33.043464 ], [ -71.457834, -33.042189 ], [ -71.457533, -33.042117 ], [ -71.456335, -33.042043 ], [ -71.45561, -33.042253 ], [ -71.455247, -33.042223 ], [ -71.454667, -33.04207 ], [ -71.453735, -33.041597 ], [ -71.453039, -33.041518 ], [ -71.45216, -33.041724 ], [ -71.451103, -33.04231 ], [ -71.45028, -33.042577 ], [ -71.449619, -33.042422 ], [ -71.449015, -33.042148 ], [ -71.447704, -33.041052 ], [ -71.447413, -33.040937 ], [ -71.446566, -33.040883 ], [ -71.445885, -33.041168 ], [ -71.446412, -33.039702 ], [ -71.4466, -33.039419 ], [ -71.446575, -33.039149 ], [ -71.446439, -33.038963 ], [ -71.44757, -33.037818 ], [ -71.447659, -33.037432 ], [ -71.44755, -33.037117 ], [ -71.449244, -33.035407 ], [ -71.448357, -33.034634 ], [ -71.448077, -33.034872 ], [ -71.44757, -33.034435 ], [ -71.447041, -33.034186 ], [ -71.447234, -33.033444 ], [ -71.44667, -33.03297 ], [ -71.446386, -33.032943 ], [ -71.446101, -33.033245 ], [ -71.445705, -33.033307 ], [ -71.445372, -33.033116 ], [ -71.445298, -33.032784 ], [ -71.445693, -33.032479 ], [ -71.446114, -33.032349 ], [ -71.446073, -33.032188 ], [ -71.446743, -33.031805 ], [ -71.447201, -33.031421 ], [ -71.447941, -33.031026 ], [ -71.449245, -33.030473 ], [ -71.450984, -33.029926 ], [ -71.451151, -33.029751 ], [ -71.451216, -33.029506 ], [ -71.451113, -33.029288 ], [ -71.450883, -33.029155 ], [ -71.450604, -33.029151 ], [ -71.448315, -33.029763 ], [ -71.44701, -33.030507 ], [ -71.446364, -33.031017 ], [ -71.445541, -33.031294 ], [ -71.444559, -33.031742 ], [ -71.443589, -33.031859 ], [ -71.44242, -33.031695 ], [ -71.442073, -33.03174 ], [ -71.440996, -33.0322 ], [ -71.440892, -33.032025 ], [ -71.440689, -33.032029 ], [ -71.440593, -33.032148 ], [ -71.44115, -33.033052 ], [ -71.441134, -33.033282 ], [ -71.440966, -33.033531 ], [ -71.440607, -33.033695 ], [ -71.439955, -33.033725 ], [ -71.439336, -33.033873 ], [ -71.438784, -33.03415 ], [ -71.438398, -33.034511 ], [ -71.437953, -33.034573 ], [ -71.437569, -33.034374 ], [ -71.437442, -33.034123 ], [ -71.437457, -33.033905 ], [ -71.436987, -33.033585 ], [ -71.43585, -33.033588 ], [ -71.434617, -33.033344 ], [ -71.434335, -33.033398 ], [ -71.434131, -33.033569 ], [ -71.432438, -33.032662 ], [ -71.432636, -33.032353 ], [ -71.431827, -33.031766 ], [ -71.432458, -33.031086 ], [ -71.432802, -33.03112 ], [ -71.432903, -33.030989 ], [ -71.432804, -33.030838 ], [ -71.433085, -33.029949 ], [ -71.433709, -33.028723 ], [ -71.43431, -33.026951 ], [ -71.432686, -33.026532 ], [ -71.432317, -33.02666 ], [ -71.43193, -33.027174 ], [ -71.432028, -33.027598 ], [ -71.43226, -33.027714 ], [ -71.432403, -33.029102 ], [ -71.432327, -33.029441 ], [ -71.431456, -33.029621 ], [ -71.431123, -33.029998 ], [ -71.430576, -33.030335 ], [ -71.429876, -33.029866 ], [ -71.429578, -33.029784 ], [ -71.429257, -33.029903 ], [ -71.428476, -33.029942 ], [ -71.427302, -33.029587 ], [ -71.427128, -33.030185 ], [ -71.424944, -33.030252 ], [ -71.424571, -33.031585 ], [ -71.424012, -33.03244 ], [ -71.423861, -33.032853 ], [ -71.423996, -33.032899 ], [ -71.424839, -33.032657 ], [ -71.425279, -33.032759 ], [ -71.425171, -33.03294 ], [ -71.425238, -33.032963 ], [ -71.426463, -33.033084 ], [ -71.426614, -33.033195 ], [ -71.426662, -33.033488 ], [ -71.426859, -33.033734 ], [ -71.426694, -33.034224 ], [ -71.426697, -33.036736 ], [ -71.425715, -33.036763 ], [ -71.425188, -33.036632 ], [ -71.424628, -33.03638 ], [ -71.42337, -33.035591 ], [ -71.422751, -33.035434 ], [ -71.420945, -33.035738 ], [ -71.418337, -33.036528 ], [ -71.416494, -33.036546 ], [ -71.41403, -33.036287 ], [ -71.412635, -33.036264 ], [ -71.412577, -33.036166 ], [ -71.412723, -33.03565 ], [ -71.41276, -33.035063 ], [ -71.413663, -33.035251 ], [ -71.414775, -33.035313 ], [ -71.415195, -33.035116 ], [ -71.415968, -33.034937 ], [ -71.416146, -33.034567 ], [ -71.416154, -33.034089 ], [ -71.415857, -33.033051 ], [ -71.415178, -33.03286 ], [ -71.415711, -33.032636 ], [ -71.415732, -33.032479 ], [ -71.415636, -33.032016 ], [ -71.414959, -33.031011 ], [ -71.414959, -33.030723 ], [ -71.415198, -33.030317 ], [ -71.415238, -33.030099 ], [ -71.414487, -33.030555 ], [ -71.414394, -33.03052 ], [ -71.414252, -33.030397 ], [ -71.4142, -33.030232 ], [ -71.414405, -33.029794 ], [ -71.414181, -33.0296 ], [ -71.413727, -33.029574 ], [ -71.413151, -33.029825 ], [ -71.412711, -33.030313 ], [ -71.412328, -33.031123 ], [ -71.412011, -33.031498 ], [ -71.412007, -33.031847 ], [ -71.412148, -33.032012 ], [ -71.412351, -33.032096 ], [ -71.412439, -33.032271 ], [ -71.412266, -33.033778 ], [ -71.411853, -33.033804 ], [ -71.411859, -33.033492 ], [ -71.411671, -33.033403 ], [ -71.411455, -33.033404 ], [ -71.411232, -33.033529 ], [ -71.411297, -33.03262 ], [ -71.410579, -33.03257 ], [ -71.409682, -33.032639 ], [ -71.409814, -33.031561 ], [ -71.40984, -33.029404 ], [ -71.407941, -33.029403 ], [ -71.407934, -33.029163 ], [ -71.406285, -33.029031 ], [ -71.406316, -33.030165 ], [ -71.404458, -33.03033 ] ], [ [ -71.398342, -33.046286 ], [ -71.398681, -33.04981 ], [ -71.398402, -33.046914 ], [ -71.398342, -33.046286 ] ], [ [ -71.400368, -33.055944 ], [ -71.400387, -33.056729 ], [ -71.400385, -33.056654 ], [ -71.400368, -33.055944 ] ] ] ] } },
{ "type": "Feature", "properties": { "objectid": 231, "comuna": "Limache", "st_area_sh": 12688342.457900001, "st_length_": 32919.483911199997, "Localidad": "Limache", "Entidad": "Ciudad" }, "geometry": { "type": "Polygon", "coordinates": [ [ [ -71.280128, -33.00178 ], [ -71.279354, -33.001963 ], [ -71.278959, -33.001031 ], [ -71.278778, -33.000829 ], [ -71.276886, -32.999418 ], [ -71.275727, -32.998229 ], [ -71.275665, -32.997994 ], [ -71.275759, -32.997469 ], [ -71.275735, -32.997005 ], [ -71.275093, -32.994644 ], [ -71.274765, -32.992111 ], [ -71.276947, -32.991476 ], [ -71.279135, -32.991089 ], [ -71.280176, -32.990663 ], [ -71.281274, -32.990355 ], [ -71.282544, -32.990463 ], [ -71.283804, -32.990292 ], [ -71.286046, -32.989173 ], [ -71.283824, -32.985312 ], [ -71.283658, -32.985346 ], [ -71.283515, -32.985138 ], [ -71.280289, -32.985627 ], [ -71.279072, -32.985279 ], [ -71.278052, -32.984677 ], [ -71.27772, -32.984262 ], [ -71.277479, -32.983805 ], [ -71.277337, -32.983319 ], [ -71.277299, -32.98282 ], [ -71.277372, -32.982294 ], [ -71.277554, -32.981786 ], [ -71.277839, -32.981312 ], [ -71.278218, -32.980888 ], [ -71.27662, -32.979061 ], [ -71.276023, -32.979188 ], [ -71.27442, -32.977117 ], [ -71.273877, -32.977375 ], [ -71.274772, -32.978616 ], [ -71.272286, -32.980365 ], [ -71.270824, -32.978473 ], [ -71.270262, -32.978731 ], [ -71.271744, -32.981433 ], [ -71.270954, -32.9819 ], [ -71.271568, -32.983007 ], [ -71.271025, -32.983232 ], [ -71.269316, -32.980351 ], [ -71.269006, -32.980328 ], [ -71.267922, -32.980693 ], [ -71.268731, -32.982408 ], [ -71.267834, -32.982777 ], [ -71.26851, -32.98389 ], [ -71.269278, -32.983566 ], [ -71.269449, -32.983928 ], [ -71.26823, -32.984441 ], [ -71.267962, -32.983933 ], [ -71.267542, -32.98413 ], [ -71.267312, -32.983727 ], [ -71.266862, -32.983887 ], [ -71.26616, -32.982527 ], [ -71.266001, -32.982447 ], [ -71.265572, -32.98257 ], [ -71.265743, -32.982933 ], [ -71.265523, -32.983099 ], [ -71.265202, -32.98266 ], [ -71.264891, -32.982798 ], [ -71.264038, -32.983938 ], [ -71.263635, -32.984292 ], [ -71.263053, -32.984568 ], [ -71.262702, -32.984657 ], [ -71.262406, -32.984596 ], [ -71.262095, -32.984701 ], [ -71.26206, -32.984867 ], [ -71.262247, -32.985277 ], [ -71.262113, -32.985428 ], [ -71.261821, -32.985516 ], [ -71.261487, -32.985489 ], [ -71.261318, -32.98579 ], [ -71.260281, -32.985908 ], [ -71.258706, -32.986506 ], [ -71.25842, -32.986516 ], [ -71.258253, -32.986661 ], [ -71.258253, -32.986907 ], [ -71.258491, -32.987302 ], [ -71.258784, -32.987558 ], [ -71.259243, -32.987775 ], [ -71.259447, -32.987825 ], [ -71.260171, -32.987309 ], [ -71.260862, -32.987327 ], [ -71.261128, -32.987579 ], [ -71.261218, -32.987882 ], [ -71.261042, -32.988213 ], [ -71.260775, -32.988347 ], [ -71.260091, -32.988906 ], [ -71.259228, -32.989251 ], [ -71.259109, -32.989844 ], [ -71.259342, -32.990655 ], [ -71.259854, -32.990811 ], [ -71.260396, -32.990765 ], [ -71.261819, -32.990031 ], [ -71.263733, -32.992779 ], [ -71.263132, -32.99305 ], [ -71.263219, -32.993569 ], [ -71.263724, -32.994112 ], [ -71.264302, -32.994519 ], [ -71.265413, -32.994906 ], [ -71.266164, -32.994963 ], [ -71.266508, -32.994891 ], [ -71.266798, -32.995183 ], [ -71.267925, -32.994766 ], [ -71.266858, -32.992522 ], [ -71.269016, -32.991389 ], [ -71.26988, -32.993101 ], [ -71.271572, -32.992437 ], [ -71.272343, -32.99409 ], [ -71.270799, -32.994857 ], [ -71.264626, -32.996861 ], [ -71.262586, -32.997645 ], [ -71.260098, -32.998728 ], [ -71.259571, -32.999251 ], [ -71.259052, -32.999951 ], [ -71.25791, -33.00104 ], [ -71.259563, -33.004454 ], [ -71.259017, -33.00465 ], [ -71.257934, -33.002389 ], [ -71.25698, -33.002688 ], [ -71.256602, -33.001719 ], [ -71.25578, -33.001816 ], [ -71.256698, -33.003933 ], [ -71.255474, -33.004451 ], [ -71.255123, -33.004395 ], [ -71.254782, -33.004076 ], [ -71.254702, -33.003171 ], [ -71.254387, -33.002522 ], [ -71.253914, -33.002057 ], [ -71.253286, -33.001746 ], [ -71.252961, -33.002186 ], [ -71.252924, -33.002795 ], [ -71.252811, -33.00316 ], [ -71.252136, -33.004379 ], [ -71.253467, -33.006555 ], [ -71.251969, -33.007179 ], [ -71.252195, -33.007647 ], [ -71.251293, -33.008012 ], [ -71.250188, -33.006499 ], [ -71.24989, -33.006343 ], [ -71.249595, -33.00636 ], [ -71.249019, -33.007125 ], [ -71.246669, -33.009198 ], [ -71.247089, -33.009448 ], [ -71.248539, -33.01091 ], [ -71.2508, -33.014392 ], [ -71.250229, -33.015081 ], [ -71.250557, -33.015474 ], [ -71.250739, -33.015928 ], [ -71.250905, -33.017748 ], [ -71.250396, -33.017773 ], [ -71.249929, -33.01717 ], [ -71.249337, -33.016997 ], [ -71.24752, -33.016599 ], [ -71.246594, -33.016469 ], [ -71.246178, -33.016493 ], [ -71.24551, -33.016647 ], [ -71.244907, -33.016933 ], [ -71.244407, -33.017335 ], [ -71.243726, -33.018114 ], [ -71.243329, -33.018359 ], [ -71.242876, -33.018521 ], [ -71.242631, -33.018819 ], [ -71.24254, -33.019172 ], [ -71.242616, -33.019529 ], [ -71.243104, -33.020079 ], [ -71.24322, -33.020466 ], [ -71.243473, -33.020655 ], [ -71.243404, -33.021226 ], [ -71.243687, -33.021536 ], [ -71.243766, -33.021942 ], [ -71.244123, -33.022294 ], [ -71.244276, -33.022584 ], [ -71.244328, -33.022897 ], [ -71.244215, -33.023233 ], [ -71.244247, -33.023449 ], [ -71.24643, -33.02704 ], [ -71.248338, -33.026427 ], [ -71.249045, -33.026009 ], [ -71.24969, -33.025526 ], [ -71.250013, -33.025058 ], [ -71.250422, -33.024639 ], [ -71.251724, -33.023703 ], [ -71.252312, -33.023068 ], [ -71.253671, -33.024611 ], [ -71.254473, -33.024482 ], [ -71.269589, -33.019096 ], [ -71.272777, -33.017838 ], [ -71.270866, -33.013451 ], [ -71.271387, -33.013108 ], [ -71.272022, -33.012949 ], [ -71.271476, -33.012331 ], [ -71.271823, -33.011863 ], [ -71.272466, -33.01131 ], [ -71.272625, -33.010869 ], [ -71.272422, -33.009781 ], [ -71.272101, -33.008772 ], [ -71.27081, -33.006328 ], [ -71.271178, -33.006122 ], [ -71.271547, -33.006094 ], [ -71.271829, -33.006172 ], [ -71.271857, -33.006517 ], [ -71.272228, -33.006754 ], [ -71.272525, -33.006732 ], [ -71.273462, -33.006341 ], [ -71.273795, -33.006468 ], [ -71.27419, -33.006824 ], [ -71.274443, -33.006936 ], [ -71.274869, -33.006947 ], [ -71.27524, -33.006772 ], [ -71.274808, -33.005402 ], [ -71.274203, -33.003994 ], [ -71.274249, -33.003661 ], [ -71.274399, -33.003357 ], [ -71.275262, -33.002469 ], [ -71.276087, -33.002081 ], [ -71.277019, -33.001943 ], [ -71.280854, -33.006818 ], [ -71.28154, -33.006772 ], [ -71.282359, -33.007217 ], [ -71.283248, -33.007551 ], [ -71.284116, -33.008478 ], [ -71.284769, -33.008121 ], [ -71.285192, -33.007571 ], [ -71.285229, -33.007482 ], [ -71.28404, -33.006112 ], [ -71.284899, -33.005558 ], [ -71.284049, -33.004422 ], [ -71.283042, -33.002481 ], [ -71.282028, -33.002953 ], [ -71.280905, -33.001763 ], [ -71.280588, -33.002098 ], [ -71.280128, -33.00178 ] ] ] } },
{ "type": "Feature", "properties": { "objectid": 217, "comuna": "Olmue", "st_area_sh": 9810160.2127, "st_length_": 35888.860710100002, "Localidad": "Olmue", "Entidad": "Ciudad" }, "geometry": { "type": "Polygon", "coordinates": [ [ [ -71.176154, -33.001867 ], [ -71.172369, -32.999929 ], [ -71.171806, -32.999469 ], [ -71.17117, -32.999083 ], [ -71.170473, -32.998778 ], [ -71.169731, -32.998562 ], [ -71.169325, -32.999819 ], [ -71.169368, -33.000401 ], [ -71.168993, -33.000495 ], [ -71.168715, -33.000796 ], [ -71.167549, -33.000597 ], [ -71.16694, -33.000245 ], [ -71.166193, -32.999385 ], [ -71.165482, -32.99896 ], [ -71.165273, -32.998408 ], [ -71.165343, -32.997913 ], [ -71.166047, -32.997988 ], [ -71.166752, -32.997921 ], [ -71.167419, -32.997717 ], [ -71.167898, -32.997461 ], [ -71.168312, -32.997134 ], [ -71.168644, -32.996748 ], [ -71.168775, -32.996536 ], [ -71.168936, -32.995694 ], [ -71.169314, -32.99542 ], [ -71.17131, -32.996374 ], [ -71.173801, -32.997365 ], [ -71.177536, -32.999166 ], [ -71.178908, -32.999711 ], [ -71.180328, -33.000023 ], [ -71.184775, -33.00157 ], [ -71.184904, -33.001077 ], [ -71.189698, -33.00095 ], [ -71.192296, -33.001126 ], [ -71.192919, -32.999615 ], [ -71.194494, -33.000014 ], [ -71.195655, -33.000213 ], [ -71.2007, -33.000696 ], [ -71.201486, -32.998259 ], [ -71.199519, -32.997892 ], [ -71.198939, -32.997654 ], [ -71.197778, -32.997373 ], [ -71.197491, -32.997566 ], [ -71.197244, -32.99789 ], [ -71.197154, -32.998189 ], [ -71.19719, -32.998573 ], [ -71.197742, -32.998714 ], [ -71.198302, -32.998598 ], [ -71.198324, -32.99879 ], [ -71.197591, -32.998924 ], [ -71.194724, -32.99872 ], [ -71.193939, -32.997664 ], [ -71.194416, -32.996957 ], [ -71.193636, -32.996513 ], [ -71.192798, -32.996152 ], [ -71.191228, -32.995734 ], [ -71.191569, -32.993317 ], [ -71.193927, -32.994319 ], [ -71.195064, -32.994626 ], [ -71.195106, -32.994209 ], [ -71.193515, -32.993331 ], [ -71.193678, -32.992807 ], [ -71.193637, -32.992585 ], [ -71.193175, -32.99243 ], [ -71.193797, -32.99077 ], [ -71.193921, -32.990499 ], [ -71.195318, -32.990317 ], [ -71.196943, -32.990297 ], [ -71.197085, -32.990192 ], [ -71.197049, -32.990058 ], [ -71.196108, -32.989777 ], [ -71.193679, -32.990013 ], [ -71.193613, -32.988751 ], [ -71.192839, -32.988824 ], [ -71.192904, -32.989779 ], [ -71.192591, -32.990928 ], [ -71.192634, -32.991212 ], [ -71.192781, -32.991471 ], [ -71.192578, -32.991543 ], [ -71.192306, -32.991524 ], [ -71.191802, -32.991755 ], [ -71.191858, -32.991063 ], [ -71.190058, -32.990517 ], [ -71.188508, -32.990594 ], [ -71.188291, -32.990784 ], [ -71.187934, -32.990916 ], [ -71.187666, -32.98998 ], [ -71.18547, -32.99041 ], [ -71.185641, -32.989177 ], [ -71.185344, -32.988575 ], [ -71.185321, -32.987945 ], [ -71.185215, -32.987651 ], [ -71.185268, -32.987348 ], [ -71.185373, -32.987186 ], [ -71.185951, -32.986897 ], [ -71.187069, -32.986591 ], [ -71.187546, -32.9852 ], [ -71.187049, -32.98515 ], [ -71.186559, -32.985233 ], [ -71.185987, -32.985941 ], [ -71.185287, -32.986563 ], [ -71.184669, -32.986499 ], [ -71.18436, -32.986347 ], [ -71.183947, -32.985994 ], [ -71.183384, -32.985927 ], [ -71.183215, -32.986941 ], [ -71.183091, -32.986951 ], [ -71.182648, -32.986784 ], [ -71.182574, -32.9867 ], [ -71.182625, -32.986528 ], [ -71.182571, -32.986356 ], [ -71.182278, -32.986178 ], [ -71.181199, -32.986025 ], [ -71.180672, -32.986807 ], [ -71.178415, -32.986118 ], [ -71.178521, -32.985403 ], [ -71.17783, -32.985296 ], [ -71.177629, -32.98599 ], [ -71.177464, -32.987755 ], [ -71.173964, -32.986582 ], [ -71.171858, -32.986096 ], [ -71.170856, -32.98573 ], [ -71.170531, -32.985508 ], [ -71.169546, -32.984599 ], [ -71.16871, -32.983319 ], [ -71.168494, -32.982765 ], [ -71.168361, -32.982117 ], [ -71.168374, -32.981643 ], [ -71.168487, -32.981178 ], [ -71.167984, -32.981145 ], [ -71.167521, -32.981313 ], [ -71.167563, -32.981731 ], [ -71.167839, -32.982081 ], [ -71.167587, -32.982548 ], [ -71.167268, -32.982892 ], [ -71.166868, -32.98317 ], [ -71.165943, -32.983474 ], [ -71.165547, -32.983703 ], [ -71.165225, -32.984103 ], [ -71.165302, -32.984225 ], [ -71.165273, -32.98436 ], [ -71.165111, -32.984462 ], [ -71.164443, -32.983495 ], [ -71.163939, -32.982298 ], [ -71.163626, -32.981792 ], [ -71.160498, -32.982277 ], [ -71.161195, -32.983014 ], [ -71.161544, -32.983263 ], [ -71.161791, -32.983674 ], [ -71.161764, -32.984445 ], [ -71.161434, -32.985581 ], [ -71.160392, -32.985249 ], [ -71.159715, -32.985254 ], [ -71.159422, -32.985185 ], [ -71.159234, -32.985054 ], [ -71.158613, -32.984158 ], [ -71.157881, -32.983929 ], [ -71.155821, -32.983002 ], [ -71.154409, -32.983221 ], [ -71.153245, -32.98439 ], [ -71.15851, -32.988649 ], [ -71.158987, -32.988382 ], [ -71.160855, -32.987624 ], [ -71.161023, -32.987521 ], [ -71.161123, -32.987204 ], [ -71.161363, -32.987019 ], [ -71.161606, -32.986976 ], [ -71.161884, -32.987066 ], [ -71.162039, -32.987221 ], [ -71.161751, -32.989886 ], [ -71.159237, -32.989582 ], [ -71.158712, -32.98958 ], [ -71.156291, -32.990204 ], [ -71.15469, -32.990101 ], [ -71.15312, -32.990377 ], [ -71.152247, -32.990236 ], [ -71.151797, -32.990033 ], [ -71.151411, -32.989753 ], [ -71.150282, -32.989403 ], [ -71.149599, -32.98955 ], [ -71.148917, -32.989469 ], [ -71.14667, -32.988437 ], [ -71.145117, -32.987555 ], [ -71.143429, -32.986157 ], [ -71.142325, -32.985549 ], [ -71.142185, -32.985303 ], [ -71.141054, -32.984716 ], [ -71.140161, -32.984444 ], [ -71.139749, -32.984403 ], [ -71.138391, -32.984491 ], [ -71.138165, -32.984695 ], [ -71.138143, -32.984928 ], [ -71.138326, -32.985159 ], [ -71.139125, -32.985343 ], [ -71.139612, -32.985662 ], [ -71.141664, -32.988046 ], [ -71.142072, -32.98868 ], [ -71.141905, -32.988925 ], [ -71.141841, -32.989203 ], [ -71.141885, -32.989483 ], [ -71.142086, -32.989793 ], [ -71.142342, -32.989977 ], [ -71.143211, -32.99029 ], [ -71.143852, -32.990659 ], [ -71.144657, -32.991434 ], [ -71.144779, -32.991764 ], [ -71.144677, -32.992098 ], [ -71.143978, -32.992727 ], [ -71.141171, -32.994306 ], [ -71.140259, -32.994677 ], [ -71.139785, -32.995005 ], [ -71.139305, -32.995509 ], [ -71.139088, -32.995851 ], [ -71.139053, -32.996139 ], [ -71.139199, -32.9968 ], [ -71.139209, -32.997291 ], [ -71.139005, -32.998653 ], [ -71.139186, -32.999164 ], [ -71.139677, -32.9993 ], [ -71.140177, -32.999326 ], [ -71.141097, -32.997957 ], [ -71.142051, -32.997306 ], [ -71.142888, -32.996871 ], [ -71.143405, -32.996369 ], [ -71.143616, -32.996392 ], [ -71.143759, -32.996567 ], [ -71.143605, -32.997238 ], [ -71.143434, -32.99759 ], [ -71.143048, -32.998002 ], [ -71.142752, -32.998462 ], [ -71.14293, -32.998642 ], [ -71.143178, -32.998747 ], [ -71.144376, -32.99856 ], [ -71.146036, -32.998047 ], [ -71.146421, -32.997806 ], [ -71.146738, -32.997406 ], [ -71.147178, -32.997209 ], [ -71.147748, -32.997212 ], [ -71.148229, -32.997448 ], [ -71.148663, -32.997379 ], [ -71.149172, -32.99701 ], [ -71.149369, -32.996733 ], [ -71.149404, -32.996285 ], [ -71.149098, -32.995441 ], [ -71.149626, -32.995196 ], [ -71.150008, -32.995214 ], [ -71.150606, -32.995466 ], [ -71.151217, -32.995553 ], [ -71.151378, -32.996443 ], [ -71.151221, -32.997359 ], [ -71.151306, -32.997582 ], [ -71.151482, -32.997764 ], [ -71.151895, -32.997163 ], [ -71.152089, -32.996609 ], [ -71.152322, -32.996331 ], [ -71.152707, -32.996014 ], [ -71.153163, -32.995773 ], [ -71.154553, -32.994598 ], [ -71.154634, -32.993904 ], [ -71.154716, -32.993857 ], [ -71.155264, -32.99367 ], [ -71.157391, -32.993558 ], [ -71.161159, -32.992176 ], [ -71.16154, -32.997031 ], [ -71.163645, -32.997705 ], [ -71.16432, -32.99956 ], [ -71.163935, -33.001716 ], [ -71.162065, -33.003314 ], [ -71.161178, -33.003578 ], [ -71.159833, -33.004314 ], [ -71.159853, -33.004498 ], [ -71.160049, -33.004581 ], [ -71.160216, -33.004513 ], [ -71.160269, -33.004395 ], [ -71.160604, -33.004315 ], [ -71.161535, -33.004297 ], [ -71.161768, -33.004428 ], [ -71.161946, -33.00468 ], [ -71.161972, -33.004914 ], [ -71.161851, -33.005188 ], [ -71.160838, -33.005761 ], [ -71.160558, -33.006081 ], [ -71.160522, -33.006542 ], [ -71.160649, -33.006786 ], [ -71.160868, -33.006979 ], [ -71.161077, -33.007076 ], [ -71.163884, -33.006512 ], [ -71.166737, -33.006149 ], [ -71.167822, -33.005897 ], [ -71.16854, -33.005837 ], [ -71.169527, -33.005966 ], [ -71.170424, -33.006328 ], [ -71.171544, -33.006607 ], [ -71.172401, -33.006761 ], [ -71.172448, -33.006669 ], [ -71.17351, -33.00723 ], [ -71.17461, -33.005884 ], [ -71.17495, -33.004516 ], [ -71.175311, -33.003568 ], [ -71.174773, -33.003248 ], [ -71.175321, -33.002547 ], [ -71.176154, -33.001867 ] ] ] } },
{ "type": "Feature", "properties": { "objectid": 195, "comuna": "Quillota", "st_area_sh": 863051.83771, "st_length_": 7120.219432, "Localidad": "San Pedro", "Entidad": "Pueblo" }, "geometry": { "type": "Polygon", "coordinates": [ [ [ -71.278352, -32.939504 ], [ -71.277836, -32.93841 ], [ -71.280005, -32.938212 ], [ -71.279928, -32.937291 ], [ -71.274676, -32.934866 ], [ -71.274228, -32.93528 ], [ -71.270855, -32.931128 ], [ -71.269344, -32.931963 ], [ -71.269103, -32.931466 ], [ -71.267873, -32.931893 ], [ -71.268596, -32.935197 ], [ -71.268754, -32.935636 ], [ -71.269452, -32.936396 ], [ -71.270908, -32.936993 ], [ -71.271248, -32.938284 ], [ -71.272534, -32.938377 ], [ -71.272733, -32.938481 ], [ -71.272845, -32.938654 ], [ -71.272916, -32.939347 ], [ -71.272765, -32.939652 ], [ -71.272551, -32.94075 ], [ -71.272708, -32.941076 ], [ -71.271259, -32.943139 ], [ -71.270775, -32.94401 ], [ -71.271173, -32.944728 ], [ -71.27224, -32.944336 ], [ -71.27203, -32.94403 ], [ -71.27192, -32.943566 ], [ -71.27211, -32.942992 ], [ -71.272197, -32.942319 ], [ -71.275773, -32.940408 ], [ -71.275417, -32.939809 ], [ -71.275737, -32.939682 ], [ -71.278176, -32.939668 ], [ -71.280262, -32.939842 ], [ -71.28087, -32.939822 ], [ -71.283234, -32.939556 ], [ -71.284597, -32.939271 ], [ -71.281659, -32.93942 ], [ -71.279593, -32.939395 ], [ -71.278352, -32.939504 ] ] ] } },
{ "type": "Feature", "properties": { "objectid": 232, "comuna": "Quillota", "st_area_sh": 13417208.4528, "st_length_": 25464.662121900001, "Localidad": "Quillota", "Entidad": "Ciudad" }, "geometry": { "type": "Polygon", "coordinates": [ [ [ -71.232374, -32.862513 ], [ -71.22928, -32.862877 ], [ -71.229752, -32.866307 ], [ -71.2297, -32.866832 ], [ -71.22985, -32.866703 ], [ -71.232361, -32.866311 ], [ -71.23248, -32.866747 ], [ -71.234663, -32.86627 ], [ -71.235666, -32.868226 ], [ -71.235726, -32.868615 ], [ -71.236496, -32.869656 ], [ -71.237289, -32.87047 ], [ -71.235931, -32.870745 ], [ -71.235953, -32.873689 ], [ -71.233221, -32.87384 ], [ -71.233865, -32.879338 ], [ -71.235163, -32.879284 ], [ -71.235663, -32.877014 ], [ -71.236593, -32.876985 ], [ -71.2367, -32.877973 ], [ -71.236917, -32.878948 ], [ -71.23598, -32.879026 ], [ -71.236256, -32.884542 ], [ -71.237183, -32.884488 ], [ -71.237426, -32.886615 ], [ -71.236585, -32.886706 ], [ -71.236706, -32.887806 ], [ -71.236912, -32.888578 ], [ -71.237431, -32.889598 ], [ -71.237362, -32.889739 ], [ -71.237433, -32.88997 ], [ -71.244635, -32.89858 ], [ -71.246812, -32.898406 ], [ -71.246836, -32.898766 ], [ -71.248003, -32.898653 ], [ -71.249431, -32.898274 ], [ -71.249681, -32.89844 ], [ -71.249961, -32.898368 ], [ -71.250111, -32.898603 ], [ -71.250519, -32.898459 ], [ -71.250601, -32.898668 ], [ -71.253216, -32.897993 ], [ -71.253486, -32.898658 ], [ -71.25368, -32.898624 ], [ -71.253775, -32.898958 ], [ -71.254062, -32.898873 ], [ -71.254445, -32.899427 ], [ -71.255175, -32.89917 ], [ -71.254769, -32.897989 ], [ -71.254966, -32.897766 ], [ -71.255661, -32.898125 ], [ -71.256358, -32.898241 ], [ -71.257399, -32.901994 ], [ -71.257674, -32.902288 ], [ -71.258925, -32.901747 ], [ -71.259779, -32.903249 ], [ -71.262431, -32.902116 ], [ -71.263035, -32.903727 ], [ -71.268586, -32.901274 ], [ -71.266567, -32.89861 ], [ -71.272201, -32.894608 ], [ -71.269942, -32.891565 ], [ -71.269102, -32.89205 ], [ -71.268367, -32.891557 ], [ -71.267447, -32.892031 ], [ -71.266682, -32.891472 ], [ -71.2652, -32.892273 ], [ -71.264739, -32.891775 ], [ -71.264735, -32.891599 ], [ -71.264874, -32.891395 ], [ -71.269048, -32.888815 ], [ -71.267601, -32.887287 ], [ -71.267885, -32.887111 ], [ -71.267172, -32.886356 ], [ -71.268406, -32.885438 ], [ -71.267954, -32.884447 ], [ -71.266456, -32.885437 ], [ -71.266017, -32.884963 ], [ -71.266579, -32.884612 ], [ -71.265664, -32.883421 ], [ -71.265945, -32.883264 ], [ -71.265817, -32.883053 ], [ -71.266302, -32.882795 ], [ -71.2662, -32.882597 ], [ -71.26661, -32.882405 ], [ -71.26622, -32.88187 ], [ -71.266635, -32.881698 ], [ -71.264916, -32.8787 ], [ -71.264278, -32.877796 ], [ -71.263913, -32.877612 ], [ -71.260838, -32.878862 ], [ -71.257827, -32.87416 ], [ -71.257471, -32.874285 ], [ -71.257356, -32.873818 ], [ -71.257186, -32.873605 ], [ -71.256755, -32.873292 ], [ -71.256539, -32.872791 ], [ -71.255914, -32.872771 ], [ -71.255586, -32.873314 ], [ -71.254917, -32.873294 ], [ -71.254625, -32.873372 ], [ -71.254593, -32.873085 ], [ -71.253726, -32.872771 ], [ -71.253484, -32.872611 ], [ -71.253267, -32.872316 ], [ -71.252485, -32.871971 ], [ -71.252035, -32.871869 ], [ -71.251386, -32.871857 ], [ -71.25062, -32.871375 ], [ -71.250455, -32.871405 ], [ -71.250176, -32.871178 ], [ -71.249913, -32.871353 ], [ -71.249074, -32.871307 ], [ -71.248977, -32.87115 ], [ -71.247431, -32.871708 ], [ -71.246812, -32.871811 ], [ -71.246424, -32.871312 ], [ -71.246339, -32.871094 ], [ -71.246037, -32.871185 ], [ -71.245902, -32.870944 ], [ -71.24613, -32.870818 ], [ -71.245285, -32.869401 ], [ -71.243482, -32.870067 ], [ -71.243315, -32.870003 ], [ -71.243143, -32.870049 ], [ -71.243074, -32.869897 ], [ -71.243266, -32.869809 ], [ -71.243124, -32.869586 ], [ -71.243281, -32.869528 ], [ -71.242937, -32.868779 ], [ -71.24273, -32.868843 ], [ -71.242443, -32.868282 ], [ -71.242884, -32.868109 ], [ -71.243024, -32.867906 ], [ -71.242927, -32.86781 ], [ -71.244273, -32.86706 ], [ -71.244624, -32.86695 ], [ -71.244644, -32.866871 ], [ -71.244382, -32.866498 ], [ -71.24393, -32.866317 ], [ -71.243503, -32.866306 ], [ -71.241881, -32.867256 ], [ -71.241716, -32.866759 ], [ -71.241191, -32.866829 ], [ -71.241212, -32.867091 ], [ -71.240909, -32.867115 ], [ -71.240388, -32.864473 ], [ -71.240343, -32.864106 ], [ -71.240581, -32.864092 ], [ -71.240386, -32.863547 ], [ -71.24012, -32.86357 ], [ -71.240093, -32.863375 ], [ -71.239238, -32.863549 ], [ -71.239208, -32.863202 ], [ -71.239107, -32.86321 ], [ -71.239067, -32.862772 ], [ -71.238769, -32.862794 ], [ -71.238784, -32.862668 ], [ -71.23843, -32.862692 ], [ -71.238419, -32.86257 ], [ -71.237751, -32.86268 ], [ -71.237547, -32.862348 ], [ -71.237503, -32.861752 ], [ -71.237603, -32.861695 ], [ -71.237573, -32.861614 ], [ -71.238839, -32.861441 ], [ -71.238717, -32.861212 ], [ -71.237502, -32.86141 ], [ -71.23745, -32.861082 ], [ -71.237658, -32.861011 ], [ -71.237578, -32.86069 ], [ -71.237241, -32.860519 ], [ -71.237179, -32.860344 ], [ -71.239119, -32.859943 ], [ -71.238549, -32.85854 ], [ -71.238701, -32.85825 ], [ -71.238311, -32.857386 ], [ -71.23582, -32.857919 ], [ -71.235365, -32.856714 ], [ -71.230976, -32.857999 ], [ -71.232891, -32.86236 ], [ -71.232374, -32.862513 ] ] ] } },
{ "type": "Feature", "properties": { "objectid": 194, "comuna": "Casablanca", "st_area_sh": 402100.64684300002, "st_length_": 4018.5785335700002, "Localidad": "Quintay", "Entidad": "Pueblo" }, "geometry": { "type": "Polygon", "coordinates": [ [ [ -71.698954, -33.192915 ], [ -71.698697, -33.192718 ], [ -71.698358, -33.192648 ], [ -71.698113, -33.192384 ], [ -71.698525, -33.191987 ], [ -71.695073, -33.190314 ], [ -71.694997, -33.190918 ], [ -71.695554, -33.191098 ], [ -71.696044, -33.191547 ], [ -71.695954, -33.192281 ], [ -71.695437, -33.192466 ], [ -71.694982, -33.192915 ], [ -71.694627, -33.192694 ], [ -71.694214, -33.19306 ], [ -71.694354, -33.193725 ], [ -71.694306, -33.193877 ], [ -71.694091, -33.194024 ], [ -71.69177, -33.19682 ], [ -71.69408, -33.196689 ], [ -71.69589, -33.196438 ], [ -71.696074, -33.196537 ], [ -71.696198, -33.197053 ], [ -71.696605, -33.197064 ], [ -71.697019, -33.196785 ], [ -71.697166, -33.196513 ], [ -71.697206, -33.196217 ], [ -71.697377, -33.196001 ], [ -71.69817, -33.195645 ], [ -71.698741, -33.195518 ], [ -71.699501, -33.19506 ], [ -71.699909, -33.194362 ], [ -71.700321, -33.194126 ], [ -71.701512, -33.193185 ], [ -71.702122, -33.193547 ], [ -71.702683, -33.193764 ], [ -71.702649, -33.193574 ], [ -71.702737, -33.193101 ], [ -71.702232, -33.192895 ], [ -71.701154, -33.193026 ], [ -71.700768, -33.193455 ], [ -71.700395, -33.193605 ], [ -71.699977, -33.193905 ], [ -71.699464, -33.193859 ], [ -71.699265, -33.19369 ], [ -71.698954, -33.192915 ] ] ] } },
{ "type": "Feature", "properties": { "objectid": 236, "comuna": "Villa Alemana", "st_area_sh": 27810051.213300001, "st_length_": 44219.4018822, "Localidad": "Villa Alemana", "Entidad": "Ciudad" }, "geometry": { "type": "Polygon", "coordinates": [ [ [ -71.352345, -33.034697 ], [ -71.352141, -33.034349 ], [ -71.351831, -33.034245 ], [ -71.351907, -33.03395 ], [ -71.351781, -33.033929 ], [ -71.351594, -33.034262 ], [ -71.351273, -33.034403 ], [ -71.35, -33.034391 ], [ -71.349627, -33.034516 ], [ -71.348055, -33.036261 ], [ -71.34767, -33.036468 ], [ -71.347466, -33.036672 ], [ -71.347183, -33.037065 ], [ -71.346991, -33.037606 ], [ -71.346617, -33.037488 ], [ -71.345901, -33.037262 ], [ -71.345763, -33.037508 ], [ -71.346272, -33.037881 ], [ -71.344567, -33.040493 ], [ -71.342831, -33.042371 ], [ -71.342531, -33.042623 ], [ -71.341322, -33.043345 ], [ -71.340715, -33.043615 ], [ -71.339391, -33.043652 ], [ -71.339227, -33.043746 ], [ -71.33929, -33.043757 ], [ -71.338857, -33.043901 ], [ -71.338896, -33.044108 ], [ -71.339072, -33.044257 ], [ -71.339236, -33.045182 ], [ -71.339461, -33.045745 ], [ -71.339042, -33.04571 ], [ -71.338567, -33.045159 ], [ -71.33823, -33.044971 ], [ -71.337947, -33.044912 ], [ -71.333631, -33.049841 ], [ -71.332633, -33.050711 ], [ -71.332379, -33.051052 ], [ -71.33205, -33.051281 ], [ -71.332919, -33.052275 ], [ -71.334322, -33.053571 ], [ -71.334993, -33.053966 ], [ -71.335346, -33.054275 ], [ -71.337335, -33.055428 ], [ -71.336651, -33.056933 ], [ -71.336544, -33.056933 ], [ -71.335802, -33.056116 ], [ -71.334247, -33.054814 ], [ -71.331823, -33.057011 ], [ -71.333695, -33.058544 ], [ -71.333566, -33.059255 ], [ -71.334175, -33.059868 ], [ -71.334624, -33.060127 ], [ -71.335256, -33.06034 ], [ -71.335931, -33.060417 ], [ -71.336297, -33.060358 ], [ -71.336431, -33.060666 ], [ -71.338712, -33.06032 ], [ -71.3384, -33.059388 ], [ -71.338205, -33.058148 ], [ -71.337363, -33.058164 ], [ -71.337266, -33.057437 ], [ -71.336944, -33.056727 ], [ -71.337493, -33.055514 ], [ -71.338491, -33.056061 ], [ -71.340338, -33.057307 ], [ -71.342988, -33.059872 ], [ -71.343128, -33.056191 ], [ -71.345222, -33.055958 ], [ -71.349177, -33.055347 ], [ -71.349208, -33.055502 ], [ -71.348644, -33.056064 ], [ -71.348365, -33.05661 ], [ -71.348259, -33.057364 ], [ -71.347664, -33.058609 ], [ -71.345246, -33.061599 ], [ -71.349451, -33.06387 ], [ -71.351109, -33.065343 ], [ -71.353039, -33.060782 ], [ -71.353733, -33.060643 ], [ -71.354409, -33.060737 ], [ -71.354748, -33.060906 ], [ -71.355684, -33.061622 ], [ -71.356939, -33.062354 ], [ -71.35833, -33.063539 ], [ -71.355969, -33.064798 ], [ -71.356413, -33.065113 ], [ -71.356944, -33.064887 ], [ -71.357026, -33.06508 ], [ -71.358941, -33.064056 ], [ -71.360176, -33.064882 ], [ -71.357941, -33.065973 ], [ -71.358311, -33.066551 ], [ -71.360636, -33.065388 ], [ -71.360924, -33.065853 ], [ -71.361284, -33.066154 ], [ -71.362763, -33.066709 ], [ -71.364003, -33.067351 ], [ -71.364419, -33.067819 ], [ -71.364747, -33.068373 ], [ -71.364882, -33.068744 ], [ -71.364921, -33.069131 ], [ -71.36612, -33.069024 ], [ -71.366103, -33.068705 ], [ -71.366195, -33.068394 ], [ -71.36669, -33.067751 ], [ -71.36752, -33.067192 ], [ -71.368497, -33.066135 ], [ -71.368836, -33.065993 ], [ -71.368917, -33.066058 ], [ -71.368435, -33.066491 ], [ -71.367899, -33.067147 ], [ -71.366848, -33.067866 ], [ -71.366606, -33.068349 ], [ -71.366701, -33.068624 ], [ -71.367153, -33.068749 ], [ -71.367714, -33.068737 ], [ -71.368211, -33.068595 ], [ -71.368537, -33.068325 ], [ -71.369334, -33.068263 ], [ -71.370438, -33.067837 ], [ -71.370728, -33.067801 ], [ -71.371081, -33.067883 ], [ -71.371276, -33.067745 ], [ -71.371256, -33.067559 ], [ -71.371343, -33.067388 ], [ -71.371841, -33.068123 ], [ -71.373389, -33.068322 ], [ -71.377224, -33.068011 ], [ -71.377187, -33.067743 ], [ -71.377445, -33.067106 ], [ -71.377991, -33.066452 ], [ -71.378317, -33.06555 ], [ -71.378468, -33.06464 ], [ -71.378701, -33.063982 ], [ -71.378877, -33.063067 ], [ -71.380308, -33.063219 ], [ -71.379604, -33.062167 ], [ -71.380531, -33.062181 ], [ -71.380187, -33.061502 ], [ -71.380587, -33.061463 ], [ -71.380566, -33.061158 ], [ -71.380892, -33.061172 ], [ -71.381026, -33.061507 ], [ -71.381053, -33.062034 ], [ -71.381346, -33.062682 ], [ -71.381365, -33.062935 ], [ -71.381856, -33.063969 ], [ -71.382111, -33.064123 ], [ -71.382119, -33.063918 ], [ -71.387079, -33.06381 ], [ -71.387041, -33.064234 ], [ -71.387195, -33.064378 ], [ -71.387835, -33.064398 ], [ -71.387908, -33.064059 ], [ -71.387987, -33.066981 ], [ -71.390301, -33.066788 ], [ -71.390297, -33.066445 ], [ -71.390401, -33.066114 ], [ -71.390223, -33.06334 ], [ -71.392337, -33.063268 ], [ -71.392405, -33.064869 ], [ -71.392368, -33.065355 ], [ -71.392154, -33.065781 ], [ -71.392305, -33.066328 ], [ -71.394857, -33.066161 ], [ -71.399902, -33.065421 ], [ -71.399186, -33.055175 ], [ -71.398765, -33.051657 ], [ -71.398276, -33.045977 ], [ -71.398574, -33.045946 ], [ -71.399308, -33.045583 ], [ -71.399096, -33.034721 ], [ -71.39926, -33.034649 ], [ -71.399321, -33.033001 ], [ -71.398272, -33.033043 ], [ -71.397758, -33.033394 ], [ -71.397754, -33.033535 ], [ -71.394503, -33.033564 ], [ -71.394383, -33.030838 ], [ -71.394414, -33.029778 ], [ -71.394097, -33.029684 ], [ -71.392982, -33.029618 ], [ -71.392354, -33.029461 ], [ -71.391638, -33.029408 ], [ -71.391705, -33.026566 ], [ -71.391597, -33.02592 ], [ -71.391339, -33.025421 ], [ -71.390501, -33.024467 ], [ -71.390073, -33.023836 ], [ -71.38963, -33.023389 ], [ -71.389411, -33.023303 ], [ -71.389385, -33.022484 ], [ -71.389548, -33.0219 ], [ -71.390352, -33.021389 ], [ -71.390848, -33.020819 ], [ -71.390829, -33.020109 ], [ -71.39114, -33.01838 ], [ -71.390748, -33.018064 ], [ -71.3894, -33.017379 ], [ -71.388556, -33.017374 ], [ -71.387103, -33.017509 ], [ -71.386725, -33.017732 ], [ -71.386518, -33.018576 ], [ -71.386545, -33.019566 ], [ -71.386643, -33.020383 ], [ -71.386881, -33.020658 ], [ -71.386839, -33.021166 ], [ -71.386074, -33.02184 ], [ -71.385997, -33.02224 ], [ -71.386969, -33.02673 ], [ -71.389467, -33.027017 ], [ -71.38957, -33.027885 ], [ -71.389994, -33.027888 ], [ -71.390069, -33.033156 ], [ -71.390177, -33.033422 ], [ -71.389975, -33.033704 ], [ -71.389405, -33.033641 ], [ -71.388743, -33.033761 ], [ -71.388349, -33.033381 ], [ -71.385445, -33.032834 ], [ -71.38549, -33.033544 ], [ -71.383601, -33.033688 ], [ -71.383717, -33.036098 ], [ -71.38413, -33.036241 ], [ -71.384795, -33.036249 ], [ -71.38511, -33.036523 ], [ -71.385724, -33.036533 ], [ -71.386033, -33.036635 ], [ -71.386033, -33.036934 ], [ -71.383895, -33.036975 ], [ -71.383874, -33.036881 ], [ -71.383665, -33.036749 ], [ -71.383279, -33.036706 ], [ -71.38289, -33.0369 ], [ -71.382834, -33.037719 ], [ -71.381873, -33.037594 ], [ -71.381805, -33.036864 ], [ -71.381547, -33.036586 ], [ -71.381378, -33.035678 ], [ -71.380857, -33.035079 ], [ -71.380671, -33.035099 ], [ -71.380733, -33.034816 ], [ -71.38145, -33.034504 ], [ -71.381312, -33.033193 ], [ -71.38037, -33.033362 ], [ -71.380312, -33.033874 ], [ -71.378517, -33.034025 ], [ -71.37877, -33.032428 ], [ -71.377714, -33.032722 ], [ -71.377408, -33.032376 ], [ -71.377263, -33.031525 ], [ -71.376213, -33.027772 ], [ -71.375844, -33.027679 ], [ -71.375389, -33.027741 ], [ -71.375135, -33.027977 ], [ -71.375101, -33.028294 ], [ -71.375352, -33.028739 ], [ -71.375213, -33.028917 ], [ -71.37496, -33.028936 ], [ -71.374953, -33.02917 ], [ -71.375055, -33.029388 ], [ -71.37531, -33.029586 ], [ -71.376012, -33.029574 ], [ -71.376239, -33.029686 ], [ -71.376445, -33.029932 ], [ -71.376545, -33.030395 ], [ -71.376347, -33.030825 ], [ -71.376306, -33.031141 ], [ -71.37654, -33.031789 ], [ -71.376348, -33.032058 ], [ -71.376031, -33.032185 ], [ -71.375654, -33.032134 ], [ -71.375265, -33.031832 ], [ -71.375008, -33.03174 ], [ -71.374868, -33.031729 ], [ -71.374668, -33.031986 ], [ -71.374569, -33.032281 ], [ -71.374578, -33.032587 ], [ -71.374947, -33.033316 ], [ -71.375102, -33.034216 ], [ -71.374303, -33.034395 ], [ -71.373168, -33.034514 ], [ -71.372695, -33.033169 ], [ -71.371965, -33.032597 ], [ -71.371704, -33.032507 ], [ -71.371408, -33.032514 ], [ -71.370886, -33.032807 ], [ -71.370761, -33.033127 ], [ -71.371253, -33.033778 ], [ -71.371741, -33.034785 ], [ -71.370515, -33.03503 ], [ -71.369935, -33.034905 ], [ -71.369479, -33.03471 ], [ -71.368653, -33.03462 ], [ -71.367724, -33.034299 ], [ -71.366836, -33.034173 ], [ -71.366698, -33.033629 ], [ -71.366495, -33.033216 ], [ -71.366157, -33.033146 ], [ -71.364067, -33.033671 ], [ -71.364057, -33.0338 ], [ -71.36417, -33.03393 ], [ -71.364551, -33.035074 ], [ -71.365021, -33.036006 ], [ -71.36494, -33.036091 ], [ -71.363835, -33.036016 ], [ -71.363462, -33.034733 ], [ -71.363184, -33.034089 ], [ -71.363041, -33.033996 ], [ -71.362735, -33.034024 ], [ -71.361767, -33.034832 ], [ -71.361422, -33.034537 ], [ -71.360989, -33.034545 ], [ -71.360335, -33.035295 ], [ -71.359601, -33.03544 ], [ -71.359563, -33.034597 ], [ -71.358672, -33.034657 ], [ -71.358301, -33.033301 ], [ -71.357324, -33.033307 ], [ -71.357617, -33.035922 ], [ -71.357186, -33.035966 ], [ -71.35738, -33.037289 ], [ -71.356287, -33.036884 ], [ -71.355725, -33.036134 ], [ -71.355399, -33.035941 ], [ -71.354823, -33.035787 ], [ -71.354504, -33.032726 ], [ -71.35399, -33.032556 ], [ -71.35307, -33.033051 ], [ -71.353248, -33.034536 ], [ -71.353183, -33.034713 ], [ -71.352555, -33.034814 ], [ -71.352345, -33.034697 ] ], [ [ -71.339762, -33.043786 ], [ -71.339749, -33.043787 ], [ -71.339695, -33.043787 ], [ -71.339762, -33.043786 ] ], [ [ -71.339644, -33.043788 ], [ -71.339629, -33.043788 ], [ -71.339578, -33.043785 ], [ -71.339644, -33.043788 ] ] ] } },
{ "type": "Feature", "properties": { "objectid": 250, "comuna": "Concón", "st_area_sh": 13740852.875800001, "st_length_": 32758.386500799999, "Localidad": "Concón", "Entidad": "Ciudad" }, "geometry": { "type": "Polygon", "coordinates": [ [ [ -71.545757, -32.946408 ], [ -71.546737, -32.943774 ], [ -71.546941, -32.942902 ], [ -71.546649, -32.938712 ], [ -71.546506, -32.938188 ], [ -71.546093, -32.937472 ], [ -71.548208, -32.936378 ], [ -71.548306, -32.936213 ], [ -71.549704, -32.935818 ], [ -71.549541, -32.935511 ], [ -71.549545, -32.935175 ], [ -71.549912, -32.934495 ], [ -71.550031, -32.933696 ], [ -71.55034, -32.932926 ], [ -71.550367, -32.932128 ], [ -71.550275, -32.931493 ], [ -71.550367, -32.930741 ], [ -71.550653, -32.930293 ], [ -71.550781, -32.929899 ], [ -71.551178, -32.929446 ], [ -71.551028, -32.929131 ], [ -71.551132, -32.92878 ], [ -71.550166, -32.928361 ], [ -71.54911, -32.928143 ], [ -71.548432, -32.928157 ], [ -71.547807, -32.928413 ], [ -71.547513, -32.928451 ], [ -71.545522, -32.92823 ], [ -71.544972, -32.927495 ], [ -71.54387, -32.927373 ], [ -71.543009, -32.927595 ], [ -71.542238, -32.927985 ], [ -71.542024, -32.928405 ], [ -71.54191, -32.928968 ], [ -71.541237, -32.929378 ], [ -71.540394, -32.929625 ], [ -71.539434, -32.929771 ], [ -71.539191, -32.929953 ], [ -71.539097, -32.930269 ], [ -71.538948, -32.930343 ], [ -71.536771, -32.931085 ], [ -71.5354, -32.931152 ], [ -71.532936, -32.930433 ], [ -71.531757, -32.929691 ], [ -71.530316, -32.928323 ], [ -71.528645, -32.92744 ], [ -71.528069, -32.927043 ], [ -71.526715, -32.925877 ], [ -71.526596, -32.925606 ], [ -71.52656, -32.925058 ], [ -71.526284, -32.924642 ], [ -71.525918, -32.924406 ], [ -71.525557, -32.924507 ], [ -71.525198, -32.92442 ], [ -71.524063, -32.923252 ], [ -71.523699, -32.920376 ], [ -71.523404, -32.919687 ], [ -71.523247, -32.918744 ], [ -71.522906, -32.918432 ], [ -71.522518, -32.918293 ], [ -71.519759, -32.918295 ], [ -71.519381, -32.918181 ], [ -71.518981, -32.918203 ], [ -71.518458, -32.918505 ], [ -71.517771, -32.919572 ], [ -71.515602, -32.920209 ], [ -71.514177, -32.920334 ], [ -71.513191, -32.919824 ], [ -71.511347, -32.919282 ], [ -71.510145, -32.91921 ], [ -71.509123, -32.919472 ], [ -71.505279, -32.921444 ], [ -71.504054, -32.922228 ], [ -71.502843, -32.923234 ], [ -71.502041, -32.923636 ], [ -71.500719, -32.924021 ], [ -71.498251, -32.924059 ], [ -71.495538, -32.924632 ], [ -71.492338, -32.925481 ], [ -71.49224, -32.92481 ], [ -71.491273, -32.925051 ], [ -71.490097, -32.925068 ], [ -71.489421, -32.924464 ], [ -71.488647, -32.924113 ], [ -71.487463, -32.923873 ], [ -71.486418, -32.923878 ], [ -71.485183, -32.924112 ], [ -71.485747, -32.925817 ], [ -71.482273, -32.926553 ], [ -71.481222, -32.923305 ], [ -71.481035, -32.923057 ], [ -71.480558, -32.922858 ], [ -71.479962, -32.922882 ], [ -71.479522, -32.923104 ], [ -71.479067, -32.923593 ], [ -71.478681, -32.923469 ], [ -71.478218, -32.923152 ], [ -71.47785, -32.923134 ], [ -71.477582, -32.923263 ], [ -71.477428, -32.923487 ], [ -71.476717, -32.924019 ], [ -71.475414, -32.924699 ], [ -71.474899, -32.925227 ], [ -71.474728, -32.925592 ], [ -71.475351, -32.927807 ], [ -71.474149, -32.929172 ], [ -71.47179, -32.929258 ], [ -71.471236, -32.931162 ], [ -71.470168, -32.931439 ], [ -71.470129, -32.931557 ], [ -71.470197, -32.931975 ], [ -71.470616, -32.932436 ], [ -71.472976, -32.931979 ], [ -71.475025, -32.931401 ], [ -71.475654, -32.931108 ], [ -71.476088, -32.93079 ], [ -71.477477, -32.929014 ], [ -71.478259, -32.928322 ], [ -71.478971, -32.927847 ], [ -71.480013, -32.92734 ], [ -71.481963, -32.927235 ], [ -71.482353, -32.929661 ], [ -71.486264, -32.929521 ], [ -71.488109, -32.929111 ], [ -71.491287, -32.928565 ], [ -71.492127, -32.931321 ], [ -71.493058, -32.931002 ], [ -71.495081, -32.930484 ], [ -71.497358, -32.930153 ], [ -71.498484, -32.931301 ], [ -71.499359, -32.931958 ], [ -71.499518, -32.932525 ], [ -71.499118, -32.935578 ], [ -71.501753, -32.935766 ], [ -71.502169, -32.934235 ], [ -71.502325, -32.933026 ], [ -71.504518, -32.932432 ], [ -71.50535, -32.932059 ], [ -71.505002, -32.931337 ], [ -71.505702, -32.930475 ], [ -71.505933, -32.929524 ], [ -71.506951, -32.929149 ], [ -71.507905, -32.929814 ], [ -71.508877, -32.930346 ], [ -71.50926, -32.930425 ], [ -71.509647, -32.930361 ], [ -71.510691, -32.932256 ], [ -71.511367, -32.932564 ], [ -71.511501, -32.932239 ], [ -71.51045, -32.930452 ], [ -71.511361, -32.93006 ], [ -71.509707, -32.928245 ], [ -71.507937, -32.928458 ], [ -71.506786, -32.9258 ], [ -71.510193, -32.928058 ], [ -71.511328, -32.928689 ], [ -71.511975, -32.929486 ], [ -71.512316, -32.930362 ], [ -71.512818, -32.93027 ], [ -71.513485, -32.932253 ], [ -71.514609, -32.93358 ], [ -71.516793, -32.934826 ], [ -71.51706, -32.935705 ], [ -71.517443, -32.936391 ], [ -71.517844, -32.937339 ], [ -71.519321, -32.939816 ], [ -71.517931, -32.94023 ], [ -71.517811, -32.940611 ], [ -71.517889, -32.940934 ], [ -71.518273, -32.941541 ], [ -71.518216, -32.942159 ], [ -71.518335, -32.942217 ], [ -71.51864, -32.942175 ], [ -71.518884, -32.942273 ], [ -71.518901, -32.942681 ], [ -71.519258, -32.943141 ], [ -71.522049, -32.942671 ], [ -71.523737, -32.942309 ], [ -71.524697, -32.942005 ], [ -71.526093, -32.941764 ], [ -71.526017, -32.942436 ], [ -71.528152, -32.942111 ], [ -71.530383, -32.942166 ], [ -71.53281, -32.943006 ], [ -71.532301, -32.943435 ], [ -71.532152, -32.943666 ], [ -71.531773, -32.944739 ], [ -71.531365, -32.944796 ], [ -71.531343, -32.944879 ], [ -71.531318, -32.945216 ], [ -71.531822, -32.947562 ], [ -71.533325, -32.947599 ], [ -71.534535, -32.947504 ], [ -71.536178, -32.94769 ], [ -71.537717, -32.947473 ], [ -71.538854, -32.94771 ], [ -71.538865, -32.948734 ], [ -71.538574, -32.950153 ], [ -71.538079, -32.950224 ], [ -71.537554, -32.9501 ], [ -71.536263, -32.950061 ], [ -71.536232, -32.949416 ], [ -71.535299, -32.949413 ], [ -71.535306, -32.950091 ], [ -71.533697, -32.950124 ], [ -71.533585, -32.951025 ], [ -71.533912, -32.952582 ], [ -71.53887, -32.951206 ], [ -71.542548, -32.949133 ], [ -71.545757, -32.946408 ] ] ] } },
{ "type": "Feature", "properties": { "objectid": 216, "comuna": "La Cruz", "st_area_sh": 4070279.9620300001, "st_length_": 19219.737297, "Localidad": "La Cruz", "Entidad": "Ciudad" }, "geometry": { "type": "Polygon", "coordinates": [ [ [ -71.236733, -32.854626 ], [ -71.236687, -32.853808 ], [ -71.236813, -32.853763 ], [ -71.236886, -32.853622 ], [ -71.236737, -32.85328 ], [ -71.236866, -32.852595 ], [ -71.236613, -32.85242 ], [ -71.234219, -32.852926 ], [ -71.23396, -32.851522 ], [ -71.234673, -32.851378 ], [ -71.234533, -32.850885 ], [ -71.234048, -32.850872 ], [ -71.233965, -32.850626 ], [ -71.234384, -32.850522 ], [ -71.23435, -32.850199 ], [ -71.234128, -32.849988 ], [ -71.233836, -32.850058 ], [ -71.23371, -32.849586 ], [ -71.234547, -32.849409 ], [ -71.234381, -32.848885 ], [ -71.236027, -32.84852 ], [ -71.236067, -32.84795 ], [ -71.235852, -32.846984 ], [ -71.235881, -32.846607 ], [ -71.235373, -32.846713 ], [ -71.235115, -32.845587 ], [ -71.233985, -32.845811 ], [ -71.233607, -32.845484 ], [ -71.233381, -32.845628 ], [ -71.23298, -32.844892 ], [ -71.233066, -32.844783 ], [ -71.233395, -32.84467 ], [ -71.233364, -32.844444 ], [ -71.233057, -32.844396 ], [ -71.233189, -32.843069 ], [ -71.233237, -32.842949 ], [ -71.233565, -32.842803 ], [ -71.233795, -32.842788 ], [ -71.23405, -32.842288 ], [ -71.234124, -32.841673 ], [ -71.233833, -32.841668 ], [ -71.234241, -32.840252 ], [ -71.234551, -32.839878 ], [ -71.234696, -32.839552 ], [ -71.234661, -32.838894 ], [ -71.237451, -32.838878 ], [ -71.237376, -32.837214 ], [ -71.236464, -32.837302 ], [ -71.236066, -32.837212 ], [ -71.235479, -32.837201 ], [ -71.234524, -32.837272 ], [ -71.23447, -32.83667 ], [ -71.234553, -32.836399 ], [ -71.231648, -32.836654 ], [ -71.228916, -32.837346 ], [ -71.228383, -32.836584 ], [ -71.228191, -32.836049 ], [ -71.228477, -32.833718 ], [ -71.228869, -32.833571 ], [ -71.228861, -32.831658 ], [ -71.230803, -32.831376 ], [ -71.232175, -32.831021 ], [ -71.233121, -32.830879 ], [ -71.232442, -32.829255 ], [ -71.231193, -32.829588 ], [ -71.230984, -32.82887 ], [ -71.23072, -32.828519 ], [ -71.230539, -32.828436 ], [ -71.228528, -32.828869 ], [ -71.228105, -32.827826 ], [ -71.229253, -32.827533 ], [ -71.228764, -32.826557 ], [ -71.227971, -32.825714 ], [ -71.228513, -32.825435 ], [ -71.22825, -32.825117 ], [ -71.22707, -32.825993 ], [ -71.226852, -32.825001 ], [ -71.227488, -32.82445 ], [ -71.229366, -32.822511 ], [ -71.230482, -32.823839 ], [ -71.230626, -32.823728 ], [ -71.230558, -32.823342 ], [ -71.230008, -32.8225 ], [ -71.230769, -32.822099 ], [ -71.230684, -32.8218 ], [ -71.234116, -32.820617 ], [ -71.235632, -32.819936 ], [ -71.234826, -32.81854 ], [ -71.23457, -32.817959 ], [ -71.23375, -32.817136 ], [ -71.233532, -32.816673 ], [ -71.231682, -32.817527 ], [ -71.230316, -32.818262 ], [ -71.228642, -32.816311 ], [ -71.224279, -32.818682 ], [ -71.22493, -32.819889 ], [ -71.225781, -32.821005 ], [ -71.225822, -32.821651 ], [ -71.224118, -32.821761 ], [ -71.224058, -32.822327 ], [ -71.22398, -32.827042 ], [ -71.224246, -32.82777 ], [ -71.225148, -32.829685 ], [ -71.225349, -32.830358 ], [ -71.225419, -32.830636 ], [ -71.225387, -32.831027 ], [ -71.225264, -32.831445 ], [ -71.225053, -32.831734 ], [ -71.22501, -32.832134 ], [ -71.225114, -32.832444 ], [ -71.225484, -32.832966 ], [ -71.22566, -32.833387 ], [ -71.224093, -32.833882 ], [ -71.224342, -32.835936 ], [ -71.226258, -32.835423 ], [ -71.226318, -32.836016 ], [ -71.226526, -32.836281 ], [ -71.226906, -32.836522 ], [ -71.226997, -32.837165 ], [ -71.22736, -32.837647 ], [ -71.224782, -32.838313 ], [ -71.225314, -32.842709 ], [ -71.225803, -32.84516 ], [ -71.227262, -32.844805 ], [ -71.2271, -32.846456 ], [ -71.22747, -32.848059 ], [ -71.226548, -32.848421 ], [ -71.227907, -32.851217 ], [ -71.229483, -32.854805 ], [ -71.228312, -32.855014 ], [ -71.229357, -32.857962 ], [ -71.23025, -32.858145 ], [ -71.230935, -32.858011 ], [ -71.235365, -32.856714 ], [ -71.234996, -32.855652 ], [ -71.237, -32.855011 ], [ -71.236733, -32.854626 ] ] ] } },
{ "type": "Feature", "properties": { "objectid": 215, "comuna": "Hijuelas", "st_area_sh": 695478.345401, "st_length_": 5603.8177264799997, "Localidad": "Hijuelas", "Entidad": "Ciudad" }, "geometry": { "type": "Polygon", "coordinates": [ [ [ -71.146076, -32.798662 ], [ -71.149207, -32.800313 ], [ -71.149218, -32.799675 ], [ -71.148496, -32.799135 ], [ -71.148243, -32.798735 ], [ -71.14814, -32.798372 ], [ -71.147643, -32.798101 ], [ -71.148153, -32.797253 ], [ -71.14762, -32.79659 ], [ -71.147918, -32.795757 ], [ -71.148926, -32.796333 ], [ -71.149104, -32.796016 ], [ -71.148045, -32.795519 ], [ -71.148511, -32.794526 ], [ -71.148042, -32.794321 ], [ -71.147526, -32.795427 ], [ -71.145416, -32.794243 ], [ -71.145394, -32.793578 ], [ -71.145251, -32.793138 ], [ -71.144137, -32.792306 ], [ -71.143939, -32.792481 ], [ -71.143803, -32.79276 ], [ -71.143846, -32.793437 ], [ -71.143673, -32.793765 ], [ -71.143734, -32.79423 ], [ -71.143653, -32.79481 ], [ -71.143319, -32.795603 ], [ -71.142825, -32.796354 ], [ -71.142818, -32.796577 ], [ -71.142919, -32.796783 ], [ -71.141893, -32.797242 ], [ -71.141419, -32.797314 ], [ -71.141035, -32.797274 ], [ -71.140685, -32.7975 ], [ -71.140413, -32.797793 ], [ -71.140208, -32.798223 ], [ -71.140164, -32.798592 ], [ -71.140223, -32.799009 ], [ -71.140364, -32.799297 ], [ -71.140665, -32.799592 ], [ -71.141876, -32.800224 ], [ -71.141883, -32.80054 ], [ -71.142687, -32.801192 ], [ -71.143417, -32.802607 ], [ -71.144611, -32.803115 ], [ -71.145616, -32.803666 ], [ -71.147572, -32.804506 ], [ -71.147841, -32.804109 ], [ -71.145631, -32.802899 ], [ -71.145993, -32.802283 ], [ -71.146076, -32.798662 ] ] ] } },
{ "type": "Feature", "properties": { "objectid": 228, "comuna": "La Calera", "st_area_sh": 12733563.003, "st_length_": 31406.631108400001, "Localidad": "La Calera", "Entidad": "Ciudad" }, "geometry": { "type": "Polygon", "coordinates": [ [ [ -71.216043, -32.799361 ], [ -71.226352, -32.794584 ], [ -71.228275, -32.793609 ], [ -71.226331, -32.791687 ], [ -71.225886, -32.791911 ], [ -71.224659, -32.790569 ], [ -71.223388, -32.791284 ], [ -71.222937, -32.791036 ], [ -71.223171, -32.790844 ], [ -71.223133, -32.790603 ], [ -71.223658, -32.790298 ], [ -71.222247, -32.789201 ], [ -71.221856, -32.789497 ], [ -71.22073, -32.78867 ], [ -71.221105, -32.788368 ], [ -71.218335, -32.786274 ], [ -71.215137, -32.784147 ], [ -71.21442, -32.783883 ], [ -71.213329, -32.783903 ], [ -71.212659, -32.78375 ], [ -71.212544, -32.782554 ], [ -71.2132, -32.781762 ], [ -71.210654, -32.780203 ], [ -71.209107, -32.780689 ], [ -71.206475, -32.781193 ], [ -71.203768, -32.781356 ], [ -71.202068, -32.781156 ], [ -71.201692, -32.781006 ], [ -71.194082, -32.780723 ], [ -71.194524, -32.77796 ], [ -71.197504, -32.777562 ], [ -71.199177, -32.777209 ], [ -71.201057, -32.776695 ], [ -71.201847, -32.776577 ], [ -71.202793, -32.776803 ], [ -71.203746, -32.776514 ], [ -71.204614, -32.776486 ], [ -71.205321, -32.77662 ], [ -71.206749, -32.777089 ], [ -71.207271, -32.777079 ], [ -71.207901, -32.776936 ], [ -71.208359, -32.776723 ], [ -71.208512, -32.776487 ], [ -71.208564, -32.776221 ], [ -71.208479, -32.775893 ], [ -71.2083, -32.77567 ], [ -71.207817, -32.77544 ], [ -71.206572, -32.774431 ], [ -71.206519, -32.774191 ], [ -71.206368, -32.773982 ], [ -71.205935, -32.773768 ], [ -71.204805, -32.773825 ], [ -71.203977, -32.774353 ], [ -71.203363, -32.774506 ], [ -71.202605, -32.774322 ], [ -71.202162, -32.774361 ], [ -71.201849, -32.774533 ], [ -71.200813, -32.775676 ], [ -71.199378, -32.775963 ], [ -71.198284, -32.773865 ], [ -71.196937, -32.774151 ], [ -71.195583, -32.774551 ], [ -71.193575, -32.774723 ], [ -71.19361, -32.772374 ], [ -71.195521, -32.771887 ], [ -71.197353, -32.77122 ], [ -71.19706, -32.7701 ], [ -71.199384, -32.769591 ], [ -71.200275, -32.769163 ], [ -71.199048, -32.766258 ], [ -71.198687, -32.765811 ], [ -71.198253, -32.765545 ], [ -71.195863, -32.764743 ], [ -71.194181, -32.763966 ], [ -71.193834, -32.765209 ], [ -71.18764, -32.764999 ], [ -71.187145, -32.76622 ], [ -71.186753, -32.767732 ], [ -71.186206, -32.76871 ], [ -71.18579, -32.769154 ], [ -71.184331, -32.772984 ], [ -71.184971, -32.774338 ], [ -71.179012, -32.779417 ], [ -71.179062, -32.77947 ], [ -71.174585, -32.783089 ], [ -71.174707, -32.783184 ], [ -71.170726, -32.786251 ], [ -71.172258, -32.7874 ], [ -71.169768, -32.788999 ], [ -71.17139, -32.790054 ], [ -71.172405, -32.790549 ], [ -71.173471, -32.790959 ], [ -71.178046, -32.791835 ], [ -71.179009, -32.789457 ], [ -71.177711, -32.787879 ], [ -71.176163, -32.78647 ], [ -71.177011, -32.785481 ], [ -71.177203, -32.785637 ], [ -71.177798, -32.785188 ], [ -71.177978, -32.785371 ], [ -71.181944, -32.782434 ], [ -71.186533, -32.779562 ], [ -71.188886, -32.778712 ], [ -71.19138, -32.778221 ], [ -71.190838, -32.781417 ], [ -71.189845, -32.78183 ], [ -71.188936, -32.782361 ], [ -71.187982, -32.783138 ], [ -71.183081, -32.786677 ], [ -71.182445, -32.787536 ], [ -71.180922, -32.790708 ], [ -71.180204, -32.792041 ], [ -71.18104, -32.792233 ], [ -71.182115, -32.792342 ], [ -71.183197, -32.792302 ], [ -71.184049, -32.792164 ], [ -71.184464, -32.792061 ], [ -71.187563, -32.790475 ], [ -71.188953, -32.790092 ], [ -71.189508, -32.790548 ], [ -71.190126, -32.791835 ], [ -71.190484, -32.792349 ], [ -71.190887, -32.792716 ], [ -71.191152, -32.793162 ], [ -71.191254, -32.793854 ], [ -71.191048, -32.794392 ], [ -71.190944, -32.795093 ], [ -71.190987, -32.795657 ], [ -71.191084, -32.795807 ], [ -71.191784, -32.796638 ], [ -71.193068, -32.797714 ], [ -71.193576, -32.797988 ], [ -71.194154, -32.798132 ], [ -71.196898, -32.795985 ], [ -71.19943, -32.793541 ], [ -71.20787, -32.798228 ], [ -71.215728, -32.802793 ], [ -71.217449, -32.804138 ], [ -71.218282, -32.805019 ], [ -71.220269, -32.804182 ], [ -71.219506, -32.802483 ], [ -71.218454, -32.801099 ], [ -71.217538, -32.800286 ], [ -71.216043, -32.799361 ] ] ] } },
{ "type": "Feature", "properties": { "objectid": 209, "comuna": "Nogales", "st_area_sh": 1564730.07482, "st_length_": 12156.0297804, "Localidad": "Nogales", "Entidad": "Ciudad" }, "geometry": { "type": "Polygon", "coordinates": [ [ [ -71.205887, -32.72659 ], [ -71.206253, -32.728514 ], [ -71.206216, -32.728837 ], [ -71.205828, -32.729339 ], [ -71.203711, -32.728229 ], [ -71.203524, -32.728098 ], [ -71.203299, -32.727738 ], [ -71.202981, -32.727528 ], [ -71.202796, -32.726064 ], [ -71.20225, -32.727717 ], [ -71.20036, -32.734305 ], [ -71.199179, -32.737938 ], [ -71.197835, -32.743761 ], [ -71.19726, -32.74375 ], [ -71.195749, -32.743378 ], [ -71.195183, -32.745962 ], [ -71.196321, -32.746231 ], [ -71.197497, -32.746317 ], [ -71.196885, -32.748524 ], [ -71.19709, -32.748548 ], [ -71.196687, -32.750129 ], [ -71.19535, -32.756824 ], [ -71.195379, -32.75744 ], [ -71.195694, -32.757446 ], [ -71.197135, -32.749723 ], [ -71.197453, -32.74892 ], [ -71.198993, -32.745767 ], [ -71.199742, -32.744409 ], [ -71.199963, -32.744355 ], [ -71.203404, -32.737718 ], [ -71.205806, -32.738307 ], [ -71.206168, -32.737447 ], [ -71.207066, -32.737801 ], [ -71.207118, -32.737571 ], [ -71.20656, -32.736978 ], [ -71.206206, -32.736726 ], [ -71.205588, -32.736425 ], [ -71.20482, -32.736305 ], [ -71.204677, -32.735795 ], [ -71.204835, -32.735317 ], [ -71.205688, -32.734131 ], [ -71.206254, -32.733536 ], [ -71.207241, -32.732698 ], [ -71.208324, -32.731341 ], [ -71.20879, -32.731132 ], [ -71.209231, -32.731113 ], [ -71.210459, -32.73159 ], [ -71.211223, -32.730682 ], [ -71.209167, -32.729739 ], [ -71.20985, -32.728417 ], [ -71.208652, -32.727965 ], [ -71.209142, -32.726888 ], [ -71.208085, -32.726362 ], [ -71.207935, -32.726195 ], [ -71.20792, -32.726027 ], [ -71.206862, -32.725441 ], [ -71.206294, -32.726189 ], [ -71.207233, -32.726595 ], [ -71.206889, -32.727121 ], [ -71.205887, -32.72659 ] ] ] } },
{ "type": "Feature", "properties": { "objectid": 12070, "comuna": "Nogales", "st_area_sh": 333582.380542, "st_length_": 3070.1936019899999, "Localidad": "El Polígono", "Entidad": "Villorrio" }, "geometry": { "type": "Polygon", "coordinates": [ [ [ -71.214528, -32.733554 ], [ -71.211575, -32.735105 ], [ -71.212142, -32.735904 ], [ -71.213075, -32.735516 ], [ -71.213694, -32.735786 ], [ -71.214083, -32.736779 ], [ -71.213161, -32.73714 ], [ -71.213461, -32.737921 ], [ -71.213916, -32.737784 ], [ -71.214004, -32.738256 ], [ -71.214574, -32.739129 ], [ -71.217364, -32.738078 ], [ -71.21767, -32.738569 ], [ -71.218165, -32.738506 ], [ -71.218223, -32.738289 ], [ -71.218056, -32.737872 ], [ -71.217292, -32.736379 ], [ -71.217588, -32.736276 ], [ -71.217532, -32.736161 ], [ -71.219051, -32.73569 ], [ -71.219112, -32.735603 ], [ -71.219034, -32.735529 ], [ -71.218269, -32.735488 ], [ -71.217713, -32.735175 ], [ -71.217464, -32.734889 ], [ -71.217208, -32.734839 ], [ -71.216058, -32.732862 ], [ -71.214528, -32.733554 ] ] ] } },
{ "type": "Feature", "properties": { "objectid": 208, "comuna": "Nogales", "st_area_sh": 2387254.7894199998, "st_length_": 9262.6739390399998, "Localidad": "El Melon", "Entidad": "Ciudad" }, "geometry": { "type": "Polygon", "coordinates": [ [ [ -71.212101, -32.696568 ], [ -71.21206, -32.697917 ], [ -71.212542, -32.697999 ], [ -71.212866, -32.697955 ], [ -71.213403, -32.697479 ], [ -71.21411, -32.697105 ], [ -71.21439, -32.696793 ], [ -71.214505, -32.696495 ], [ -71.214514, -32.696182 ], [ -71.21427, -32.695651 ], [ -71.214517, -32.694738 ], [ -71.214768, -32.692979 ], [ -71.214735, -32.692543 ], [ -71.214807, -32.69211 ], [ -71.215039, -32.691601 ], [ -71.215532, -32.691038 ], [ -71.215867, -32.690518 ], [ -71.216098, -32.689959 ], [ -71.2162, -32.689446 ], [ -71.21637, -32.689205 ], [ -71.216785, -32.689034 ], [ -71.217588, -32.689132 ], [ -71.21839, -32.689357 ], [ -71.219394, -32.689822 ], [ -71.219784, -32.689901 ], [ -71.220378, -32.689842 ], [ -71.220891, -32.689583 ], [ -71.221229, -32.689218 ], [ -71.221354, -32.688859 ], [ -71.22126, -32.688494 ], [ -71.220968, -32.688182 ], [ -71.220942, -32.687909 ], [ -71.22149, -32.687756 ], [ -71.222195, -32.68768 ], [ -71.222546, -32.687444 ], [ -71.222774, -32.687118 ], [ -71.222842, -32.68667 ], [ -71.222596, -32.686114 ], [ -71.222584, -32.685843 ], [ -71.222732, -32.685602 ], [ -71.223332, -32.685195 ], [ -71.223634, -32.683284 ], [ -71.223738, -32.683156 ], [ -71.223922, -32.683158 ], [ -71.224219, -32.683485 ], [ -71.226067, -32.684692 ], [ -71.227154, -32.682717 ], [ -71.224588, -32.681697 ], [ -71.224276, -32.681356 ], [ -71.22424, -32.680987 ], [ -71.224973, -32.677236 ], [ -71.220716, -32.677102 ], [ -71.219547, -32.677756 ], [ -71.218479, -32.678521 ], [ -71.218256, -32.67889 ], [ -71.2182, -32.679301 ], [ -71.21877, -32.680996 ], [ -71.218779, -32.681527 ], [ -71.218482, -32.682092 ], [ -71.217582, -32.682739 ], [ -71.217066, -32.683435 ], [ -71.216944, -32.683846 ], [ -71.217158, -32.684338 ], [ -71.21722, -32.68471 ], [ -71.210811, -32.683687 ], [ -71.210778, -32.683843 ], [ -71.210015, -32.683814 ], [ -71.208107, -32.693076 ], [ -71.20828, -32.69479 ], [ -71.208519, -32.695277 ], [ -71.209004, -32.695612 ], [ -71.210638, -32.695807 ], [ -71.211697, -32.696113 ], [ -71.212101, -32.696568 ] ] ] } },
{ "type": "Feature", "properties": { "objectid": 207, "comuna": "Llaillay", "st_area_sh": 3808810.1279199999, "st_length_": 16938.978687300001, "Localidad": "Llaillay", "Entidad": "Ciudad" }, "geometry": { "type": "Polygon", "coordinates": [ [ [ -70.96383, -32.842878 ], [ -70.983662, -32.841986 ], [ -70.982892, -32.840128 ], [ -70.976356, -32.840166 ], [ -70.974853, -32.838019 ], [ -70.974574, -32.837856 ], [ -70.974462, -32.8376 ], [ -70.975745, -32.83773 ], [ -70.974432, -32.83579 ], [ -70.972941, -32.837709 ], [ -70.971486, -32.835774 ], [ -70.973819, -32.834701 ], [ -70.973502, -32.834353 ], [ -70.971201, -32.835395 ], [ -70.968798, -32.836145 ], [ -70.967462, -32.837135 ], [ -70.96593, -32.838658 ], [ -70.965001, -32.839157 ], [ -70.963595, -32.839543 ], [ -70.962662, -32.838779 ], [ -70.961724, -32.838241 ], [ -70.960435, -32.837762 ], [ -70.958208, -32.837134 ], [ -70.956774, -32.836499 ], [ -70.956218, -32.836434 ], [ -70.95601, -32.835471 ], [ -70.956008, -32.833839 ], [ -70.955906, -32.833661 ], [ -70.955694, -32.833459 ], [ -70.955048, -32.833374 ], [ -70.954204, -32.832995 ], [ -70.953225, -32.83288 ], [ -70.953153, -32.831691 ], [ -70.951235, -32.831812 ], [ -70.949568, -32.831639 ], [ -70.947926, -32.831341 ], [ -70.947185, -32.831677 ], [ -70.946293, -32.832546 ], [ -70.945531, -32.833039 ], [ -70.94553, -32.833495 ], [ -70.945755, -32.83391 ], [ -70.946797, -32.834967 ], [ -70.947341, -32.834432 ], [ -70.947995, -32.834036 ], [ -70.948304, -32.833945 ], [ -70.94863, -32.833946 ], [ -70.949737, -32.834218 ], [ -70.950717, -32.834331 ], [ -70.95092, -32.834406 ], [ -70.951445, -32.83561 ], [ -70.950093, -32.83625 ], [ -70.949532, -32.836247 ], [ -70.948996, -32.836385 ], [ -70.947336, -32.837666 ], [ -70.947137, -32.839212 ], [ -70.947966, -32.840374 ], [ -70.948132, -32.840934 ], [ -70.947978, -32.841498 ], [ -70.947523, -32.842107 ], [ -70.946752, -32.84264 ], [ -70.944972, -32.84292 ], [ -70.942862, -32.840575 ], [ -70.942031, -32.840405 ], [ -70.941682, -32.840429 ], [ -70.941125, -32.840571 ], [ -70.940544, -32.840897 ], [ -70.938541, -32.841372 ], [ -70.937881, -32.841452 ], [ -70.937504, -32.84161 ], [ -70.937112, -32.841904 ], [ -70.935959, -32.842288 ], [ -70.935695, -32.842532 ], [ -70.935568, -32.842844 ], [ -70.934979, -32.843559 ], [ -70.934912, -32.844017 ], [ -70.935632, -32.844226 ], [ -70.93642, -32.844312 ], [ -70.93983, -32.844134 ], [ -70.941197, -32.847372 ], [ -70.946794, -32.844788 ], [ -70.945808, -32.843822 ], [ -70.96383, -32.842878 ] ] ] } },
{ "type": "Feature", "properties": { "objectid": 245, "comuna": "Panquehue", "st_area_sh": 338520.10366000002, "st_length_": 3320.0457623399998, "Localidad": "Panquehue", "Entidad": "Pueblo" }, "geometry": { "type": "Polygon", "coordinates": [ [ [ -70.857184, -32.784215 ], [ -70.84922, -32.779994 ], [ -70.848691, -32.77956 ], [ -70.847521, -32.778194 ], [ -70.846003, -32.77958 ], [ -70.848881, -32.781766 ], [ -70.851892, -32.7837 ], [ -70.853714, -32.784676 ], [ -70.856688, -32.786026 ], [ -70.857184, -32.784215 ] ] ] } },
{ "type": "Feature", "properties": { "objectid": 218, "comuna": "Panquehue", "st_area_sh": 454617.67394000001, "st_length_": 4458.4731264599995, "Localidad": "Panquehue", "Entidad": "Pueblo" }, "geometry": { "type": "Polygon", "coordinates": [ [ [ -70.838047, -32.770843 ], [ -70.838566, -32.769366 ], [ -70.836939, -32.768148 ], [ -70.836453, -32.768437 ], [ -70.836204, -32.768933 ], [ -70.836, -32.769061 ], [ -70.834936, -32.768541 ], [ -70.834904, -32.768305 ], [ -70.835667, -32.76747 ], [ -70.834306, -32.765956 ], [ -70.832954, -32.767691 ], [ -70.831723, -32.766534 ], [ -70.831248, -32.766982 ], [ -70.830129, -32.766645 ], [ -70.829834, -32.766927 ], [ -70.831375, -32.767966 ], [ -70.831021, -32.768505 ], [ -70.83356, -32.770514 ], [ -70.838433, -32.773992 ], [ -70.83911, -32.772577 ], [ -70.83948, -32.772065 ], [ -70.84204, -32.77267 ], [ -70.841956, -32.772472 ], [ -70.8418, -32.772364 ], [ -70.840485, -32.772002 ], [ -70.840193, -32.771181 ], [ -70.838047, -32.770843 ] ] ] } },
{ "type": "Feature", "properties": { "objectid": 203, "comuna": "San Felipe", "st_area_sh": 12508397.478599999, "st_length_": 27539.938175300002, "Localidad": "San Felipe", "Entidad": "Ciudad" }, "geometry": { "type": "Polygon", "coordinates": [ [ [ -70.743734, -32.737468 ], [ -70.73954, -32.738915 ], [ -70.739312, -32.73849 ], [ -70.73949, -32.7368 ], [ -70.737691, -32.736663 ], [ -70.737648, -32.73693 ], [ -70.737256, -32.73692 ], [ -70.736964, -32.738633 ], [ -70.733288, -32.738317 ], [ -70.732906, -32.737927 ], [ -70.73264, -32.737312 ], [ -70.732201, -32.737071 ], [ -70.731754, -32.737114 ], [ -70.731425, -32.737373 ], [ -70.731074, -32.737489 ], [ -70.730203, -32.737557 ], [ -70.730078, -32.737543 ], [ -70.729686, -32.737136 ], [ -70.729276, -32.736984 ], [ -70.728918, -32.736965 ], [ -70.727611, -32.73723 ], [ -70.726575, -32.737008 ], [ -70.725787, -32.736728 ], [ -70.725341, -32.736679 ], [ -70.72495, -32.736492 ], [ -70.724463, -32.736442 ], [ -70.723976, -32.736484 ], [ -70.723402, -32.736663 ], [ -70.721757, -32.737772 ], [ -70.721161, -32.737969 ], [ -70.720793, -32.737975 ], [ -70.718236, -32.737212 ], [ -70.718101, -32.737708 ], [ -70.717883, -32.738143 ], [ -70.717573, -32.738538 ], [ -70.717073, -32.738953 ], [ -70.715919, -32.738741 ], [ -70.715183, -32.738756 ], [ -70.71446, -32.73842 ], [ -70.713765, -32.738756 ], [ -70.712751, -32.738675 ], [ -70.712298, -32.738529 ], [ -70.711894, -32.738554 ], [ -70.711686, -32.738372 ], [ -70.711387, -32.738287 ], [ -70.711065, -32.738336 ], [ -70.710813, -32.738511 ], [ -70.708947, -32.738575 ], [ -70.707206, -32.742499 ], [ -70.706422, -32.746616 ], [ -70.710723, -32.745568 ], [ -70.710878, -32.743094 ], [ -70.711998, -32.742812 ], [ -70.712521, -32.744307 ], [ -70.713529, -32.744027 ], [ -70.714305, -32.744442 ], [ -70.715722, -32.748105 ], [ -70.712698, -32.748831 ], [ -70.712693, -32.749381 ], [ -70.711383, -32.749707 ], [ -70.711346, -32.747782 ], [ -70.706487, -32.748286 ], [ -70.706917, -32.750417 ], [ -70.701955, -32.751641 ], [ -70.70193, -32.751278 ], [ -70.703643, -32.7477 ], [ -70.703822, -32.747133 ], [ -70.70288, -32.74325 ], [ -70.702736, -32.742891 ], [ -70.702379, -32.742387 ], [ -70.702533, -32.742157 ], [ -70.704366, -32.741327 ], [ -70.70578, -32.74036 ], [ -70.706514, -32.739709 ], [ -70.706955, -32.738595 ], [ -70.70561, -32.738993 ], [ -70.704018, -32.740078 ], [ -70.70226, -32.741005 ], [ -70.702061, -32.740665 ], [ -70.701276, -32.741041 ], [ -70.701611, -32.741443 ], [ -70.699711, -32.742413 ], [ -70.698349, -32.743253 ], [ -70.697965, -32.743662 ], [ -70.693524, -32.746704 ], [ -70.693236, -32.746926 ], [ -70.692543, -32.747961 ], [ -70.691822, -32.747564 ], [ -70.691485, -32.748106 ], [ -70.691603, -32.748235 ], [ -70.691156, -32.749274 ], [ -70.691484, -32.749413 ], [ -70.691527, -32.749719 ], [ -70.694182, -32.750224 ], [ -70.699141, -32.751394 ], [ -70.699042, -32.751375 ], [ -70.699442, -32.758216 ], [ -70.70377, -32.756217 ], [ -70.707733, -32.754657 ], [ -70.708526, -32.756418 ], [ -70.709292, -32.759122 ], [ -70.710513, -32.762471 ], [ -70.710198, -32.762641 ], [ -70.710179, -32.762788 ], [ -70.709261, -32.763879 ], [ -70.707197, -32.764694 ], [ -70.706677, -32.765012 ], [ -70.707191, -32.76635 ], [ -70.71123, -32.765102 ], [ -70.71032, -32.762698 ], [ -70.712384, -32.761824 ], [ -70.712642, -32.762334 ], [ -70.714967, -32.76156 ], [ -70.716036, -32.763276 ], [ -70.723463, -32.760911 ], [ -70.724598, -32.762607 ], [ -70.724733, -32.762693 ], [ -70.72593, -32.763213 ], [ -70.726585, -32.763352 ], [ -70.727427, -32.763405 ], [ -70.730472, -32.762564 ], [ -70.734057, -32.759899 ], [ -70.734999, -32.758996 ], [ -70.73584, -32.757948 ], [ -70.736244, -32.757312 ], [ -70.735314, -32.756925 ], [ -70.735752, -32.756462 ], [ -70.736286, -32.756249 ], [ -70.736653, -32.755998 ], [ -70.737064, -32.755513 ], [ -70.736638, -32.753947 ], [ -70.736416, -32.753392 ], [ -70.736916, -32.752529 ], [ -70.736234, -32.752139 ], [ -70.736505, -32.751364 ], [ -70.736838, -32.750781 ], [ -70.737372, -32.750947 ], [ -70.737906, -32.750777 ], [ -70.738612, -32.750156 ], [ -70.739088, -32.749538 ], [ -70.739363, -32.748995 ], [ -70.739537, -32.748423 ], [ -70.738605, -32.746763 ], [ -70.740623, -32.746373 ], [ -70.739485, -32.744771 ], [ -70.741747, -32.741566 ], [ -70.742329, -32.74056 ], [ -70.743147, -32.73968 ], [ -70.743566, -32.738992 ], [ -70.744103, -32.738569 ], [ -70.744606, -32.738312 ], [ -70.744904, -32.737452 ], [ -70.745039, -32.737405 ], [ -70.745068, -32.737305 ], [ -70.744899, -32.737205 ], [ -70.743734, -32.737468 ] ] ] } },
{ "type": "Feature", "properties": { "objectid": 214, "comuna": "San Felipe", "st_area_sh": 856198.15305199998, "st_length_": 8167.5729677, "Localidad": "Curimón", "Entidad": "Pueblo" }, "geometry": { "type": "Polygon", "coordinates": [ [ [ -70.688718, -32.7892 ], [ -70.686415, -32.792038 ], [ -70.687174, -32.792758 ], [ -70.688062, -32.791983 ], [ -70.688865, -32.791145 ], [ -70.689953, -32.789718 ], [ -70.690131, -32.789339 ], [ -70.690118, -32.788851 ], [ -70.689031, -32.785159 ], [ -70.692154, -32.784472 ], [ -70.691528, -32.782777 ], [ -70.691067, -32.782246 ], [ -70.690803, -32.782071 ], [ -70.690189, -32.782068 ], [ -70.687926, -32.78231 ], [ -70.687064, -32.781505 ], [ -70.686316, -32.779597 ], [ -70.685782, -32.779651 ], [ -70.685414, -32.779394 ], [ -70.684942, -32.779558 ], [ -70.685226, -32.780213 ], [ -70.684638, -32.780522 ], [ -70.68535, -32.783189 ], [ -70.685336, -32.783376 ], [ -70.685851, -32.784629 ], [ -70.68439, -32.785336 ], [ -70.684196, -32.785854 ], [ -70.684269, -32.786149 ], [ -70.68408, -32.786249 ], [ -70.683681, -32.786181 ], [ -70.683403, -32.786036 ], [ -70.682536, -32.78589 ], [ -70.681454, -32.786019 ], [ -70.680008, -32.785793 ], [ -70.679569, -32.785875 ], [ -70.679201, -32.786093 ], [ -70.677972, -32.786567 ], [ -70.678304, -32.787107 ], [ -70.677329, -32.787521 ], [ -70.677727, -32.788833 ], [ -70.677057, -32.789277 ], [ -70.676111, -32.78947 ], [ -70.676875, -32.790405 ], [ -70.679658, -32.789252 ], [ -70.681931, -32.78796 ], [ -70.682262, -32.788362 ], [ -70.682794, -32.788371 ], [ -70.684856, -32.787549 ], [ -70.684225, -32.786455 ], [ -70.684423, -32.786308 ], [ -70.685114, -32.785985 ], [ -70.685517, -32.786086 ], [ -70.685934, -32.786042 ], [ -70.686757, -32.78553 ], [ -70.687035, -32.785466 ], [ -70.687871, -32.785661 ], [ -70.687861, -32.786019 ], [ -70.687626, -32.786362 ], [ -70.687313, -32.786657 ], [ -70.686892, -32.786791 ], [ -70.687236, -32.787932 ], [ -70.68738, -32.787895 ], [ -70.687551, -32.787959 ], [ -70.687718, -32.788312 ], [ -70.688239, -32.788076 ], [ -70.688718, -32.7892 ] ] ] } }
]
}
