{
"type": "FeatureCollection",
"name": "manguezais_app_conservados_limpio",
"crs": { "type": "name", "properties": { "name": "urn:ogc:def:crs:OGC:1.3:CRS84" } },
"xy_coordinate_resolution": 1e-06,
"features": [
{ "type": "Feature", "properties": { "ecosistema": "Manguezal Ilha Diana / Rio Iriri", "status": "Área de Preservação Permanente (APP)" }, "geometry": { "type": "Polygon", "coordinates": [ [ [ -46.282677, -23.970012 ], [ -46.272717, -23.956549 ], [ -46.238498, -23.974891 ], [ -46.248456, -23.988356 ], [ -46.282677, -23.970012 ] ] ] } },
{ "type": "Feature", "properties": { "ecosistema": "Manguezal Canal de Bertioga Norte", "status": "Área de Preservação Permanente (APP)" }, "geometry": { "type": "Polygon", "coordinates": [ [ [ -46.233885, -24.006536 ], [ -46.223927, -23.993069 ], [ -46.189692, -24.011401 ], [ -46.199648, -24.02487 ], [ -46.233885, -24.006536 ] ] ] } },
{ "type": "Feature", "properties": { "ecosistema": "Manguezal Largo do Caneú", "status": "Área de Preservação Permanente (APP)" }, "geometry": { "type": "Polygon", "coordinates": [ [ [ -46.336678, -23.965036 ], [ -46.331626, -23.951534 ], [ -46.307153, -23.960775 ], [ -46.312203, -23.974278 ], [ -46.336678, -23.965036 ] ] ] } }
]
}
