{
"type": "FeatureCollection",
"name": "modelo_espacial_del_continuum_pryor_1968",
"crs": { "type": "name", "properties": { "name": "urn:ogc:def:crs:OGC:1.3:CRS84" } },
"xy_coordinate_resolution": 1e-06,
"features": [
{ "type": "Feature", "properties": { "zona_pryor": "1. Ciudad Central Consolidada", "densidad": "Alta (> 120 hab/ha)", "uso_domin": "Residencial denso / Servicios / Comercio", "gobernanza": "Control urbano consolidado" }, "geometry": { "type": "Polygon", "coordinates": [ [ [ -78.519685, 0.074227 ], [ -78.519907, 0.069738 ], [ -78.520572, 0.065294 ], [ -78.521673, 0.060939 ], [ -78.5232, 0.056715 ], [ -78.525137, 0.052666 ], [ -78.527464, 0.048831 ], [ -78.530159, 0.045248 ], [ -78.533195, 0.041953 ], [ -78.536542, 0.03898 ], [ -78.540167, 0.036356 ], [ -78.544033, 0.034109 ], [ -78.548102, 0.03226 ], [ -78.552333, 0.030829 ], [ -78.556685, 0.029828 ], [ -78.561114, 0.029269 ], [ -78.565577, 0.029157 ], [ -78.570028, 0.029493 ], [ -78.574424, 0.030273 ], [ -78.578721, 0.03149 ], [ -78.582877, 0.033132 ], [ -78.586849, 0.035182 ], [ -78.590599, 0.03762 ], [ -78.594089, 0.040421 ], [ -78.597285, 0.043559 ], [ -78.600154, 0.047001 ], [ -78.602669, 0.050714 ], [ -78.604804, 0.05466 ], [ -78.606538, 0.058801 ], [ -78.607854, 0.063095 ], [ -78.608739, 0.067499 ], [ -78.609184, 0.071971 ], [ -78.609184, 0.076464 ], [ -78.60874, 0.080936 ], [ -78.607856, 0.085341 ], [ -78.606541, 0.089635 ], [ -78.604808, 0.093776 ], [ -78.602673, 0.097723 ], [ -78.60016, 0.101436 ], [ -78.597291, 0.104879 ], [ -78.594096, 0.108017 ], [ -78.590606, 0.110819 ], [ -78.586857, 0.113258 ], [ -78.582885, 0.115309 ], [ -78.57873, 0.116951 ], [ -78.574433, 0.118169 ], [ -78.570037, 0.11895 ], [ -78.565586, 0.119287 ], [ -78.561123, 0.119176 ], [ -78.556694, 0.118618 ], [ -78.552342, 0.117618 ], [ -78.54811, 0.116188 ], [ -78.544041, 0.11434 ], [ -78.540174, 0.112093 ], [ -78.536549, 0.109471 ], [ -78.533202, 0.106497 ], [ -78.530165, 0.103203 ], [ -78.527469, 0.099621 ], [ -78.525141, 0.095787 ], [ -78.523203, 0.091738 ], [ -78.521676, 0.087515 ], [ -78.520574, 0.083159 ], [ -78.519908, 0.078715 ], [ -78.519685, 0.074227 ] ] ] } },
{ "type": "Feature", "properties": { "zona_pryor": "2. Franja Urbana (Urban Fringe)", "densidad": "Media-Alta (50 - 120 hab/ha)", "uso_domin": "Mixto: residencial reciente, bodegas, industria", "gobernanza": "Vacío de control / Fragmentación intermunicipal" }, "geometry": { "type": "Polygon", "coordinates": [ [ [ -78.474904, 0.074231 ], [ -78.475348, 0.065253 ], [ -78.476678, 0.056364 ], [ -78.478881, 0.047653 ], [ -78.481934, 0.039206 ], [ -78.485808, 0.031107 ], [ -78.490463, 0.023437 ], [ -78.495854, 0.016271 ], [ -78.501927, 0.009682 ], [ -78.508622, 0.003734 ], [ -78.515871, -0.001513 ], [ -78.523603, -0.006007 ], [ -78.531741, -0.009704 ], [ -78.540205, -0.012566 ], [ -78.548909, -0.014566 ], [ -78.557768, -0.015684 ], [ -78.566693, -0.015908 ], [ -78.575596, -0.015236 ], [ -78.584388, -0.013675 ], [ -78.592981, -0.011241 ], [ -78.601292, -0.007957 ], [ -78.609236, -0.003857 ], [ -78.616735, 0.001019 ], [ -78.623714, 0.006623 ], [ -78.630105, 0.012898 ], [ -78.635843, 0.019782 ], [ -78.640872, 0.027208 ], [ -78.645142, 0.0351 ], [ -78.64861, 0.043381 ], [ -78.651242, 0.051969 ], [ -78.653011, 0.060777 ], [ -78.653901, 0.069719 ], [ -78.653902, 0.078706 ], [ -78.653014, 0.087649 ], [ -78.651246, 0.096458 ], [ -78.648616, 0.105046 ], [ -78.64515, 0.113328 ], [ -78.640882, 0.121221 ], [ -78.635855, 0.128647 ], [ -78.630118, 0.135533 ], [ -78.623728, 0.141809 ], [ -78.61675, 0.147414 ], [ -78.609252, 0.152292 ], [ -78.601308, 0.156394 ], [ -78.592999, 0.159679 ], [ -78.584405, 0.162115 ], [ -78.575614, 0.163678 ], [ -78.566711, 0.164352 ], [ -78.557786, 0.164129 ], [ -78.548927, 0.163014 ], [ -78.540222, 0.161016 ], [ -78.531758, 0.158155 ], [ -78.523619, 0.15446 ], [ -78.515886, 0.149967 ], [ -78.508636, 0.144722 ], [ -78.50194, 0.138775 ], [ -78.495866, 0.132187 ], [ -78.490473, 0.125023 ], [ -78.485816, 0.117353 ], [ -78.481941, 0.109255 ], [ -78.478886, 0.100808 ], [ -78.476682, 0.092098 ], [ -78.47535, 0.083209 ], [ -78.474904, 0.074231 ] ], [ [ -78.519685, 0.074227 ], [ -78.519908, 0.078715 ], [ -78.520574, 0.083159 ], [ -78.521676, 0.087515 ], [ -78.523203, 0.091738 ], [ -78.525141, 0.095787 ], [ -78.527469, 0.099621 ], [ -78.530165, 0.103203 ], [ -78.533202, 0.106497 ], [ -78.536549, 0.109471 ], [ -78.540174, 0.112093 ], [ -78.544041, 0.11434 ], [ -78.54811, 0.116188 ], [ -78.552342, 0.117618 ], [ -78.556694, 0.118618 ], [ -78.561123, 0.119176 ], [ -78.565586, 0.119287 ], [ -78.570037, 0.11895 ], [ -78.574433, 0.118169 ], [ -78.57873, 0.116951 ], [ -78.582885, 0.115309 ], [ -78.586857, 0.113258 ], [ -78.590606, 0.110819 ], [ -78.594096, 0.108017 ], [ -78.597291, 0.104879 ], [ -78.60016, 0.101436 ], [ -78.602673, 0.097723 ], [ -78.604808, 0.093776 ], [ -78.606541, 0.089635 ], [ -78.607856, 0.085341 ], [ -78.60874, 0.080936 ], [ -78.609184, 0.076464 ], [ -78.609184, 0.071971 ], [ -78.608739, 0.067499 ], [ -78.607854, 0.063095 ], [ -78.606538, 0.058801 ], [ -78.604804, 0.05466 ], [ -78.602669, 0.050714 ], [ -78.600154, 0.047001 ], [ -78.597285, 0.043559 ], [ -78.594089, 0.040421 ], [ -78.590599, 0.03762 ], [ -78.586849, 0.035182 ], [ -78.582877, 0.033132 ], [ -78.578721, 0.03149 ], [ -78.574424, 0.030273 ], [ -78.570028, 0.029493 ], [ -78.565577, 0.029157 ], [ -78.561114, 0.029269 ], [ -78.556685, 0.029828 ], [ -78.552333, 0.030829 ], [ -78.548102, 0.03226 ], [ -78.544033, 0.034109 ], [ -78.540167, 0.036356 ], [ -78.536542, 0.03898 ], [ -78.533195, 0.041953 ], [ -78.530159, 0.045248 ], [ -78.527464, 0.048831 ], [ -78.525137, 0.052666 ], [ -78.5232, 0.056715 ], [ -78.521673, 0.060939 ], [ -78.520572, 0.065294 ], [ -78.519907, 0.069738 ], [ -78.519685, 0.074227 ] ] ] } },
{ "type": "Feature", "properties": { "zona_pryor": "3. Franja Rural (Rural Fringe)", "densidad": "Baja-Media (15 - 50 hab/ha)", "uso_domin": "Agrícola residual, parcelaciones, fincas recreo", "gobernanza": "Control rural disperso / Débil presencia policiva" }, "geometry": { "type": "Polygon", "coordinates": [ [ [ -78.403248, 0.074238 ], [ -78.404048, 0.058077 ], [ -78.406442, 0.042075 ], [ -78.410408, 0.026394 ], [ -78.415905, 0.011188 ], [ -78.422879, -0.003392 ], [ -78.43126, -0.017199 ], [ -78.440965, -0.030097 ], [ -78.451898, -0.041958 ], [ -78.46395, -0.052664 ], [ -78.477, -0.062108 ], [ -78.490919, -0.070197 ], [ -78.505569, -0.07685 ], [ -78.520804, -0.082001 ], [ -78.536473, -0.0856 ], [ -78.552419, -0.08761 ], [ -78.568484, -0.088011 ], [ -78.584509, -0.0868 ], [ -78.600334, -0.083989 ], [ -78.615802, -0.079606 ], [ -78.630759, -0.073694 ], [ -78.645057, -0.066313 ], [ -78.658554, -0.057535 ], [ -78.671116, -0.047448 ], [ -78.682618, -0.036153 ], [ -78.692945, -0.023761 ], [ -78.701996, -0.010397 ], [ -78.70968, 0.003809 ], [ -78.715921, 0.018714 ], [ -78.720657, 0.03417 ], [ -78.723841, 0.050024 ], [ -78.725442, 0.066118 ], [ -78.725444, 0.082293 ], [ -78.723846, 0.098387 ], [ -78.720665, 0.114242 ], [ -78.715932, 0.129699 ], [ -78.709694, 0.144605 ], [ -78.702013, 0.158812 ], [ -78.692965, 0.172179 ], [ -78.68264, 0.184573 ], [ -78.671141, 0.195871 ], [ -78.658582, 0.20596 ], [ -78.645086, 0.21474 ], [ -78.63079, 0.222125 ], [ -78.615833, 0.22804 ], [ -78.600366, 0.232426 ], [ -78.584541, 0.23524 ], [ -78.568517, 0.236455 ], [ -78.552451, 0.236057 ], [ -78.536505, 0.23405 ], [ -78.520836, 0.230455 ], [ -78.5056, 0.225306 ], [ -78.490948, 0.218656 ], [ -78.477027, 0.21057 ], [ -78.463975, 0.201129 ], [ -78.451921, 0.190425 ], [ -78.440986, 0.178566 ], [ -78.431278, 0.16567 ], [ -78.422894, 0.151864 ], [ -78.415917, 0.137287 ], [ -78.410417, 0.122082 ], [ -78.406449, 0.106401 ], [ -78.404051, 0.0904 ], [ -78.403248, 0.074238 ] ], [ [ -78.474904, 0.074231 ], [ -78.47535, 0.083209 ], [ -78.476682, 0.092098 ], [ -78.478886, 0.100808 ], [ -78.481941, 0.109255 ], [ -78.485816, 0.117353 ], [ -78.490473, 0.125023 ], [ -78.495866, 0.132187 ], [ -78.50194, 0.138775 ], [ -78.508636, 0.144722 ], [ -78.515886, 0.149967 ], [ -78.523619, 0.15446 ], [ -78.531758, 0.158155 ], [ -78.540222, 0.161016 ], [ -78.548927, 0.163014 ], [ -78.557786, 0.164129 ], [ -78.566711, 0.164352 ], [ -78.575614, 0.163678 ], [ -78.584405, 0.162115 ], [ -78.592999, 0.159679 ], [ -78.601308, 0.156394 ], [ -78.609252, 0.152292 ], [ -78.61675, 0.147414 ], [ -78.623728, 0.141809 ], [ -78.630118, 0.135533 ], [ -78.635855, 0.128647 ], [ -78.640882, 0.121221 ], [ -78.64515, 0.113328 ], [ -78.648616, 0.105046 ], [ -78.651246, 0.096458 ], [ -78.653014, 0.087649 ], [ -78.653902, 0.078706 ], [ -78.653901, 0.069719 ], [ -78.653011, 0.060777 ], [ -78.651242, 0.051969 ], [ -78.64861, 0.043381 ], [ -78.645142, 0.0351 ], [ -78.640872, 0.027208 ], [ -78.635843, 0.019782 ], [ -78.630105, 0.012898 ], [ -78.623714, 0.006623 ], [ -78.616735, 0.001019 ], [ -78.609236, -0.003857 ], [ -78.601292, -0.007957 ], [ -78.592981, -0.011241 ], [ -78.584388, -0.013675 ], [ -78.575596, -0.015236 ], [ -78.566693, -0.015908 ], [ -78.557768, -0.015684 ], [ -78.548909, -0.014566 ], [ -78.540205, -0.012566 ], [ -78.531741, -0.009704 ], [ -78.523603, -0.006007 ], [ -78.515871, -0.001513 ], [ -78.508622, 0.003734 ], [ -78.501927, 0.009682 ], [ -78.495854, 0.016271 ], [ -78.490463, 0.023437 ], [ -78.485808, 0.031107 ], [ -78.481934, 0.039206 ], [ -78.478881, 0.047653 ], [ -78.476678, 0.056364 ], [ -78.475348, 0.065253 ], [ -78.474904, 0.074231 ] ] ] } },
{ "type": "Feature", "properties": { "zona_pryor": "4. Hinterland Rural Abierto", "densidad": "Baja (< 15 hab/ha)", "uso_domin": "Agropecuario intensivo / Forestal", "gobernanza": "Régimen agrario / Ambiental" }, "geometry": { "type": "Polygon", "coordinates": [ [ [ -78.331586, 0.074245 ], [ -78.332741, 0.050898 ], [ -78.336201, 0.027783 ], [ -78.34193, 0.00513 ], [ -78.349871, -0.016836 ], [ -78.359946, -0.037896 ], [ -78.372054, -0.057841 ], [ -78.386075, -0.076472 ], [ -78.401869, -0.093605 ], [ -78.419279, -0.109069 ], [ -78.438132, -0.12271 ], [ -78.45824, -0.134393 ], [ -78.479402, -0.144001 ], [ -78.50141, -0.15144 ], [ -78.524043, -0.156636 ], [ -78.547077, -0.159537 ], [ -78.570282, -0.160114 ], [ -78.593429, -0.158363 ], [ -78.616287, -0.1543 ], [ -78.638628, -0.147967 ], [ -78.660232, -0.139426 ], [ -78.680883, -0.128762 ], [ -78.700376, -0.116083 ], [ -78.718519, -0.101513 ], [ -78.73513, -0.085197 ], [ -78.750045, -0.067298 ], [ -78.763115, -0.047994 ], [ -78.774213, -0.027477 ], [ -78.783226, -0.005949 ], [ -78.790066, 0.016374 ], [ -78.794665, 0.039272 ], [ -78.796977, 0.062517 ], [ -78.796979, 0.085878 ], [ -78.794672, 0.109124 ], [ -78.790078, 0.132023 ], [ -78.783243, 0.154348 ], [ -78.774234, 0.175877 ], [ -78.763141, 0.196397 ], [ -78.750074, 0.215704 ], [ -78.735163, 0.233606 ], [ -78.718555, 0.249925 ], [ -78.700416, 0.264499 ], [ -78.680925, 0.277183 ], [ -78.660276, 0.28785 ], [ -78.638674, 0.296396 ], [ -78.616333, 0.302734 ], [ -78.593476, 0.306801 ], [ -78.57033, 0.308557 ], [ -78.547124, 0.307985 ], [ -78.524089, 0.305088 ], [ -78.501455, 0.299897 ], [ -78.479446, 0.292463 ], [ -78.458281, 0.282858 ], [ -78.438171, 0.27118 ], [ -78.419315, 0.257542 ], [ -78.401902, 0.242082 ], [ -78.386105, 0.224953 ], [ -78.37208, 0.206324 ], [ -78.359968, 0.186381 ], [ -78.349889, 0.165323 ], [ -78.341943, 0.143359 ], [ -78.336209, 0.120707 ], [ -78.332745, 0.097592 ], [ -78.331586, 0.074245 ] ], [ [ -78.403248, 0.074238 ], [ -78.404051, 0.0904 ], [ -78.406449, 0.106401 ], [ -78.410417, 0.122082 ], [ -78.415917, 0.137287 ], [ -78.422894, 0.151864 ], [ -78.431278, 0.16567 ], [ -78.440986, 0.178566 ], [ -78.451921, 0.190425 ], [ -78.463975, 0.201129 ], [ -78.477027, 0.21057 ], [ -78.490948, 0.218656 ], [ -78.5056, 0.225306 ], [ -78.520836, 0.230455 ], [ -78.536505, 0.23405 ], [ -78.552451, 0.236057 ], [ -78.568517, 0.236455 ], [ -78.584541, 0.23524 ], [ -78.600366, 0.232426 ], [ -78.615833, 0.22804 ], [ -78.63079, 0.222125 ], [ -78.645086, 0.21474 ], [ -78.658582, 0.20596 ], [ -78.671141, 0.195871 ], [ -78.68264, 0.184573 ], [ -78.692965, 0.172179 ], [ -78.702013, 0.158812 ], [ -78.709694, 0.144605 ], [ -78.715932, 0.129699 ], [ -78.720665, 0.114242 ], [ -78.723846, 0.098387 ], [ -78.725444, 0.082293 ], [ -78.725442, 0.066118 ], [ -78.723841, 0.050024 ], [ -78.720657, 0.03417 ], [ -78.715921, 0.018714 ], [ -78.70968, 0.003809 ], [ -78.701996, -0.010397 ], [ -78.692945, -0.023761 ], [ -78.682618, -0.036153 ], [ -78.671116, -0.047448 ], [ -78.658554, -0.057535 ], [ -78.645057, -0.066313 ], [ -78.630759, -0.073694 ], [ -78.615802, -0.079606 ], [ -78.600334, -0.083989 ], [ -78.584509, -0.0868 ], [ -78.568484, -0.088011 ], [ -78.552419, -0.08761 ], [ -78.536473, -0.0856 ], [ -78.520804, -0.082001 ], [ -78.505569, -0.07685 ], [ -78.490919, -0.070197 ], [ -78.477, -0.062108 ], [ -78.46395, -0.052664 ], [ -78.451898, -0.041958 ], [ -78.440965, -0.030097 ], [ -78.43126, -0.017199 ], [ -78.422879, -0.003392 ], [ -78.415905, 0.011188 ], [ -78.410408, 0.026394 ], [ -78.406442, 0.042075 ], [ -78.404048, 0.058077 ], [ -78.403248, 0.074238 ] ] ] } }
]
}
