{
"type": "FeatureCollection",
"name": "polo_industrial_e_petroquimico_de_cubatao",
"crs": { "type": "name", "properties": { "name": "urn:ogc:def:crs:OGC:1.3:CRS84" } },
"xy_coordinate_resolution": 1e-06,
"features": [
{ "type": "Feature", "properties": { "complexo": "RPBC (Refinaria Presidente Bernardes - Petrobras)", "tipo": "Refino de Petróleo / Combustíveis", "area_ha": 380 }, "geometry": { "type": "Polygon", "coordinates": [ [ [ -46.424519, -23.910063 ], [ -46.424272, -23.887489 ], [ -46.394811, -23.887759 ], [ -46.395053, -23.910333 ], [ -46.424519, -23.910063 ] ] ] } },
{ "type": "Feature", "properties": { "complexo": "Usiminas (Usina Siderúrgica de Cubatão / Ex-Cosipa)", "tipo": "Siderurgia e Laminação de Aço", "area_ha": 720 }, "geometry": { "type": "Polygon", "coordinates": [ [ [ -46.365302, -23.883508 ], [ -46.364971, -23.851904 ], [ -46.3257, -23.852247 ], [ -46.326022, -23.883852 ], [ -46.365302, -23.883508 ] ] ] } },
{ "type": "Feature", "properties": { "complexo": "Polo de Fertilizantes (Yara Brasil / Copebrás)", "tipo": "Produção de Ácidos e Fertilizantes Fosfatados", "area_ha": 250 }, "geometry": { "type": "Polygon", "coordinates": [ [ [ -46.389756, -23.874259 ], [ -46.389564, -23.856199 ], [ -46.365018, -23.856419 ], [ -46.365208, -23.874478 ], [ -46.389756, -23.874259 ] ] ] } },
{ "type": "Feature", "properties": { "complexo": "Polo Químico e Petroquímico (Unigel / Carbocloro)", "tipo": "Cloro-Soda e Polímeros", "area_ha": 190 }, "geometry": { "type": "Polygon", "coordinates": [ [ [ -46.414452, -23.88758 ], [ -46.414304, -23.874035 ], [ -46.389756, -23.874259 ], [ -46.389901, -23.887803 ], [ -46.414452, -23.88758 ] ] ] } }
]
}
