{
"type": "FeatureCollection",
"name": "puntos_extremo_perfil_a_a",
"crs": { "type": "name", "properties": { "name": "urn:ogc:def:crs:OGC:1.3:CRS84" } },
"xy_coordinate_resolution": 1e-06,
"features": [
{ "type": "Feature", "properties": { "id": "A", "desc": "A: Océano Pacífico / Frente Portuario TPS (0 msnm)" }, "geometry": { "type": "Point", "coordinates": [ -71.670823, -33.012118 ] } },
{ "type": "Feature", "properties": { "id": "A'", "desc": "A': Cumbre Forestal / Borde La Pólvora (420 msnm)" }, "geometry": { "type": "Point", "coordinates": [ -71.704614, -33.067291 ] } }
]
}
