{
"type": "FeatureCollection",
"name": "red_ferroviaria_tren_limache_efe",
"crs": { "type": "name", "properties": { "name": "urn:ogc:def:crs:OGC:1.3:CRS84" } },
"xy_coordinate_resolution": 1e-06,
"features": [
{ "type": "Feature", "properties": { "Obejto": "LINEA FERREA", "Activ_2016": "SI", "Largo_Km": 15.34726543, "st_length_": 15347.265425400001 }, "geometry": { "type": "MultiLineString", "coordinates": [ [ [ -70.731583, -32.757307 ], [ -70.729263, -32.758282 ], [ -70.715019, -32.763668 ], [ -70.708762, -32.765056 ], [ -70.705123, -32.766274 ], [ -70.702147, -32.767509 ], [ -70.696883, -32.769371 ], [ -70.685431, -32.772953 ], [ -70.683206, -32.773499 ] ], [ [ -70.679196, -32.777748 ], [ -70.6789, -32.779065 ], [ -70.678457, -32.780572 ], [ -70.677534, -32.782411 ], [ -70.676557, -32.783687 ], [ -70.675253, -32.785066 ], [ -70.673811, -32.786163 ], [ -70.671911, -32.787361 ], [ -70.669866, -32.788556 ], [ -70.667768, -32.789635 ], [ -70.664175, -32.791306 ], [ -70.659696, -32.793688 ], [ -70.657331, -32.794648 ], [ -70.653867, -32.796489 ], [ -70.652509, -32.797138 ], [ -70.643338, -32.802228 ], [ -70.637669, -32.805468 ] ] ] } },
{ "type": "Feature", "properties": { "Obejto": "LINEA FERREA", "Activ_2016": "SI", "Largo_Km": 57.24029337, "st_length_": 58042.208285300003 }, "geometry": { "type": "LineString", "coordinates": [ [ -70.812859, -32.927499 ], [ -70.812365, -32.928471 ], [ -70.812258, -32.928812 ], [ -70.812229, -32.929396 ], [ -70.812359, -32.9299 ] ] } },
{ "type": "Feature", "properties": { "Obejto": "LINEA FERREA", "Activ_2016": "SI", "Largo_Km": 19.07713566, "st_length_": 19278.149696100001 }, "geometry": { "type": "LineString", "coordinates": [ [ -70.945189, -32.843799 ], [ -70.936679, -32.844189 ], [ -70.935856, -32.844167 ], [ -70.935047, -32.844043 ], [ -70.934182, -32.843783 ], [ -70.933338, -32.843311 ], [ -70.930713, -32.840861 ], [ -70.92992, -32.840301 ], [ -70.929199, -32.839957 ], [ -70.928558, -32.83977 ], [ -70.927631, -32.839617 ], [ -70.926924, -32.839577 ], [ -70.926216, -32.839601 ], [ -70.925535, -32.839702 ], [ -70.924711, -32.839958 ], [ -70.923936, -32.840307 ], [ -70.923226, -32.840743 ], [ -70.922593, -32.841258 ], [ -70.921327, -32.8427 ], [ -70.920929, -32.842948 ], [ -70.920471, -32.843104 ], [ -70.919981, -32.84316 ], [ -70.919611, -32.843133 ], [ -70.918395, -32.842662 ], [ -70.917572, -32.842556 ], [ -70.916453, -32.842833 ], [ -70.915448, -32.843331 ], [ -70.914571, -32.843645 ], [ -70.913654, -32.843863 ], [ -70.912949, -32.84396 ], [ -70.911759, -32.843993 ], [ -70.906944, -32.843627 ], [ -70.906137, -32.84365 ], [ -70.905359, -32.843833 ], [ -70.904787, -32.844088 ], [ -70.902381, -32.844901 ], [ -70.901908, -32.84508 ], [ -70.900618, -32.845766 ], [ -70.900129, -32.845891 ], [ -70.899522, -32.845833 ], [ -70.898273, -32.845287 ], [ -70.895653, -32.844744 ], [ -70.892549, -32.84359 ], [ -70.892137, -32.843483 ], [ -70.891566, -32.843431 ], [ -70.891136, -32.84346 ], [ -70.890003, -32.843804 ], [ -70.889433, -32.843857 ], [ -70.889094, -32.843804 ], [ -70.888107, -32.843482 ], [ -70.887407, -32.843367 ], [ -70.886695, -32.843349 ], [ -70.885957, -32.843526 ], [ -70.885318, -32.843499 ], [ -70.883827, -32.842992 ], [ -70.883071, -32.842947 ], [ -70.882465, -32.843102 ], [ -70.882045, -32.843341 ], [ -70.880466, -32.845097 ], [ -70.879972, -32.845453 ], [ -70.879147, -32.845839 ], [ -70.878777, -32.846076 ], [ -70.878455, -32.84636 ], [ -70.877199, -32.847754 ], [ -70.875136, -32.84929 ], [ -70.874513, -32.849663 ], [ -70.874001, -32.849882 ], [ -70.873496, -32.849963 ], [ -70.872346, -32.849989 ], [ -70.871438, -32.850235 ], [ -70.870813, -32.850775 ], [ -70.870587, -32.851102 ], [ -70.870358, -32.851608 ], [ -70.869987, -32.851904 ], [ -70.867603, -32.852583 ], [ -70.866878, -32.852627 ], [ -70.86641, -32.852517 ], [ -70.865994, -32.852304 ], [ -70.865152, -32.851313 ], [ -70.864871, -32.8511 ], [ -70.864431, -32.850894 ], [ -70.863944, -32.850789 ], [ -70.8633, -32.850779 ], [ -70.862668, -32.850914 ], [ -70.862215, -32.851132 ], [ -70.861837, -32.851436 ], [ -70.861091, -32.852279 ], [ -70.860027, -32.853151 ], [ -70.859101, -32.853685 ], [ -70.857998, -32.854135 ], [ -70.857687, -32.854368 ], [ -70.857515, -32.854588 ], [ -70.857157, -32.855412 ], [ -70.857, -32.856088 ], [ -70.85678, -32.861229 ], [ -70.856677, -32.861727 ], [ -70.856307, -32.862416 ], [ -70.855396, -32.863251 ], [ -70.854773, -32.86414 ], [ -70.854049, -32.864927 ], [ -70.85352, -32.865213 ], [ -70.853041, -32.86534 ], [ -70.851669, -32.865341 ], [ -70.850823, -32.865457 ], [ -70.850091, -32.865729 ], [ -70.849465, -32.866151 ], [ -70.84711, -32.870625 ], [ -70.845842, -32.872528 ], [ -70.844852, -32.873721 ], [ -70.841505, -32.877397 ], [ -70.837735, -32.881982 ], [ -70.837137, -32.882627 ], [ -70.836253, -32.883425 ], [ -70.831291, -32.887416 ], [ -70.829044, -32.889319 ], [ -70.827985, -32.890102 ], [ -70.826849, -32.890804 ], [ -70.823276, -32.892297 ], [ -70.822022, -32.8929 ], [ -70.821695, -32.893113 ], [ -70.821267, -32.893566 ], [ -70.82105, -32.893993 ], [ -70.82097, -32.894335 ], [ -70.820963, -32.89545 ], [ -70.820807, -32.895861 ], [ -70.82061, -32.896139 ], [ -70.820154, -32.896515 ], [ -70.819161, -32.896844 ], [ -70.818574, -32.897139 ], [ -70.81795, -32.897629 ], [ -70.817558, -32.898101 ], [ -70.817203, -32.899547 ], [ -70.816943, -32.900177 ], [ -70.814962, -32.903213 ], [ -70.812749, -32.907504 ], [ -70.812665, -32.90786 ], [ -70.812666, -32.908464 ], [ -70.813025, -32.910398 ], [ -70.813051, -32.910867 ], [ -70.81297, -32.911489 ], [ -70.812589, -32.912992 ], [ -70.812557, -32.914172 ], [ -70.813095, -32.917394 ], [ -70.813987, -32.92088 ], [ -70.814056, -32.921357 ], [ -70.813614, -32.926067 ], [ -70.813459, -32.926526 ], [ -70.812859, -32.927517 ] ] } },
{ "type": "Feature", "properties": { "Obejto": "LINEA FERREA", "Activ_2016": "SI", "Largo_Km": 2.41195842, "st_length_": 1134.3407155800001 }, "geometry": { "type": "LineString", "coordinates": [ [ -71.242061, -32.876011 ], [ -71.241616, -32.87508 ], [ -71.241037, -32.874212 ], [ -71.239623, -32.872655 ], [ -71.237884, -32.870968 ], [ -71.23694, -32.869957 ], [ -71.235946, -32.868767 ], [ -71.235236, -32.867633 ] ] } },
{ "type": "Feature", "properties": { "Obejto": "LINEA FERREA", "Activ_2016": "SI", "Largo_Km": 2.41195842, "st_length_": 1346.09759955 }, "geometry": { "type": "LineString", "coordinates": [ [ -71.235236, -32.867633 ], [ -71.230065, -32.856309 ] ] } },
{ "type": "Feature", "properties": { "Obejto": "LINEA FERREA", "Activ_2016": "SI", "Largo_Km": 1.00377744, "st_length_": 3038.8835779299998 }, "geometry": { "type": "LineString", "coordinates": [ [ -71.230065, -32.856309 ], [ -71.226636, -32.848788 ], [ -71.226023, -32.846764 ], [ -71.224206, -32.835777 ], [ -71.224076, -32.834595 ], [ -71.223734, -32.829636 ] ] } },
{ "type": "Feature", "properties": { "Obejto": "LINEA FERREA", "Activ_2016": "SI", "Largo_Km": 26.09909394, "st_length_": 26744.199375799999 }, "geometry": { "type": "LineString", "coordinates": [ [ -71.189706, -32.789891 ], [ -71.18874, -32.790068 ], [ -71.187935, -32.790322 ], [ -71.185211, -32.791725 ], [ -71.184492, -32.791991 ], [ -71.183539, -32.792186 ], [ -71.182028, -32.792218 ], [ -71.181387, -32.792362 ], [ -71.180825, -32.79266 ], [ -71.180406, -32.793041 ], [ -71.180141, -32.793585 ], [ -71.180141, -32.794076 ], [ -71.181327, -32.796629 ], [ -71.18142, -32.797352 ], [ -71.181284, -32.797948 ], [ -71.180634, -32.79896 ], [ -71.178082, -32.802363 ], [ -71.177825, -32.803102 ], [ -71.177322, -32.804959 ], [ -71.176915, -32.805738 ], [ -71.176475, -32.806309 ], [ -71.174539, -32.808163 ], [ -71.174262, -32.808543 ], [ -71.174106, -32.808968 ], [ -71.173882, -32.810545 ], [ -71.173592, -32.811518 ], [ -71.170518, -32.816731 ], [ -71.16986, -32.817516 ], [ -71.168848, -32.818335 ], [ -71.166971, -32.819391 ], [ -71.1653, -32.820186 ], [ -71.164656, -32.820711 ], [ -71.164297, -32.821263 ], [ -71.163897, -32.822709 ], [ -71.163357, -32.823793 ], [ -71.161514, -32.826246 ], [ -71.158442, -32.830047 ], [ -71.156431, -32.831665 ], [ -71.153848, -32.834187 ], [ -71.15279, -32.834899 ], [ -71.131584, -32.845317 ], [ -71.129425, -32.846426 ], [ -71.127597, -32.847157 ], [ -71.125948, -32.847622 ], [ -71.12417, -32.847944 ], [ -71.122361, -32.848102 ], [ -71.11, -32.847665 ], [ -71.107342, -32.847407 ], [ -71.097872, -32.84579 ], [ -71.052609, -32.838355 ], [ -71.049461, -32.837783 ], [ -71.047403, -32.837485 ], [ -71.045788, -32.837122 ], [ -71.044603, -32.836779 ], [ -71.041662, -32.835523 ], [ -71.041065, -32.835379 ], [ -71.040601, -32.835343 ], [ -71.040025, -32.835429 ], [ -71.039384, -32.835702 ], [ -71.035427, -32.838508 ], [ -71.034729, -32.838898 ], [ -71.033967, -32.839193 ], [ -71.030651, -32.839995 ], [ -71.02999, -32.840108 ], [ -71.026394, -32.840215 ], [ -71.025542, -32.840346 ], [ -71.024716, -32.840565 ], [ -71.020097, -32.842137 ], [ -71.019164, -32.842301 ], [ -71.018212, -32.842308 ], [ -71.01248, -32.841603 ], [ -71.007865, -32.840954 ], [ -71.006829, -32.840912 ], [ -70.963846, -32.842936 ], [ -70.953855, -32.843502 ], [ -70.945189, -32.843799 ] ] } },
{ "type": "Feature", "properties": { "Obejto": "LINEA FERREA", "Activ_2016": "SI", "Largo_Km": 6.14493633, "st_length_": 6070.9409202200004 }, "geometry": { "type": "LineString", "coordinates": [ [ -71.223734, -32.829636 ], [ -71.223685, -32.82704 ], [ -71.223956, -32.824675 ], [ -71.224065, -32.822968 ], [ -71.224225, -32.81619 ], [ -71.224195, -32.815555 ], [ -71.22405, -32.814717 ], [ -71.223518, -32.812885 ], [ -71.223303, -32.812358 ], [ -71.222735, -32.81134 ], [ -71.219412, -32.806654 ], [ -71.217987, -32.804795 ], [ -71.217391, -32.804154 ], [ -71.216507, -32.803363 ], [ -71.214876, -32.802242 ], [ -71.199467, -32.793791 ], [ -71.197358, -32.792495 ], [ -71.195183, -32.79128 ], [ -71.193378, -32.790408 ], [ -71.192436, -32.790118 ], [ -71.190959, -32.789888 ], [ -71.189706, -32.789891 ] ] } },
{ "type": "Feature", "properties": { "Obejto": null, "Activ_2016": null, "Largo_Km": 0.0, "st_length_": 2440.3440287799999 }, "geometry": { "type": "LineString", "coordinates": [ [ -71.475999, -33.047628 ], [ -71.476233, -33.048284 ], [ -71.476831, -33.049106 ], [ -71.477028, -33.049697 ], [ -71.477029, -33.050108 ], [ -71.476949, -33.050409 ], [ -71.4764, -33.051312 ], [ -71.47626, -33.051846 ], [ -71.476282, -33.052388 ], [ -71.476453, -33.052727 ], [ -71.476654, -33.052946 ], [ -71.47743, -33.053597 ], [ -71.480305, -33.05573 ], [ -71.48101, -33.056075 ], [ -71.481973, -33.056353 ], [ -71.482527, -33.056656 ], [ -71.4829, -33.057021 ], [ -71.483497, -33.058139 ], [ -71.483835, -33.058479 ], [ -71.484144, -33.058674 ], [ -71.484829, -33.058888 ], [ -71.485412, -33.05888 ], [ -71.487768, -33.05828 ] ] } },
{ "type": "Feature", "properties": { "Obejto": null, "Activ_2016": "SI", "Largo_Km": 17.27726552, "st_length_": 17283.053136800001 }, "geometry": { "type": "LineString", "coordinates": [ [ -71.48792, -33.058059 ], [ -71.48559, -33.05827 ], [ -71.484958, -33.058164 ], [ -71.484257, -33.057933 ], [ -71.483481, -33.057399 ], [ -71.482837, -33.056604 ], [ -71.482644, -33.056442 ], [ -71.482301, -33.056235 ], [ -71.481022, -33.055888 ], [ -71.480424, -33.05556 ], [ -71.478275, -33.054146 ], [ -71.476922, -33.053115 ], [ -71.476778, -33.052946 ], [ -71.476577, -33.052568 ], [ -71.476505, -33.052159 ], [ -71.476645, -33.051125 ], [ -71.477098, -33.050166 ], [ -71.4771, -33.049598 ], [ -71.476934, -33.049144 ], [ -71.476347, -33.048331 ], [ -71.475999, -33.047628 ], [ -71.476126, -33.046816 ], [ -71.476468, -33.045799 ], [ -71.476575, -33.045157 ], [ -71.476521, -33.041215 ], [ -71.476443, -33.040745 ], [ -71.476311, -33.040406 ], [ -71.47607, -33.04004 ], [ -71.475363, -33.039369 ], [ -71.474932, -33.039104 ], [ -71.473928, -33.03865 ], [ -71.472915, -33.038298 ], [ -71.472307, -33.03822 ], [ -71.471692, -33.038243 ], [ -71.470949, -33.038412 ], [ -71.470398, -33.038651 ], [ -71.469698, -33.039164 ], [ -71.468583, -33.040463 ], [ -71.468036, -33.040993 ], [ -71.467337, -33.041451 ], [ -71.466534, -33.041765 ], [ -71.466018, -33.041878 ], [ -71.465183, -33.041959 ], [ -71.464343, -33.041951 ], [ -71.463102, -33.041815 ], [ -71.462066, -33.04191 ], [ -71.461137, -33.042225 ], [ -71.460141, -33.042817 ], [ -71.459655, -33.043036 ], [ -71.458581, -33.043305 ], [ -71.457351, -33.04331 ], [ -71.455204, -33.042904 ], [ -71.454041, -33.042915 ], [ -71.452814, -33.043268 ], [ -71.450837, -33.044326 ], [ -71.449471, -33.044865 ], [ -71.448301, -33.045119 ], [ -71.446725, -33.045293 ], [ -71.442611, -33.045188 ], [ -71.441991, -33.045087 ], [ -71.441549, -33.044946 ], [ -71.440218, -33.044181 ], [ -71.437445, -33.041463 ], [ -71.436785, -33.040939 ], [ -71.43584, -33.040304 ], [ -71.434852, -33.039849 ], [ -71.434019, -33.039577 ], [ -71.432824, -33.039344 ], [ -71.43179, -33.039253 ], [ -71.430491, -33.039279 ], [ -71.428937, -33.039527 ], [ -71.415361, -33.042155 ], [ -71.414505, -33.042248 ], [ -71.410983, -33.04212 ], [ -71.409598, -33.042273 ], [ -71.408222, -33.042608 ], [ -71.403592, -33.044044 ], [ -71.402178, -33.044272 ], [ -71.399739, -33.044437 ], [ -71.397941, -33.044386 ], [ -71.395863, -33.044113 ], [ -71.389228, -33.04288 ], [ -71.388511, -33.042697 ], [ -71.386873, -33.042129 ], [ -71.385825, -33.041898 ], [ -71.384938, -33.041786 ], [ -71.380025, -33.041608 ], [ -71.378672, -33.041761 ], [ -71.376423, -33.042253 ], [ -71.375069, -33.042464 ], [ -71.37349, -33.042533 ], [ -71.371434, -33.042498 ], [ -71.369698, -33.042402 ], [ -71.356209, -33.04117 ], [ -71.354773, -33.040952 ], [ -71.353792, -33.040655 ], [ -71.352517, -33.040019 ], [ -71.351089, -33.039199 ], [ -71.350459, -33.03872 ], [ -71.349675, -33.037975 ], [ -71.349076, -33.03716 ], [ -71.348579, -33.036297 ], [ -71.348121, -33.035255 ], [ -71.347886, -33.034438 ], [ -71.347741, -33.03334 ], [ -71.347716, -33.032548 ], [ -71.347774, -33.031543 ], [ -71.348219, -33.027781 ], [ -71.348594, -33.026158 ] ] } },
{ "type": "Feature", "properties": { "Obejto": "LINEA FERREA", "Activ_2016": "SI", "Largo_Km": 11.69355683, "st_length_": 11675.038078199999 }, "geometry": { "type": "LineString", "coordinates": [ [ -71.348594, -33.026158 ], [ -71.348968, -33.025079 ], [ -71.349477, -33.022881 ], [ -71.349859, -33.021715 ], [ -71.352317, -33.016379 ], [ -71.352714, -33.015356 ], [ -71.353414, -33.012443 ], [ -71.35349, -33.011461 ], [ -71.353457, -33.010477 ], [ -71.353329, -33.009167 ], [ -71.352917, -33.00747 ], [ -71.352741, -33.006036 ], [ -71.352545, -33.005174 ], [ -71.352138, -33.004133 ], [ -71.350759, -33.001992 ], [ -71.350386, -33.001277 ], [ -71.34998, -33.000293 ], [ -71.349809, -32.999576 ], [ -71.349527, -32.997465 ], [ -71.348608, -32.994672 ], [ -71.348282, -32.992786 ], [ -71.348042, -32.99186 ], [ -71.347635, -32.990932 ], [ -71.346227, -32.988695 ], [ -71.34582, -32.988135 ], [ -71.345195, -32.987592 ], [ -71.344604, -32.987247 ], [ -71.343938, -32.987022 ], [ -71.343234, -32.986901 ], [ -71.342018, -32.986808 ], [ -71.340908, -32.986557 ], [ -71.340133, -32.986216 ], [ -71.339152, -32.985529 ], [ -71.338344, -32.985114 ], [ -71.337636, -32.984846 ], [ -71.336885, -32.984682 ], [ -71.335848, -32.984616 ], [ -71.334936, -32.984675 ], [ -71.332846, -32.985216 ], [ -71.331527, -32.985448 ], [ -71.330102, -32.985527 ], [ -71.328961, -32.985477 ], [ -71.32745, -32.985245 ], [ -71.32083, -32.98394 ], [ -71.316314, -32.982954 ], [ -71.311344, -32.981982 ], [ -71.306681, -32.981166 ], [ -71.304587, -32.980989 ], [ -71.302484, -32.981036 ], [ -71.300619, -32.981283 ], [ -71.281284, -32.985475 ], [ -71.280709, -32.985548 ], [ -71.280128, -32.985516 ], [ -71.279569, -32.985382 ], [ -71.27924, -32.985229 ], [ -71.27807, -32.9845 ], [ -71.277649, -32.983892 ], [ -71.277401, -32.983074 ], [ -71.277606, -32.982129 ], [ -71.277904, -32.98144 ], [ -71.278323, -32.980914 ], [ -71.279306, -32.980009 ], [ -71.27985, -32.979416 ] ] } },
{ "type": "Feature", "properties": { "Obejto": "LINEA FERREA", "Activ_2016": "SI", "Largo_Km": 1.95500033, "st_length_": 1999.8405649199999 }, "geometry": { "type": "LineString", "coordinates": [ [ -71.285076, -32.962153 ], [ -71.284609, -32.965027 ], [ -71.284547, -32.965933 ], [ -71.284617, -32.967622 ], [ -71.284495, -32.968665 ], [ -71.284318, -32.969437 ], [ -71.28375, -32.971037 ], [ -71.282046, -32.974883 ], [ -71.280924, -32.977706 ], [ -71.280598, -32.978355 ], [ -71.27985, -32.979416 ] ] } },
{ "type": "Feature", "properties": { "Obejto": "LINEA FERREA", "Activ_2016": "SI", "Largo_Km": 2.86420153, "st_length_": 2799.23415256 }, "geometry": { "type": "LineString", "coordinates": [ [ -71.277571, -32.938911 ], [ -71.278288, -32.940099 ], [ -71.278535, -32.941104 ], [ -71.278519, -32.94191 ], [ -71.278334, -32.942646 ], [ -71.278053, -32.943424 ], [ -71.277946, -32.944226 ], [ -71.278174, -32.947019 ], [ -71.278334, -32.947809 ], [ -71.278587, -32.948443 ], [ -71.278985, -32.949141 ], [ -71.279659, -32.949923 ], [ -71.280493, -32.950701 ], [ -71.281087, -32.951367 ], [ -71.284776, -32.956563 ], [ -71.285173, -32.957229 ], [ -71.285469, -32.958169 ], [ -71.285556, -32.959139 ], [ -71.285417, -32.960519 ], [ -71.285076, -32.962153 ] ] } },
{ "type": "Feature", "properties": { "Obejto": "LINEA FERREA", "Activ_2016": "SI", "Largo_Km": 1.52224857, "st_length_": 1547.08436463 }, "geometry": { "type": "LineString", "coordinates": [ [ -71.321268, -32.942588 ], [ -71.320619, -32.9426 ], [ -71.320141, -32.94268 ], [ -71.318866, -32.943163 ], [ -71.318061, -32.943389 ], [ -71.317434, -32.943489 ], [ -71.316847, -32.94346 ], [ -71.315517, -32.943282 ], [ -71.312843, -32.942352 ], [ -71.312198, -32.94228 ], [ -71.308895, -32.942281 ], [ -71.305329, -32.941379 ] ] } },
{ "type": "Feature", "properties": { "Obejto": "LINEA FERREA", "Activ_2016": "SI", "Largo_Km": 0.9468857, "st_length_": 1155.0907736300001 }, "geometry": { "type": "LineString", "coordinates": [ [ -71.331778, -32.938151 ], [ -71.331364, -32.938897 ], [ -71.330724, -32.939519 ], [ -71.328433, -32.940663 ], [ -71.326894, -32.941601 ], [ -71.32509, -32.942209 ], [ -71.323565, -32.942204 ], [ -71.322033, -32.942535 ], [ -71.321268, -32.942588 ] ] } },
{ "type": "Feature", "properties": { "Obejto": "LINEA FERREA", "Activ_2016": "SI", "Largo_Km": 0.9569234, "st_length_": 946.46975210799997 }, "geometry": { "type": "LineString", "coordinates": [ [ -71.305329, -32.941379 ], [ -71.295665, -32.938848 ] ] } },
{ "type": "Feature", "properties": { "Obejto": "LINEA FERREA", "Activ_2016": "SI", "Largo_Km": 0.60679766, "st_length_": 1040.3958502 }, "geometry": { "type": "LineString", "coordinates": [ [ -71.288193, -32.939098 ], [ -71.285067, -32.9393 ], [ -71.282114, -32.93974 ], [ -71.279968, -32.939922 ], [ -71.278902, -32.939827 ], [ -71.278601, -32.939737 ], [ -71.278083, -32.939425 ], [ -71.277571, -32.938911 ] ] } },
{ "type": "Feature", "properties": { "Obejto": "LINEA FERREA", "Activ_2016": "SI", "Largo_Km": 0.88776363, "st_length_": 701.23392125600003 }, "geometry": { "type": "LineString", "coordinates": [ [ -71.295665, -32.938848 ], [ -71.294838, -32.938745 ], [ -71.288193, -32.939098 ] ] } },
{ "type": "Feature", "properties": { "Obejto": "LINEA FERREA", "Activ_2016": "SI", "Largo_Km": 1.80386506, "st_length_": 1816.0643228199999 }, "geometry": { "type": "LineString", "coordinates": [ [ -71.277571, -32.938911 ], [ -71.269753, -32.929488 ], [ -71.266496, -32.925465 ] ] } },
{ "type": "Feature", "properties": { "Obejto": "LINEA FERREA", "Activ_2016": "SI", "Largo_Km": 12.47158642, "st_length_": 12461.557983500001 }, "geometry": { "type": "LineString", "coordinates": [ [ -71.443053, -32.919524 ], [ -71.440852, -32.918893 ], [ -71.439947, -32.918794 ], [ -71.439048, -32.918928 ], [ -71.437807, -32.91945 ], [ -71.436933, -32.919715 ], [ -71.436433, -32.91971 ], [ -71.436066, -32.91964 ], [ -71.435508, -32.919405 ], [ -71.433855, -32.918404 ], [ -71.431778, -32.916939 ], [ -71.430701, -32.916286 ], [ -71.43001, -32.915982 ], [ -71.429281, -32.915841 ], [ -71.418531, -32.916369 ], [ -71.415976, -32.916259 ], [ -71.414477, -32.916259 ], [ -71.413542, -32.91634 ], [ -71.412382, -32.916591 ], [ -71.411363, -32.916687 ], [ -71.408179, -32.916607 ], [ -71.405784, -32.916834 ], [ -71.404602, -32.916873 ], [ -71.401919, -32.916758 ], [ -71.401202, -32.916777 ], [ -71.400258, -32.916904 ], [ -71.399177, -32.917185 ], [ -71.398487, -32.917287 ], [ -71.387969, -32.917804 ], [ -71.387178, -32.917932 ], [ -71.382834, -32.9189 ], [ -71.382285, -32.918852 ], [ -71.38154, -32.918529 ], [ -71.380417, -32.917834 ], [ -71.379365, -32.916901 ], [ -71.37875, -32.916656 ], [ -71.378214, -32.916577 ], [ -71.377806, -32.91659 ], [ -71.373492, -32.917394 ], [ -71.372088, -32.917371 ], [ -71.370386, -32.917157 ], [ -71.368107, -32.916446 ], [ -71.367704, -32.916415 ], [ -71.367036, -32.916488 ], [ -71.364406, -32.917286 ], [ -71.364078, -32.917303 ], [ -71.362437, -32.917157 ], [ -71.360944, -32.917355 ], [ -71.360255, -32.917357 ], [ -71.359576, -32.917259 ], [ -71.35878, -32.916992 ], [ -71.358115, -32.916856 ], [ -71.354748, -32.916682 ], [ -71.352847, -32.916782 ], [ -71.351341, -32.916984 ], [ -71.350043, -32.91727 ], [ -71.347853, -32.917913 ], [ -71.34269, -32.91975 ], [ -71.34203, -32.920098 ], [ -71.34115, -32.920957 ], [ -71.34055, -32.921312 ], [ -71.334442, -32.923092 ], [ -71.333601, -32.923411 ], [ -71.333231, -32.923763 ], [ -71.332829, -32.92429 ], [ -71.332602, -32.92472 ], [ -71.332357, -32.925635 ], [ -71.331991, -32.93728 ], [ -71.331911, -32.937785 ], [ -71.331778, -32.938151 ] ] } },
{ "type": "Feature", "properties": { "Obejto": "LINEA FERREA", "Activ_2016": "SI", "Largo_Km": 3.01486495, "st_length_": 3274.3105692899999 }, "geometry": { "type": "LineString", "coordinates": [ [ -71.266496, -32.925465 ], [ -71.26027, -32.917781 ], [ -71.258879, -32.916201 ], [ -71.247208, -32.901857 ], [ -71.246679, -32.901138 ] ] } },
{ "type": "Feature", "properties": { "Obejto": "LINEA FERREA", "Activ_2016": "SI", "Largo_Km": 2.76354972, "st_length_": 2742.4290683600002 }, "geometry": { "type": "LineString", "coordinates": [ [ -71.245967, -32.900312 ], [ -71.244953, -32.898833 ], [ -71.244456, -32.897783 ], [ -71.244265, -32.897143 ], [ -71.244085, -32.895874 ], [ -71.2431, -32.885309 ], [ -71.242803, -32.880393 ], [ -71.242061, -32.876011 ] ] } },
{ "type": "Feature", "properties": { "Obejto": null, "Activ_2016": "SI", "Largo_Km": 3.80722201, "st_length_": 4086.7493265200001 }, "geometry": { "type": "LineString", "coordinates": [ [ -71.246679, -32.901138 ], [ -71.244284, -32.898357 ], [ -71.237985, -32.890686 ], [ -71.237329, -32.890015 ], [ -71.236477, -32.889352 ], [ -71.235975, -32.888816 ], [ -71.23541, -32.887938 ], [ -71.235042, -32.887057 ], [ -71.234863, -32.886282 ], [ -71.234619, -32.884529 ], [ -71.234565, -32.883459 ], [ -71.235783, -32.876836 ], [ -71.235865, -32.875728 ], [ -71.235846, -32.869728 ], [ -71.235623, -32.868609 ], [ -71.235236, -32.867633 ] ] } },
{ "type": "Feature", "properties": { "Obejto": "LINEA FERREA", "Activ_2016": "SI", "Largo_Km": 25.54586346, "st_length_": 23664.810803 }, "geometry": { "type": "MultiLineString", "coordinates": [ [ [ -70.966679, -32.842813 ], [ -70.967604, -32.842598 ], [ -70.968461, -32.842235 ], [ -70.969144, -32.841783 ], [ -70.969807, -32.841187 ], [ -70.979068, -32.830277 ], [ -70.980425, -32.828759 ], [ -70.98074, -32.828146 ], [ -70.980927, -32.827498 ], [ -70.980981, -32.826999 ], [ -70.980934, -32.826333 ], [ -70.980861, -32.826005 ], [ -70.980502, -32.825242 ], [ -70.976202, -32.818186 ], [ -70.975052, -32.816565 ], [ -70.974218, -32.815637 ], [ -70.973039, -32.814658 ], [ -70.971817, -32.813928 ] ], [ [ -70.948351, -32.803783 ], [ -70.946659, -32.803964 ], [ -70.944767, -32.804344 ], [ -70.942602, -32.80497 ], [ -70.939817, -32.805867 ], [ -70.936393, -32.806741 ], [ -70.933701, -32.807255 ], [ -70.930813, -32.807593 ], [ -70.92131, -32.808149 ], [ -70.91606, -32.808402 ], [ -70.914576, -32.80839 ], [ -70.91273, -32.808235 ], [ -70.909958, -32.807767 ], [ -70.907967, -32.807244 ], [ -70.905815, -32.806508 ], [ -70.90351, -32.805606 ], [ -70.901261, -32.80461 ], [ -70.877357, -32.794792 ], [ -70.855552, -32.78567 ], [ -70.853895, -32.784907 ], [ -70.851739, -32.783813 ], [ -70.85121, -32.783526 ], [ -70.848612, -32.781841 ], [ -70.844078, -32.778397 ], [ -70.839576, -32.775101 ], [ -70.835155, -32.771699 ], [ -70.833258, -32.77042 ], [ -70.831647, -32.769123 ], [ -70.83093, -32.768322 ], [ -70.826604, -32.765481 ], [ -70.82214, -32.762908 ], [ -70.819584, -32.761052 ], [ -70.815197, -32.758148 ], [ -70.811458, -32.755763 ], [ -70.808964, -32.75436 ], [ -70.806522, -32.753129 ], [ -70.794932, -32.747595 ], [ -70.790713, -32.74582 ], [ -70.787951, -32.744241 ] ] ] } },
{ "type": "Feature", "properties": { "Obejto": "LINEA FERREA", "Activ_2016": "SI", "Largo_Km": 3.49673687, "st_length_": 3719.0760204200001 }, "geometry": { "type": "LineString", "coordinates": [ [ -71.195191, -32.791284 ], [ -71.194176, -32.790387 ], [ -71.19337, -32.78935 ], [ -71.193152, -32.788979 ], [ -71.193055, -32.788663 ], [ -71.192949, -32.787854 ], [ -71.19298, -32.787365 ], [ -71.194422, -32.777669 ], [ -71.194356, -32.777023 ], [ -71.193649, -32.775053 ], [ -71.193458, -32.774023 ], [ -71.193576, -32.769551 ], [ -71.194457, -32.765696 ], [ -71.195693, -32.758699 ] ] } },
{ "type": "Feature", "properties": { "Obejto": "LINEA FERREA", "Activ_2016": "SI", "Largo_Km": 4.30504907, "st_length_": 4305.0490664500003 }, "geometry": { "type": "LineString", "coordinates": [ [ -70.768655, -32.737011 ], [ -70.767869, -32.736847 ], [ -70.766275, -32.736698 ], [ -70.764604, -32.736663 ], [ -70.7613, -32.737778 ], [ -70.758317, -32.739574 ], [ -70.753167, -32.742058 ], [ -70.752137, -32.743051 ], [ -70.749985, -32.743681 ], [ -70.745881, -32.74703 ], [ -70.740014, -32.751468 ], [ -70.737709, -32.752605 ], [ -70.736687, -32.753201 ], [ -70.735588, -32.75419 ], [ -70.734604, -32.75603 ], [ -70.731583, -32.757307 ] ] } },
{ "type": "Feature", "properties": { "Obejto": "LINEA FERREA", "Activ_2016": "SI", "Largo_Km": 1.98893768, "st_length_": 1988.93767736 }, "geometry": { "type": "LineString", "coordinates": [ [ -70.787951, -32.744241 ], [ -70.785387, -32.74278 ], [ -70.782824, -32.741604 ], [ -70.776461, -32.739841 ], [ -70.772638, -32.73824 ], [ -70.769929, -32.737282 ], [ -70.768655, -32.737011 ] ] } },
{ "type": "Feature", "properties": { "Obejto": "LINEA FERREA", "Activ_2016": "SI", "Largo_Km": 17.919908, "st_length_": 18198.107741299998 }, "geometry": { "type": "LineString", "coordinates": [ [ -71.195693, -32.758699 ], [ -71.19641, -32.753903 ], [ -71.196997, -32.751606 ], [ -71.197165, -32.75026 ], [ -71.19742, -32.749155 ], [ -71.197941, -32.747866 ], [ -71.204383, -32.735771 ], [ -71.204792, -32.735129 ], [ -71.20542, -32.734315 ], [ -71.207067, -32.732662 ], [ -71.207865, -32.731655 ], [ -71.210436, -32.727398 ], [ -71.2165, -32.716553 ], [ -71.216726, -32.715923 ], [ -71.216855, -32.714942 ], [ -71.216448, -32.711373 ], [ -71.216092, -32.710127 ], [ -71.215534, -32.708934 ], [ -71.214785, -32.707916 ], [ -71.21381, -32.706998 ], [ -71.213053, -32.706479 ], [ -71.210366, -32.704965 ], [ -71.209793, -32.704147 ], [ -71.20947, -32.703236 ], [ -71.209622, -32.702022 ], [ -71.209837, -32.701464 ], [ -71.210043, -32.701158 ], [ -71.210691, -32.700575 ], [ -71.21175, -32.699092 ], [ -71.21225, -32.698251 ], [ -71.212631, -32.697366 ], [ -71.212837, -32.696682 ], [ -71.213051, -32.695536 ], [ -71.213618, -32.691817 ], [ -71.213808, -32.691112 ], [ -71.214167, -32.690196 ], [ -71.214877, -32.689274 ], [ -71.215735, -32.688448 ], [ -71.216116, -32.688147 ], [ -71.218224, -32.686861 ], [ -71.218675, -32.686482 ], [ -71.219298, -32.685759 ], [ -71.219803, -32.684776 ], [ -71.220111, -32.683338 ], [ -71.221418, -32.672213 ], [ -71.221361, -32.670985 ], [ -71.221055, -32.669535 ], [ -71.22017, -32.66773 ], [ -71.21902, -32.665085 ], [ -71.218857, -32.664449 ], [ -71.218924, -32.66367 ], [ -71.219861, -32.661777 ], [ -71.220238, -32.661133 ], [ -71.220997, -32.660123 ], [ -71.225432, -32.655003 ], [ -71.226214, -32.654485 ], [ -71.227103, -32.654112 ], [ -71.232552, -32.653584 ], [ -71.238579, -32.653779 ], [ -71.243401, -32.653865 ], [ -71.244148, -32.653991 ], [ -71.247146, -32.655084 ], [ -71.247659, -32.655404 ], [ -71.248703, -32.656441 ], [ -71.249015, -32.656629 ], [ -71.249478, -32.656728 ], [ -71.250036, -32.656627 ], [ -71.250451, -32.656381 ], [ -71.250814, -32.656035 ], [ -71.251645, -32.654574 ], [ -71.252174, -32.653902 ], [ -71.25646, -32.649878 ], [ -71.257209, -32.649395 ], [ -71.259204, -32.648734 ], [ -71.260581, -32.647334 ], [ -71.261696, -32.645787 ], [ -71.261885, -32.645375 ], [ -71.262238, -32.644867 ], [ -71.263029, -32.644494 ], [ -71.264331, -32.644138 ], [ -71.264904, -32.64389 ], [ -71.266937, -32.642686 ], [ -71.267443, -32.642285 ], [ -71.268076, -32.641638 ], [ -71.268332, -32.641517 ], [ -71.269169, -32.641293 ], [ -71.270626, -32.641189 ], [ -71.271432, -32.640953 ], [ -71.273202, -32.639467 ] ] } },
{ "type": "Feature", "properties": { "Obejto": null, "Activ_2016": null, "Largo_Km": 15.03808026, "st_length_": 15038.080256499999 }, "geometry": { "type": "LineString", "coordinates": [ [ -70.73095, -32.758175 ], [ -70.732556, -32.75763 ], [ -70.735291, -32.756867 ], [ -70.735501, -32.756774 ], [ -70.735704, -32.756572 ], [ -70.735851, -32.756229 ], [ -70.735898, -32.755986 ], [ -70.73582, -32.755535 ], [ -70.734691, -32.753668 ], [ -70.733731, -32.751397 ], [ -70.733627, -32.750756 ], [ -70.734197, -32.744752 ], [ -70.735066, -32.737858 ], [ -70.734858, -32.735699 ], [ -70.734932, -32.734917 ], [ -70.735507, -32.733587 ], [ -70.736145, -32.73262 ], [ -70.742089, -32.724817 ], [ -70.742612, -32.723982 ], [ -70.744724, -32.717896 ], [ -70.744925, -32.717092 ], [ -70.744915, -32.716759 ], [ -70.744821, -32.716416 ], [ -70.744189, -32.714571 ] ] } },
{ "type": "Feature", "properties": { "Obejto": "LINEA FERREA", "Activ_2016": "SI", "Largo_Km": 12.19765005, "st_length_": 14356.586650699999 }, "geometry": { "type": "LineString", "coordinates": [ [ -71.273202, -32.639467 ], [ -71.277858, -32.63577 ] ] } }
]
}
