{
"type": "FeatureCollection",
"name": "red_de_quebradas_criticas_dga",
"crs": { "type": "name", "properties": { "name": "urn:ogc:def:crs:OGC:1.3:CRS84" } },
"xy_coordinate_resolution": 1e-06,
"features": [
{ "type": "Feature", "properties": { "objectid": 45473, "fid_drenes": 113560, "cod_comuna": 5109, "shape_leng": 890.69058051000002, "st_length_": 1060.38807445, "Nombre": "Estero Renaca", "Dren_Tipo": "Estero", "Region": "Región de Valparaíso", "Provincia": "Valparaíso", "Comuna": "Viña del Mar" }, "geometry": { "type": "LineString", "coordinates": [ [ -71.544933, -32.97305 ], [ -71.544177, -32.972955 ], [ -71.543225, -32.972864 ], [ -71.540208, -32.972677 ], [ -71.537257, -32.972516 ], [ -71.535878, -32.972379 ], [ -71.535461, -32.972284 ] ] } },
{ "type": "Feature", "properties": { "objectid": 45486, "fid_drenes": 113586, "cod_comuna": 5109, "shape_leng": 1548.53760283, "st_length_": 1851.19820273, "Nombre": null, "Dren_Tipo": "Quebrada", "Region": "Región de Valparaíso", "Provincia": "Valparaíso", "Comuna": "Viña del Mar" }, "geometry": { "type": "LineString", "coordinates": [ [ -71.534999, -32.972023 ], [ -71.534956, -32.97223 ], [ -71.534838, -32.97253 ], [ -71.534671, -32.973799 ], [ -71.534395, -32.974722 ], [ -71.534421, -32.974938 ], [ -71.534378, -32.975151 ], [ -71.53427, -32.975348 ], [ -71.534166, -32.975462 ], [ -71.533767, -32.975768 ], [ -71.533398, -32.976113 ], [ -71.533299, -32.97633 ], [ -71.533227, -32.976555 ], [ -71.533183, -32.976785 ], [ -71.533384, -32.977264 ], [ -71.533455, -32.977591 ], [ -71.533497, -32.977921 ], [ -71.533433, -32.978126 ], [ -71.533341, -32.978324 ], [ -71.533221, -32.978511 ], [ -71.533075, -32.978685 ], [ -71.53297, -32.979183 ], [ -71.533137, -32.979781 ], [ -71.53318, -32.979983 ], [ -71.533169, -32.980054 ], [ -71.533124, -32.980192 ], [ -71.533004, -32.980381 ], [ -71.532892, -32.98049 ], [ -71.532734, -32.980574 ], [ -71.532592, -32.980677 ], [ -71.532417, -32.980862 ], [ -71.53227, -32.981111 ], [ -71.532141, -32.981452 ], [ -71.532093, -32.981687 ], [ -71.531998, -32.982432 ], [ -71.531945, -32.983733 ], [ -71.531904, -32.984191 ], [ -71.531721, -32.984938 ], [ -71.531748, -32.9851 ] ] } },
{ "type": "Feature", "properties": { "objectid": 48877, "fid_drenes": 113556, "cod_comuna": 5109, "shape_leng": 1367.0843762899999, "st_length_": 1550.26876204, "Nombre": "Estero Renaca", "Dren_Tipo": "Estero", "Region": "Región de Valparaíso", "Provincia": "Valparaíso", "Comuna": "Viña del Mar" }, "geometry": { "type": "LineString", "coordinates": [ [ -71.535461, -32.972284 ], [ -71.535393, -32.972273 ], [ -71.535232, -32.972151 ], [ -71.535053, -32.972048 ], [ -71.534759, -32.971933 ], [ -71.534145, -32.971583 ], [ -71.533499, -32.971278 ], [ -71.533163, -32.971219 ], [ -71.532933, -32.971214 ], [ -71.532778, -32.97123 ], [ -71.532555, -32.971293 ], [ -71.532358, -32.971399 ], [ -71.532245, -32.97149 ], [ -71.531996, -32.971739 ], [ -71.531725, -32.971921 ], [ -71.531241, -32.972159 ], [ -71.530603, -32.972516 ], [ -71.530222, -32.972695 ], [ -71.53, -32.97275 ], [ -71.529772, -32.972784 ], [ -71.529542, -32.972795 ], [ -71.529212, -32.972771 ], [ -71.529068, -32.972782 ], [ -71.528665, -32.972878 ], [ -71.528354, -32.9729 ], [ -71.528228, -32.972924 ], [ -71.52811, -32.972968 ], [ -71.527994, -32.973037 ], [ -71.527883, -32.973128 ], [ -71.527754, -32.973289 ], [ -71.527554, -32.973433 ], [ -71.527338, -32.973559 ], [ -71.527108, -32.973666 ], [ -71.526808, -32.973777 ], [ -71.526684, -32.973809 ], [ -71.526555, -32.973822 ], [ -71.526426, -32.973814 ], [ -71.526142, -32.973758 ], [ -71.525993, -32.973707 ], [ -71.525857, -32.973633 ], [ -71.525716, -32.973436 ], [ -71.525604, -32.973225 ], [ -71.525521, -32.973006 ], [ -71.52547, -32.97274 ], [ -71.52542, -32.972592 ], [ -71.525344, -32.972452 ], [ -71.525213, -32.972295 ] ] } },
{ "type": "Feature", "properties": { "objectid": 48901, "fid_drenes": 113628, "cod_comuna": 5109, "shape_leng": 3606.7362896599998, "st_length_": 4300.9741187899999, "Nombre": null, "Dren_Tipo": "Quebrada", "Region": "Región de Valparaíso", "Provincia": "Valparaíso", "Comuna": "Viña del Mar" }, "geometry": { "type": "LineString", "coordinates": [ [ -71.547594, -32.99385 ], [ -71.547164, -32.993768 ], [ -71.546871, -32.993746 ], [ -71.546577, -32.993748 ], [ -71.546331, -32.993837 ], [ -71.546099, -32.99395 ], [ -71.545784, -32.994159 ], [ -71.5456, -32.994323 ], [ -71.54544, -32.994504 ], [ -71.544874, -32.994941 ], [ -71.544133, -32.995547 ], [ -71.543005, -32.996546 ], [ -71.542868, -32.996642 ], [ -71.542697, -32.996727 ], [ -71.542416, -32.996806 ], [ -71.542132, -32.996823 ], [ -71.541851, -32.996782 ], [ -71.541591, -32.996685 ], [ -71.541335, -32.996639 ], [ -71.541088, -32.996567 ], [ -71.540853, -32.99647 ], [ -71.540634, -32.996349 ], [ -71.540434, -32.996207 ], [ -71.54011, -32.995889 ], [ -71.539832, -32.995542 ], [ -71.539678, -32.995302 ], [ -71.539548, -32.995058 ], [ -71.539474, -32.994995 ], [ -71.539381, -32.994953 ], [ -71.539277, -32.994938 ], [ -71.539123, -32.994965 ], [ -71.539035, -32.995014 ], [ -71.538969, -32.995083 ], [ -71.538788, -32.995186 ], [ -71.538592, -32.995266 ], [ -71.538385, -32.995322 ], [ -71.537747, -32.995407 ], [ -71.537481, -32.995384 ], [ -71.537216, -32.995418 ], [ -71.536857, -32.995656 ], [ -71.536539, -32.995933 ], [ -71.535582, -32.996265 ], [ -71.535269, -32.996524 ], [ -71.534937, -32.996766 ], [ -71.53479, -32.996948 ], [ -71.534572, -32.99726 ], [ -71.534463, -32.997368 ], [ -71.534333, -32.997458 ], [ -71.534186, -32.997528 ], [ -71.533587, -32.997672 ], [ -71.533333, -32.997716 ], [ -71.533101, -32.9978 ], [ -71.532965, -32.997884 ], [ -71.532849, -32.997986 ], [ -71.532659, -32.998264 ], [ -71.532533, -32.998394 ], [ -71.532386, -32.998506 ], [ -71.53222, -32.998598 ], [ -71.531998, -32.998697 ], [ -71.531544, -32.998877 ], [ -71.53146, -32.999009 ], [ -71.53144, -32.999157 ], [ -71.531485, -32.999302 ], [ -71.531605, -32.999467 ], [ -71.53164, -32.999566 ], [ -71.53164, -32.99972 ], [ -71.531604, -32.999819 ], [ -71.531541, -32.999908 ], [ -71.53123, -33.000051 ], [ -71.530957, -33.000241 ], [ -71.530771, -33.000417 ], [ -71.530718, -33.000545 ], [ -71.530717, -33.000636 ], [ -71.530744, -33.000724 ], [ -71.530927, -33.000991 ], [ -71.531049, -33.001281 ], [ -71.531133, -33.0017 ], [ -71.531127, -33.001817 ], [ -71.531089, -33.001929 ], [ -71.530975, -33.002076 ], [ -71.530754, -33.002158 ], [ -71.530566, -33.002285 ], [ -71.530466, -33.002391 ], [ -71.530353, -33.002577 ], [ -71.530286, -33.00265 ], [ -71.530196, -33.002703 ], [ -71.530047, -33.002749 ], [ -71.529966, -33.0028 ], [ -71.529909, -33.00287 ], [ -71.529875, -33.002994 ], [ -71.529807, -33.003067 ], [ -71.529717, -33.003119 ], [ -71.529557, -33.003149 ], [ -71.529452, -33.003225 ], [ -71.529337, -33.00337 ], [ -71.529293, -33.00348 ], [ -71.52879, -33.003897 ], [ -71.528572, -33.003899 ], [ -71.528252, -33.003851 ], [ -71.528048, -33.003787 ], [ -71.527657, -33.003603 ], [ -71.527425, -33.003536 ], [ -71.527184, -33.003496 ], [ -71.527067, -33.003441 ], [ -71.526937, -33.003411 ], [ -71.526803, -33.003408 ], [ -71.526671, -33.003431 ], [ -71.52655, -33.00348 ], [ -71.526446, -33.003551 ], [ -71.526104, -33.003545 ] ] } },
{ "type": "Feature", "properties": { "objectid": 48917, "fid_drenes": 113651, "cod_comuna": 5109, "shape_leng": 1843.8101132500001, "st_length_": 2188.13109201, "Nombre": null, "Dren_Tipo": "Quebrada", "Region": "Región de Valparaíso", "Provincia": "Valparaíso", "Comuna": "Viña del Mar" }, "geometry": { "type": "LineString", "coordinates": [ [ -71.556309, -33.014116 ], [ -71.555657, -33.014355 ], [ -71.554919, -33.014599 ], [ -71.55093, -33.015201 ], [ -71.542788, -33.016396 ], [ -71.542695, -33.016427 ], [ -71.542616, -33.01648 ], [ -71.542559, -33.016551 ], [ -71.542508, -33.016664 ], [ -71.542449, -33.016716 ], [ -71.542372, -33.016748 ], [ -71.542287, -33.016756 ], [ -71.542203, -33.016739 ], [ -71.541993, -33.016615 ], [ -71.541838, -33.016554 ], [ -71.541672, -33.01652 ], [ -71.541288, -33.016496 ], [ -71.54098, -33.016424 ], [ -71.540787, -33.016347 ], [ -71.540609, -33.016249 ], [ -71.540382, -33.016182 ], [ -71.540066, -33.016037 ], [ -71.539876, -33.015914 ], [ -71.539705, -33.015772 ], [ -71.539493, -33.015527 ], [ -71.539138, -33.015158 ], [ -71.538881, -33.014829 ], [ -71.538756, -33.014716 ], [ -71.538611, -33.014622 ], [ -71.538449, -33.014549 ], [ -71.538185, -33.014485 ] ] } },
{ "type": "Feature", "properties": { "objectid": 48920, "fid_drenes": 113658, "cod_comuna": 5109, "shape_leng": 3598.5741280100001, "st_length_": 4302.7345415500004, "Nombre": null, "Dren_Tipo": "Quebrada", "Region": "Región de Valparaíso", "Provincia": "Valparaíso", "Comuna": "Viña del Mar" }, "geometry": { "type": "LineString", "coordinates": [ [ -71.533522, -33.013055 ], [ -71.533279, -33.01316 ], [ -71.533064, -33.013302 ], [ -71.532599, -33.013744 ], [ -71.532138, -33.014283 ], [ -71.531997, -33.014376 ], [ -71.531806, -33.014435 ], [ -71.531639, -33.014453 ], [ -71.531471, -33.014451 ], [ -71.531223, -33.01441 ], [ -71.531066, -33.014358 ], [ -71.53083, -33.014249 ], [ -71.530374, -33.014012 ], [ -71.529922, -33.013834 ], [ -71.529445, -33.013708 ], [ -71.529119, -33.013655 ], [ -71.528966, -33.013648 ], [ -71.52851, -33.013669 ], [ -71.528064, -33.013755 ], [ -71.527641, -33.013903 ], [ -71.527378, -33.014033 ], [ -71.527164, -33.01416 ], [ -71.526971, -33.014247 ], [ -71.526658, -33.01433 ], [ -71.526412, -33.01435 ] ] } },
{ "type": "Feature", "properties": { "objectid": 48926, "fid_drenes": 113675, "cod_comuna": 5109, "shape_leng": 6238.3729648999997, "st_length_": 7669.2227037800003, "Nombre": "Estero Vina del Mar", "Dren_Tipo": "Estero", "Region": "Región de Valparaíso", "Provincia": "Valparaíso", "Comuna": "Viña del Mar" }, "geometry": { "type": "LineString", "coordinates": [ [ -71.562128, -33.019157 ], [ -71.561996, -33.019317 ], [ -71.561935, -33.019682 ], [ -71.561332, -33.020435 ], [ -71.560075, -33.021154 ], [ -71.559452, -33.021465 ], [ -71.5588, -33.021729 ], [ -71.55835, -33.021878 ], [ -71.557891, -33.022005 ], [ -71.557658, -33.022059 ], [ -71.557437, -33.022093 ], [ -71.556767, -33.022159 ], [ -71.556318, -33.022172 ], [ -71.555635, -33.02216 ], [ -71.555331, -33.022183 ], [ -71.550666, -33.022869 ], [ -71.548785, -33.023124 ], [ -71.547527, -33.023269 ], [ -71.546265, -33.023393 ], [ -71.545634, -33.023448 ], [ -71.545078, -33.023466 ], [ -71.544679, -33.02351 ], [ -71.544284, -33.023574 ], [ -71.543895, -33.02366 ], [ -71.543513, -33.023766 ], [ -71.542958, -33.023964 ], [ -71.541602, -33.024709 ], [ -71.540716, -33.025229 ], [ -71.539846, -33.025768 ], [ -71.538581, -33.026447 ], [ -71.538099, -33.026754 ], [ -71.537653, -33.027098 ], [ -71.5366, -33.028035 ], [ -71.535871, -33.02864 ], [ -71.535362, -33.029024 ], [ -71.534836, -33.02939 ], [ -71.533941, -33.03007 ], [ -71.533421, -33.030493 ], [ -71.533051, -33.030753 ], [ -71.532664, -33.030995 ], [ -71.532477, -33.031177 ], [ -71.532056, -33.031433 ], [ -71.530891, -33.032259 ], [ -71.530117, -33.032752 ], [ -71.529327, -33.033228 ], [ -71.528625, -33.033705 ], [ -71.528544, -33.033809 ], [ -71.528486, -33.034009 ], [ -71.52849, -33.034144 ], [ -71.528569, -33.034234 ], [ -71.528597, -33.034303 ], [ -71.5286, -33.034416 ], [ -71.528557, -33.034471 ], [ -71.528419, -33.03456 ], [ -71.528141, -33.034678 ], [ -71.528054, -33.034756 ], [ -71.52789, -33.034829 ], [ -71.52773, -33.034848 ], [ -71.527692, -33.034865 ], [ -71.527636, -33.034915 ], [ -71.52751, -33.034977 ], [ -71.527442, -33.035064 ], [ -71.527443, -33.03508 ], [ -71.527412, -33.035102 ], [ -71.527009, -33.035243 ] ] } },
{ "type": "Feature", "properties": { "objectid": 48942, "fid_drenes": 113706, "cod_comuna": 5109, "shape_leng": 919.89111167, "st_length_": 1097.77716584, "Nombre": null, "Dren_Tipo": "Quebrada", "Region": "Región de Valparaíso", "Provincia": "Valparaíso", "Comuna": "Viña del Mar" }, "geometry": { "type": "LineString", "coordinates": [ [ -71.586296, -33.028797 ], [ -71.585888, -33.0289 ], [ -71.585684, -33.028966 ], [ -71.585495, -33.029057 ], [ -71.585249, -33.029238 ], [ -71.584985, -33.029692 ], [ -71.584834, -33.030004 ], [ -71.584435, -33.030631 ], [ -71.583802, -33.031069 ], [ -71.583469, -33.03126 ], [ -71.583177, -33.031496 ], [ -71.583007, -33.031673 ], [ -71.582839, -33.03188 ], [ -71.58268, -33.032119 ], [ -71.58255, -33.032371 ], [ -71.582333, -33.032563 ], [ -71.58216, -33.032664 ], [ -71.581971, -33.032741 ], [ -71.581615, -33.032772 ], [ -71.58101, -33.032744 ], [ -71.580737, -33.032784 ], [ -71.580504, -33.03285 ], [ -71.580221, -33.032953 ], [ -71.579952, -33.033079 ], [ -71.579823, -33.033151 ], [ -71.579581, -33.033328 ], [ -71.579398, -33.033422 ], [ -71.579201, -33.033494 ], [ -71.578995, -33.033542 ] ] } },
{ "type": "Feature", "properties": { "objectid": 48944, "fid_drenes": 113712, "cod_comuna": 5101, "shape_leng": 1561.32873808, "st_length_": 1942.8085177200001, "Nombre": "Quebrada de La Pintara", "Dren_Tipo": "Quebrada", "Region": "Región de Valparaíso", "Provincia": "Valparaíso", "Comuna": "Valparaíso" }, "geometry": { "type": "LineString", "coordinates": [ [ -71.644018, -33.022138 ], [ -71.644083, -33.022012 ], [ -71.643983, -33.022286 ], [ -71.643811, -33.022555 ], [ -71.643763, -33.022675 ], [ -71.643696, -33.022779 ], [ -71.643503, -33.02295 ], [ -71.643294, -33.023239 ], [ -71.643176, -33.023355 ], [ -71.643109, -33.023464 ], [ -71.643022, -33.023541 ], [ -71.642968, -33.023713 ], [ -71.642758, -33.023892 ], [ -71.642498, -33.023967 ], [ -71.642347, -33.024046 ], [ -71.642253, -33.024123 ], [ -71.642205, -33.02421 ], [ -71.642077, -33.024644 ], [ -71.641972, -33.02478 ], [ -71.64186, -33.024874 ], [ -71.641632, -33.02492 ], [ -71.641526, -33.024978 ], [ -71.641385, -33.025006 ], [ -71.641272, -33.025082 ], [ -71.641223, -33.025153 ], [ -71.641201, -33.025232 ], [ -71.64121, -33.025869 ], [ -71.64117, -33.026071 ], [ -71.641096, -33.026267 ], [ -71.641041, -33.02655 ], [ -71.640998, -33.026599 ], [ -71.640825, -33.026723 ], [ -71.64074, -33.027032 ], [ -71.640563, -33.027239 ], [ -71.640541, -33.027363 ], [ -71.64053, -33.027632 ], [ -71.640558, -33.027917 ], [ -71.640635, -33.028028 ], [ -71.640733, -33.02822 ], [ -71.640755, -33.028333 ], [ -71.640746, -33.028457 ], [ -71.640695, -33.028668 ], [ -71.640709, -33.028921 ], [ -71.640682, -33.029099 ], [ -71.640628, -33.029202 ], [ -71.640474, -33.029301 ], [ -71.640351, -33.029345 ], [ -71.640288, -33.029398 ], [ -71.640237, -33.029501 ], [ -71.640237, -33.029576 ], [ -71.64019, -33.029629 ], [ -71.640178, -33.029672 ], [ -71.640204, -33.029756 ], [ -71.640262, -33.0298 ], [ -71.640312, -33.029814 ], [ -71.640364, -33.029814 ], [ -71.64055, -33.029712 ], [ -71.640614, -33.029695 ], [ -71.640699, -33.029714 ], [ -71.640747, -33.029772 ], [ -71.640769, -33.029875 ], [ -71.640749, -33.029943 ], [ -71.640762, -33.030017 ], [ -71.640746, -33.030133 ], [ -71.640765, -33.030184 ], [ -71.640918, -33.030398 ], [ -71.640924, -33.030542 ], [ -71.641024, -33.030685 ], [ -71.641002, -33.030799 ], [ -71.641069, -33.030905 ], [ -71.641153, -33.030947 ], [ -71.641213, -33.031021 ], [ -71.641239, -33.031134 ], [ -71.641332, -33.031274 ], [ -71.641452, -33.031398 ], [ -71.641622, -33.031728 ], [ -71.641828, -33.032239 ], [ -71.641934, -33.032588 ], [ -71.642061, -33.032941 ], [ -71.642216, -33.033286 ], [ -71.642524, -33.03385 ], [ -71.642576, -33.034012 ], [ -71.642601, -33.034178 ] ] } },
{ "type": "Feature", "properties": { "objectid": 48957, "fid_drenes": 113729, "cod_comuna": 5101, "shape_leng": 1860.9378152500001, "st_length_": 2272.4356979499998, "Nombre": "Quebrada La Tortuga", "Dren_Tipo": "Quebrada", "Region": "Región de Valparaíso", "Provincia": "Valparaíso", "Comuna": "Valparaíso" }, "geometry": { "type": "LineString", "coordinates": [ [ -71.654129, -33.029028 ], [ -71.654041, -33.029079 ], [ -71.653985, -33.02914 ], [ -71.653952, -33.0293 ], [ -71.653877, -33.02939 ], [ -71.653688, -33.029469 ], [ -71.653621, -33.029562 ], [ -71.653552, -33.029606 ], [ -71.65321, -33.029716 ], [ -71.653054, -33.029838 ], [ -71.65298, -33.029958 ], [ -71.652962, -33.030143 ], [ -71.652829, -33.030317 ], [ -71.652723, -33.03042 ], [ -71.65264, -33.030537 ], [ -71.652584, -33.030665 ], [ -71.652556, -33.030796 ], [ -71.652514, -33.030911 ], [ -71.652441, -33.031015 ], [ -71.652341, -33.031103 ], [ -71.652343, -33.031164 ], [ -71.65231, -33.031219 ], [ -71.652273, -33.031245 ], [ -71.652142, -33.031279 ], [ -71.652033, -33.031334 ], [ -71.651942, -33.03141 ], [ -71.651853, -33.031553 ], [ -71.651741, -33.031629 ], [ -71.651548, -33.03171 ], [ -71.651409, -33.031739 ], [ -71.651284, -33.031917 ], [ -71.651184, -33.032106 ], [ -71.651057, -33.032213 ], [ -71.65089, -33.032271 ], [ -71.650559, -33.032273 ], [ -71.650421, -33.032298 ], [ -71.65023, -33.032376 ], [ -71.649489, -33.032573 ], [ -71.648599, -33.032886 ], [ -71.648219, -33.033099 ], [ -71.648028, -33.033142 ], [ -71.647371, -33.033423 ], [ -71.647073, -33.033724 ], [ -71.646854, -33.033909 ], [ -71.646553, -33.034061 ], [ -71.646238, -33.034189 ], [ -71.646174, -33.034259 ], [ -71.646124, -33.034292 ], [ -71.646035, -33.034311 ], [ -71.645721, -33.034301 ], [ -71.645583, -33.03439 ], [ -71.645509, -33.034467 ], [ -71.645378, -33.034567 ], [ -71.645308, -33.034816 ], [ -71.645196, -33.03491 ], [ -71.645089, -33.034971 ], [ -71.64499, -33.03506 ], [ -71.644866, -33.035208 ], [ -71.644819, -33.035322 ], [ -71.644821, -33.035408 ], [ -71.644803, -33.035451 ], [ -71.644683, -33.035497 ], [ -71.644543, -33.035516 ], [ -71.644462, -33.035598 ], [ -71.644272, -33.035861 ], [ -71.644188, -33.036035 ], [ -71.644126, -33.036101 ], [ -71.643904, -33.036221 ], [ -71.643796, -33.03634 ], [ -71.643682, -33.036544 ], [ -71.643634, -33.036765 ], [ -71.643575, -33.036933 ], [ -71.643429, -33.037165 ], [ -71.643222, -33.03736 ], [ -71.642889, -33.037532 ], [ -71.642599, -33.037752 ], [ -71.64236, -33.038105 ], [ -71.642137, -33.0384 ], [ -71.641816, -33.038742 ], [ -71.641571, -33.038948 ], [ -71.641167, -33.039221 ], [ -71.640876, -33.03938 ], [ -71.640569, -33.039515 ], [ -71.640406, -33.039633 ], [ -71.640227, -33.039733 ], [ -71.639935, -33.039847 ] ] } },
{ "type": "Feature", "properties": { "objectid": 48958, "fid_drenes": 113732, "cod_comuna": 5109, "shape_leng": 2589.32890929, "st_length_": 5070.9398356600004, "Nombre": null, "Dren_Tipo": "Quebrada", "Region": "Región de Valparaíso", "Provincia": "Valparaíso", "Comuna": "Viña del Mar" }, "geometry": { "type": "LineString", "coordinates": [ [ -71.552637, -33.027824 ], [ -71.552754, -33.028069 ], [ -71.55285, -33.028321 ], [ -71.552885, -33.0286 ], [ -71.552872, -33.02888 ], [ -71.552892, -33.029027 ], [ -71.552951, -33.029319 ], [ -71.553083, -33.029748 ], [ -71.553111, -33.029969 ], [ -71.553082, -33.03019 ], [ -71.552969, -33.030479 ], [ -71.552916, -33.030721 ], [ -71.552921, -33.030968 ], [ -71.552971, -33.031177 ], [ -71.552956, -33.03125 ], [ -71.552922, -33.031291 ], [ -71.552847, -33.03133 ], [ -71.552564, -33.031304 ], [ -71.552374, -33.031315 ], [ -71.552268, -33.031488 ], [ -71.552213, -33.031679 ], [ -71.552208, -33.031809 ], [ -71.552228, -33.031938 ], [ -71.552273, -33.032063 ], [ -71.552341, -33.032181 ], [ -71.552407, -33.032344 ], [ -71.55246, -33.032599 ], [ -71.552456, -33.032857 ], [ -71.552374, -33.033003 ], [ -71.552351, -33.03311 ], [ -71.552356, -33.033218 ], [ -71.552389, -33.033322 ], [ -71.552447, -33.033419 ], [ -71.552529, -33.033502 ], [ -71.55263, -33.033569 ], [ -71.552667, -33.033631 ], [ -71.552724, -33.033761 ], [ -71.552766, -33.033965 ], [ -71.552755, -33.034172 ], [ -71.552558, -33.035024 ], [ -71.552537, -33.035222 ], [ -71.552546, -33.03552 ], [ -71.552503, -33.03566 ], [ -71.552437, -33.035792 ], [ -71.552348, -33.035915 ], [ -71.552239, -33.036026 ], [ -71.552219, -33.036208 ], [ -71.552011, -33.03691 ], [ -71.551956, -33.037008 ], [ -71.551922, -33.03717 ], [ -71.551874, -33.037252 ], [ -71.551793, -33.037334 ], [ -71.551789, -33.03742 ], [ -71.55183, -33.037506 ], [ -71.551856, -33.037747 ], [ -71.551793, -33.038002 ], [ -71.551795, -33.038061 ], [ -71.551772, -33.038148 ], [ -71.55173, -33.038272 ], [ -71.551675, -33.038354 ], [ -71.551652, -33.038425 ], [ -71.551651, -33.038629 ], [ -71.551621, -33.038695 ], [ -71.55146, -33.038886 ], [ -71.551443, -33.038935 ], [ -71.551434, -33.039065 ], [ -71.551386, -33.039195 ], [ -71.551386, -33.039405 ], [ -71.551301, -33.039778 ], [ -71.551304, -33.039896 ], [ -71.551176, -33.040093 ], [ -71.55114, -33.04019 ], [ -71.551073, -33.040294 ], [ -71.550986, -33.040371 ], [ -71.550973, -33.040399 ], [ -71.550961, -33.04062 ], [ -71.550942, -33.040652 ], [ -71.55088, -33.040702 ], [ -71.550881, -33.040723 ], [ -71.550868, -33.040724 ], [ -71.550825, -33.040795 ], [ -71.550826, -33.040816 ], [ -71.550739, -33.04092 ], [ -71.550633, -33.041019 ], [ -71.550585, -33.041117 ], [ -71.550573, -33.041155 ], [ -71.550588, -33.041451 ], [ -71.550603, -33.041531 ], [ -71.550663, -33.041566 ], [ -71.550593, -33.041728 ], [ -71.550535, -33.041984 ], [ -71.550522, -33.042152 ], [ -71.550335, -33.042409 ], [ -71.550263, -33.042583 ], [ -71.550171, -33.042725 ], [ -71.550145, -33.042919 ], [ -71.550103, -33.043017 ], [ -71.550115, -33.043205 ], [ -71.550148, -33.043258 ], [ -71.550285, -33.043358 ], [ -71.550685, -33.043484 ], [ -71.55107, -33.043584 ], [ -71.551201, -33.043845 ], [ -71.551251, -33.044029 ], [ -71.55127, -33.044312 ], [ -71.551124, -33.045951 ], [ -71.551135, -33.046582 ], [ -71.551325, -33.046836 ], [ -71.55131, -33.047198 ], [ -71.551251, -33.047371 ], [ -71.551254, -33.047479 ], [ -71.551275, -33.047511 ], [ -71.551277, -33.047591 ], [ -71.551241, -33.047684 ], [ -71.551247, -33.047872 ], [ -71.551271, -33.048049 ], [ -71.551312, -33.048134 ], [ -71.551313, -33.048398 ], [ -71.55131, -33.048517 ], [ -71.551143, -33.049172 ], [ -71.551151, -33.049425 ], [ -71.551193, -33.049564 ], [ -71.551316, -33.049677 ], [ -71.551563, -33.049976 ], [ -71.551605, -33.05011 ], [ -71.551636, -33.050287 ], [ -71.551643, -33.050518 ], [ -71.551588, -33.050842 ], [ -71.551541, -33.050967 ], [ -71.551274, -33.051253 ], [ -71.551271, -33.051377 ], [ -71.551253, -33.051404 ], [ -71.551222, -33.051679 ], [ -71.551193, -33.051777 ], [ -71.551186, -33.051971 ], [ -71.551134, -33.05216 ], [ -71.55114, -33.052359 ], [ -71.551207, -33.052482 ], [ -71.551279, -33.052556 ], [ -71.551462, -33.052693 ], [ -71.551641, -33.052882 ], [ -71.55166, -33.052882 ], [ -71.551732, -33.052934 ], [ -71.551785, -33.05303 ], [ -71.551878, -33.05312 ], [ -71.551953, -33.053296 ], [ -71.551971, -33.053489 ], [ -71.552005, -33.053532 ], [ -71.55204, -33.053644 ], [ -71.552042, -33.053708 ], [ -71.552068, -33.05374 ], [ -71.552089, -33.05381 ], [ -71.55217, -33.053959 ], [ -71.55217, -33.054185 ], [ -71.552145, -33.054412 ], [ -71.552127, -33.054444 ], [ -71.552132, -33.054622 ], [ -71.552146, -33.054676 ], [ -71.552282, -33.054953 ], [ -71.552284, -33.055007 ], [ -71.552354, -33.05522 ], [ -71.552336, -33.05549 ], [ -71.552378, -33.055602 ], [ -71.552437, -33.055666 ], [ -71.552518, -33.055809 ], [ -71.552533, -33.055901 ], [ -71.552617, -33.05613 ], [ -71.552619, -33.056206 ], [ -71.552639, -33.056248 ], [ -71.552655, -33.056345 ], [ -71.552666, -33.056512 ], [ -71.552662, -33.056593 ], [ -71.552632, -33.056658 ], [ -71.552353, -33.057197 ], [ -71.552164, -33.057518 ], [ -71.552118, -33.05767 ], [ -71.552069, -33.057746 ], [ -71.552057, -33.0578 ], [ -71.552068, -33.05794 ], [ -71.551983, -33.058093 ], [ -71.551979, -33.058168 ], [ -71.551966, -33.058174 ], [ -71.551948, -33.058233 ], [ -71.551944, -33.058293 ], [ -71.551861, -33.058515 ], [ -71.551863, -33.058827 ], [ -71.551884, -33.058875 ], [ -71.551917, -33.059122 ], [ -71.551964, -33.059208 ], [ -71.552096, -33.05935 ], [ -71.552085, -33.059867 ], [ -71.552046, -33.060299 ], [ -71.551998, -33.060386 ], [ -71.551975, -33.060467 ], [ -71.551825, -33.06081 ], [ -71.551752, -33.060951 ], [ -71.551641, -33.061104 ], [ -71.551594, -33.061229 ], [ -71.551583, -33.061315 ], [ -71.551559, -33.061353 ], [ -71.55156, -33.061386 ], [ -71.551483, -33.061597 ], [ -71.551472, -33.061651 ], [ -71.551473, -33.062136 ], [ -71.551393, -33.062676 ], [ -71.551279, -33.062914 ] ] } },
{ "type": "Feature", "properties": { "objectid": 48964, "fid_drenes": 113740, "cod_comuna": 5101, "shape_leng": 1790.4901283199999, "st_length_": 2089.87939839, "Nombre": "Quebrada Las Lucumas", "Dren_Tipo": "Quebrada", "Region": "Región de Valparaíso", "Provincia": "Valparaíso", "Comuna": "Valparaíso" }, "geometry": { "type": "LineString", "coordinates": [ [ -71.656658, -33.037707 ], [ -71.656639, -33.037688 ], [ -71.656285, -33.037713 ], [ -71.656101, -33.037656 ], [ -71.655877, -33.037666 ], [ -71.655787, -33.03763 ], [ -71.655723, -33.037631 ], [ -71.655661, -33.037708 ], [ -71.655514, -33.037716 ], [ -71.65535, -33.037785 ], [ -71.655125, -33.037736 ], [ -71.654926, -33.037713 ], [ -71.654809, -33.037637 ], [ -71.653945, -33.037639 ], [ -71.653455, -33.037879 ], [ -71.653292, -33.03799 ], [ -71.653184, -33.038019 ], [ -71.653015, -33.038147 ], [ -71.652882, -33.038187 ], [ -71.652826, -33.038237 ], [ -71.652511, -33.038405 ], [ -71.652359, -33.038451 ], [ -71.65231, -33.038495 ], [ -71.652259, -33.038513 ], [ -71.652121, -33.038612 ], [ -71.652052, -33.038646 ], [ -71.651906, -33.038671 ], [ -71.651516, -33.038679 ], [ -71.650972, -33.038854 ], [ -71.650244, -33.03916 ], [ -71.649778, -33.039396 ], [ -71.649331, -33.039655 ], [ -71.648831, -33.040039 ], [ -71.64838, -33.040463 ], [ -71.647983, -33.040924 ], [ -71.647582, -33.041326 ], [ -71.647237, -33.041762 ], [ -71.647051, -33.042056 ], [ -71.646892, -33.042234 ], [ -71.646708, -33.042393 ], [ -71.646617, -33.042445 ], [ -71.646423, -33.042531 ], [ -71.646217, -33.042593 ], [ -71.646003, -33.042632 ], [ -71.6456, -33.042676 ], [ -71.645402, -33.042668 ], [ -71.645114, -33.042613 ], [ -71.644932, -33.042546 ], [ -71.644428, -33.042251 ], [ -71.643888, -33.042006 ], [ -71.643719, -33.041912 ], [ -71.643535, -33.041841 ], [ -71.643339, -33.041795 ], [ -71.643036, -33.041775 ], [ -71.642736, -33.041814 ], [ -71.642339, -33.041811 ], [ -71.641151, -33.041776 ], [ -71.640971, -33.041786 ], [ -71.640705, -33.041756 ] ] } },
{ "type": "Feature", "properties": { "objectid": 48965, "fid_drenes": 113741, "cod_comuna": 5101, "shape_leng": 978.06945009000003, "st_length_": 1351.6832328800001, "Nombre": null, "Dren_Tipo": "Quebrada", "Region": "Región de Valparaíso", "Provincia": "Valparaíso", "Comuna": "Valparaíso" }, "geometry": { "type": "LineString", "coordinates": [ [ -71.658132, -33.042669 ], [ -71.658251, -33.043489 ], [ -71.657881, -33.043282 ], [ -71.657724, -33.043172 ], [ -71.657578, -33.043008 ], [ -71.657354, -33.042992 ], [ -71.657142, -33.042942 ], [ -71.656917, -33.042909 ], [ -71.656824, -33.042804 ], [ -71.656788, -33.042654 ], [ -71.656695, -33.042537 ], [ -71.656538, -33.042417 ], [ -71.656184, -33.042343 ], [ -71.655723, -33.04231 ], [ -71.655568, -33.042276 ], [ -71.655255, -33.042121 ], [ -71.65478, -33.042201 ], [ -71.654647, -33.042258 ], [ -71.654456, -33.042294 ], [ -71.654181, -33.042284 ], [ -71.654131, -33.042306 ], [ -71.654003, -33.042314 ], [ -71.653073, -33.042216 ], [ -71.652594, -33.042237 ], [ -71.652268, -33.042228 ], [ -71.651883, -33.042182 ], [ -71.651812, -33.042156 ], [ -71.651626, -33.042128 ], [ -71.651511, -33.04209 ], [ -71.651081, -33.042086 ], [ -71.650889, -33.042068 ], [ -71.65064, -33.042074 ], [ -71.650531, -33.04206 ], [ -71.650397, -33.041992 ], [ -71.650272, -33.042003 ], [ -71.650148, -33.042106 ], [ -71.650087, -33.042177 ], [ -71.650022, -33.042361 ], [ -71.650025, -33.042464 ], [ -71.649951, -33.04253 ], [ -71.649946, -33.042762 ], [ -71.649962, -33.042925 ], [ -71.649905, -33.043019 ], [ -71.64988, -33.043188 ], [ -71.649831, -33.043243 ], [ -71.649712, -33.04343 ], [ -71.649667, -33.043641 ], [ -71.649673, -33.043867 ] ] } },
{ "type": "Feature", "properties": { "objectid": 48969, "fid_drenes": 113750, "cod_comuna": 5101, "shape_leng": 707.88124124000001, "st_length_": 772.63627427899996, "Nombre": null, "Dren_Tipo": "Quebrada", "Region": "Región de Valparaíso", "Provincia": "Valparaíso", "Comuna": "Valparaíso" }, "geometry": { "type": "LineString", "coordinates": [ [ -71.658571, -33.0457 ], [ -71.658514, -33.045733 ], [ -71.658238, -33.045799 ], [ -71.658021, -33.045826 ], [ -71.657977, -33.045853 ], [ -71.657849, -33.045856 ], [ -71.657784, -33.045809 ], [ -71.657713, -33.045794 ], [ -71.657598, -33.045797 ], [ -71.657503, -33.045826 ], [ -71.657409, -33.045892 ], [ -71.657167, -33.045925 ], [ -71.657067, -33.045981 ], [ -71.656978, -33.046009 ], [ -71.656806, -33.046024 ], [ -71.656603, -33.046066 ], [ -71.656455, -33.046053 ], [ -71.656271, -33.046078 ], [ -71.656214, -33.046106 ], [ -71.656131, -33.046097 ], [ -71.656052, -33.046034 ], [ -71.656, -33.046014 ], [ -71.655917, -33.046016 ], [ -71.655741, -33.0461 ], [ -71.655295, -33.046158 ], [ -71.65523, -33.046117 ], [ -71.655163, -33.046016 ], [ -71.654906, -33.045983 ], [ -71.654797, -33.045986 ], [ -71.654621, -33.046076 ], [ -71.654411, -33.046102 ], [ -71.65431, -33.046142 ], [ -71.65399, -33.046138 ], [ -71.653563, -33.046195 ], [ -71.653033, -33.046212 ], [ -71.652831, -33.046286 ], [ -71.652793, -33.046287 ], [ -71.652572, -33.046383 ], [ -71.65232, -33.046523 ], [ -71.652284, -33.046578 ] ] } },
{ "type": "Feature", "properties": { "objectid": 48987, "fid_drenes": 113796, "cod_comuna": 5109, "shape_leng": 2267.1509585600002, "st_length_": 2711.4993929699999, "Nombre": null, "Dren_Tipo": "Quebrada", "Region": "Región de Valparaíso", "Provincia": "Valparaíso", "Comuna": "Viña del Mar" }, "geometry": { "type": "LineString", "coordinates": [ [ -71.545511, -33.045702 ], [ -71.545944, -33.045828 ], [ -71.546139, -33.045857 ], [ -71.546257, -33.045906 ], [ -71.546403, -33.046018 ], [ -71.546471, -33.046114 ], [ -71.546512, -33.046219 ], [ -71.546525, -33.046562 ], [ -71.546493, -33.046792 ], [ -71.54643, -33.047018 ], [ -71.546447, -33.047423 ], [ -71.546417, -33.047693 ], [ -71.546311, -33.048088 ], [ -71.546135, -33.048466 ], [ -71.545892, -33.048816 ], [ -71.545696, -33.049031 ], [ -71.545476, -33.049228 ], [ -71.545103, -33.049485 ], [ -71.544611, -33.049871 ], [ -71.543555, -33.050561 ], [ -71.542941, -33.050907 ], [ -71.542444, -33.051347 ], [ -71.542118, -33.05183 ], [ -71.541577, -33.0527 ], [ -71.541076, -33.053366 ], [ -71.540771, -33.053672 ], [ -71.540598, -33.053895 ], [ -71.540452, -33.054131 ], [ -71.540286, -33.054505 ], [ -71.540187, -33.054896 ], [ -71.540094, -33.055972 ], [ -71.539997, -33.056647 ], [ -71.539792, -33.057651 ], [ -71.53964, -33.060231 ], [ -71.53979, -33.061516 ], [ -71.53985, -33.063614 ] ] } },
{ "type": "Feature", "properties": { "objectid": 48989, "fid_drenes": 113798, "cod_comuna": 5101, "shape_leng": 2555.8521037, "st_length_": 3184.1371139600001, "Nombre": null, "Dren_Tipo": "Quebrada", "Region": "Región de Valparaíso", "Provincia": "Valparaíso", "Comuna": "Valparaíso" }, "geometry": { "type": "LineString", "coordinates": [ [ -71.576455, -33.052414 ], [ -71.576462, -33.052567 ], [ -71.576406, -33.052622 ], [ -71.576303, -33.052812 ], [ -71.576306, -33.052893 ], [ -71.576239, -33.053013 ], [ -71.576209, -33.053105 ], [ -71.576148, -33.053182 ], [ -71.576025, -33.05321 ], [ -71.575993, -33.053276 ], [ -71.575832, -33.053317 ], [ -71.575644, -33.053467 ], [ -71.575583, -33.05356 ], [ -71.575584, -33.053597 ], [ -71.575543, -33.053706 ], [ -71.575481, -33.053788 ], [ -71.575485, -33.053933 ], [ -71.575443, -33.054025 ], [ -71.575394, -33.054096 ], [ -71.575312, -33.054141 ], [ -71.575275, -33.05418 ], [ -71.575061, -33.054518 ], [ -71.57503, -33.054546 ], [ -71.574973, -33.054557 ], [ -71.574765, -33.054669 ], [ -71.574556, -33.054717 ], [ -71.574442, -33.054778 ], [ -71.574372, -33.054796 ], [ -71.574234, -33.054874 ], [ -71.574166, -33.054946 ], [ -71.573921, -33.055118 ], [ -71.573891, -33.055167 ], [ -71.573728, -33.055272 ], [ -71.573666, -33.055338 ], [ -71.573653, -33.055355 ], [ -71.573658, -33.0555 ], [ -71.573678, -33.055537 ], [ -71.573741, -33.055586 ], [ -71.573699, -33.05579 ], [ -71.573561, -33.05588 ], [ -71.573324, -33.055972 ], [ -71.573154, -33.056003 ], [ -71.57298, -33.056007 ], [ -71.572724, -33.055963 ], [ -71.572369, -33.055819 ], [ -71.572161, -33.05576 ], [ -71.571836, -33.055717 ], [ -71.571616, -33.05572 ], [ -71.571293, -33.055773 ], [ -71.571144, -33.055867 ], [ -71.571013, -33.055978 ], [ -71.570813, -33.055973 ], [ -71.570724, -33.055991 ], [ -71.570668, -33.056046 ], [ -71.570621, -33.056171 ], [ -71.570613, -33.056354 ], [ -71.570578, -33.056457 ], [ -71.570562, -33.05656 ], [ -71.570538, -33.056604 ], [ -71.57054, -33.056684 ], [ -71.570587, -33.056753 ], [ -71.570582, -33.056829 ], [ -71.570627, -33.056874 ], [ -71.570529, -33.056956 ], [ -71.570393, -33.057036 ], [ -71.570171, -33.057113 ], [ -71.569933, -33.05714 ], [ -71.569773, -33.057129 ], [ -71.569604, -33.057199 ], [ -71.569453, -33.057292 ], [ -71.569323, -33.057406 ], [ -71.569178, -33.057609 ], [ -71.568959, -33.057777 ], [ -71.568722, -33.057928 ], [ -71.568302, -33.058138 ], [ -71.568071, -33.058298 ], [ -71.567802, -33.058456 ], [ -71.567449, -33.058563 ], [ -71.567258, -33.058593 ], [ -71.567182, -33.058633 ], [ -71.56712, -33.058693 ], [ -71.56672, -33.058809 ], [ -71.566721, -33.05882 ], [ -71.566639, -33.058859 ], [ -71.566539, -33.058958 ], [ -71.566408, -33.059042 ], [ -71.566211, -33.059089 ], [ -71.566027, -33.059157 ], [ -71.565725, -33.05954 ], [ -71.565593, -33.059608 ], [ -71.565369, -33.059628 ], [ -71.565161, -33.059703 ], [ -71.565091, -33.059715 ], [ -71.565009, -33.059765 ], [ -71.564966, -33.05982 ], [ -71.564865, -33.059881 ], [ -71.564783, -33.059899 ], [ -71.564701, -33.059938 ], [ -71.564576, -33.060059 ], [ -71.564577, -33.060075 ], [ -71.564343, -33.060177 ], [ -71.564288, -33.060243 ], [ -71.564237, -33.060271 ], [ -71.564225, -33.060298 ], [ -71.564163, -33.060348 ], [ -71.563948, -33.060455 ], [ -71.563893, -33.06052 ], [ -71.563883, -33.060634 ], [ -71.563828, -33.060715 ], [ -71.563719, -33.060718 ], [ -71.563701, -33.06074 ], [ -71.563703, -33.06081 ], [ -71.563478, -33.060981 ], [ -71.56346, -33.061019 ], [ -71.563422, -33.061052 ], [ -71.563327, -33.06107 ], [ -71.563312, -33.061238 ], [ -71.563212, -33.061304 ], [ -71.563123, -33.061317 ], [ -71.563029, -33.061389 ], [ -71.562942, -33.061477 ], [ -71.56285, -33.061619 ], [ -71.562648, -33.061714 ], [ -71.562328, -33.061909 ], [ -71.56223, -33.062057 ], [ -71.56217, -33.062176 ], [ -71.562179, -33.062361 ], [ -71.562235, -33.06249 ], [ -71.562238, -33.062582 ], [ -71.562127, -33.062678 ], [ -71.562033, -33.062787 ], [ -71.562076, -33.062918 ], [ -71.562049, -33.063051 ], [ -71.561993, -33.063129 ], [ -71.561809, -33.063247 ], [ -71.561693, -33.063368 ], [ -71.561636, -33.063515 ], [ -71.561634, -33.063619 ], [ -71.561574, -33.063724 ], [ -71.561489, -33.063815 ], [ -71.561381, -33.063888 ], [ -71.561256, -33.063939 ], [ -71.561121, -33.063966 ], [ -71.560929, -33.063977 ], [ -71.56022, -33.064639 ], [ -71.560177, -33.064694 ], [ -71.560083, -33.064745 ], [ -71.56, -33.064762 ], [ -71.55995, -33.06479 ], [ -71.559913, -33.064845 ], [ -71.5599, -33.064845 ], [ -71.559895, -33.064888 ], [ -71.559876, -33.064905 ], [ -71.559657, -33.065055 ], [ -71.559612, -33.065067 ], [ -71.559594, -33.065088 ], [ -71.559405, -33.065184 ], [ -71.559361, -33.065222 ], [ -71.559362, -33.065239 ], [ -71.559312, -33.065299 ], [ -71.559062, -33.065487 ], [ -71.558548, -33.065643 ], [ -71.55841, -33.065727 ], [ -71.558373, -33.06577 ], [ -71.558003, -33.065927 ], [ -71.557744, -33.066236 ] ] } },
{ "type": "Feature", "properties": { "objectid": 48991, "fid_drenes": 113804, "cod_comuna": 5109, "shape_leng": 3924.1837435399998, "st_length_": 4705.9940971400001, "Nombre": null, "Dren_Tipo": "Quebrada", "Region": "Región de Valparaíso", "Provincia": "Valparaíso", "Comuna": "Viña del Mar" }, "geometry": { "type": "LineString", "coordinates": [ [ -71.535765, -33.036135 ], [ -71.535853, -33.03642 ], [ -71.53597, -33.036697 ], [ -71.536117, -33.036964 ], [ -71.536387, -33.037341 ], [ -71.536509, -33.037811 ], [ -71.536556, -33.038291 ], [ -71.536525, -33.038772 ], [ -71.536419, -33.039244 ], [ -71.536331, -33.039367 ], [ -71.536272, -33.039502 ], [ -71.536243, -33.039716 ], [ -71.536286, -33.039928 ], [ -71.536399, -33.040121 ], [ -71.53652, -33.040456 ], [ -71.536565, -33.040687 ], [ -71.536576, -33.041037 ], [ -71.536521, -33.041385 ], [ -71.536399, -33.04172 ], [ -71.536311, -33.042121 ], [ -71.536157, -33.042508 ], [ -71.53602, -33.042755 ], [ -71.535856, -33.042989 ], [ -71.535666, -33.04321 ], [ -71.535453, -33.043415 ], [ -71.535359, -33.043565 ], [ -71.535123, -33.044035 ], [ -71.535006, -33.04436 ], [ -71.534922, -33.044693 ], [ -71.534858, -33.0452 ], [ -71.534859, -33.04554 ], [ -71.534917, -33.045943 ], [ -71.534909, -33.046348 ], [ -71.534867, -33.046617 ], [ -71.534775, -33.046947 ], [ -71.534678, -33.047134 ], [ -71.534531, -33.047298 ], [ -71.534343, -33.047428 ], [ -71.534135, -33.04753 ], [ -71.534019, -33.047616 ], [ -71.53392, -33.047716 ], [ -71.533728, -33.047943 ], [ -71.533553, -33.048179 ], [ -71.53328, -33.048623 ], [ -71.533176, -33.048687 ], [ -71.533047, -33.048688 ], [ -71.533008, -33.048703 ], [ -71.532938, -33.048745 ], [ -71.532883, -33.048799 ], [ -71.532861, -33.04883 ], [ -71.53285, -33.048997 ], [ -71.532811, -33.049103 ], [ -71.532747, -33.049202 ], [ -71.532581, -33.049358 ], [ -71.532531, -33.049433 ], [ -71.532503, -33.049515 ], [ -71.532503, -33.049643 ], [ -71.53239, -33.049714 ], [ -71.532253, -33.049742 ], [ -71.532159, -33.049734 ], [ -71.532071, -33.049706 ], [ -71.531995, -33.049659 ], [ -71.531927, -33.049594 ], [ -71.531853, -33.049567 ], [ -71.531772, -33.049574 ], [ -71.53169, -33.049632 ], [ -71.531672, -33.049675 ], [ -71.531672, -33.049721 ], [ -71.531368, -33.050292 ], [ -71.531321, -33.050431 ], [ -71.531305, -33.050575 ], [ -71.531324, -33.050934 ], [ -71.531298, -33.051172 ], [ -71.531201, -33.051521 ], [ -71.531099, -33.051745 ], [ -71.530893, -33.052058 ], [ -71.530722, -33.05225 ], [ -71.530495, -33.052336 ], [ -71.530283, -33.052445 ], [ -71.53009, -33.052577 ], [ -71.529841, -33.05281 ], [ -71.529706, -33.052986 ], [ -71.529599, -33.053175 ], [ -71.529521, -33.053374 ], [ -71.529463, -33.053684 ], [ -71.530281, -33.0554 ], [ -71.530478, -33.055741 ], [ -71.530669, -33.056151 ], [ -71.530748, -33.056605 ], [ -71.53083, -33.057289 ], [ -71.530847, -33.057518 ], [ -71.530795, -33.057673 ], [ -71.530807, -33.057833 ], [ -71.530825, -33.057885 ], [ -71.530934, -33.057972 ], [ -71.531058, -33.058129 ], [ -71.531111, -33.058246 ], [ -71.531138, -33.05837 ], [ -71.531141, -33.058433 ], [ -71.531049, -33.058728 ], [ -71.531071, -33.059339 ], [ -71.531196, -33.059666 ], [ -71.531378, -33.059973 ], [ -71.531614, -33.060254 ], [ -71.531696, -33.060382 ], [ -71.531817, -33.060526 ], [ -71.532508, -33.061238 ], [ -71.532679, -33.061395 ], [ -71.532866, -33.061539 ], [ -71.532965, -33.061605 ], [ -71.533171, -33.061697 ], [ -71.53329, -33.061781 ], [ -71.533391, -33.06188 ], [ -71.533502, -33.062052 ], [ -71.53374, -33.062259 ], [ -71.53396, -33.06248 ], [ -71.534254, -33.062834 ], [ -71.534333, -33.063018 ], [ -71.534494, -33.063279 ], [ -71.534628, -33.063439 ], [ -71.53491, -33.063725 ], [ -71.535077, -33.063831 ], [ -71.535204, -33.06388 ], [ -71.53534, -33.06391 ], [ -71.535492, -33.063981 ], [ -71.535607, -33.064001 ], [ -71.535781, -33.063988 ], [ -71.535988, -33.064042 ], [ -71.536201, -33.064073 ], [ -71.536418, -33.064082 ], [ -71.536634, -33.064067 ], [ -71.536961, -33.064155 ], [ -71.537164, -33.064246 ], [ -71.53735, -33.06436 ], [ -71.537515, -33.064494 ], [ -71.53789, -33.06492 ], [ -71.538098, -33.065235 ], [ -71.538237, -33.065576 ] ] } },
{ "type": "Feature", "properties": { "objectid": 48998, "fid_drenes": 113820, "cod_comuna": 5101, "shape_leng": 2189.8896957400002, "st_length_": 2265.6367842899999, "Nombre": "Quebrada de La Fabrica", "Dren_Tipo": "Quebrada", "Region": "Región de Valparaíso", "Provincia": "Valparaíso", "Comuna": "Valparaíso" }, "geometry": { "type": "LineString", "coordinates": [ [ -71.658767, -33.053912 ], [ -71.65832, -33.053863 ], [ -71.658295, -33.053885 ], [ -71.658156, -33.053931 ], [ -71.658144, -33.053953 ], [ -71.658106, -33.053954 ], [ -71.658043, -33.053998 ], [ -71.658017, -33.053999 ], [ -71.657943, -33.054065 ], [ -71.657892, -33.054077 ], [ -71.657804, -33.054133 ], [ -71.657754, -33.054155 ], [ -71.65769, -33.054157 ], [ -71.657304, -33.0541 ], [ -71.657226, -33.054037 ], [ -71.657096, -33.053975 ], [ -71.657083, -33.053954 ], [ -71.656992, -33.053924 ], [ -71.656928, -33.053925 ], [ -71.656892, -33.05398 ], [ -71.656871, -33.054142 ], [ -71.656772, -33.054241 ], [ -71.656646, -33.054319 ], [ -71.65652, -33.054365 ], [ -71.656458, -33.054431 ], [ -71.656214, -33.054425 ], [ -71.656059, -33.054364 ], [ -71.656008, -33.054365 ], [ -71.655969, -33.054344 ], [ -71.655675, -33.054361 ], [ -71.655589, -33.054471 ], [ -71.655576, -33.054471 ], [ -71.655565, -33.054514 ], [ -71.655528, -33.054547 ], [ -71.655516, -33.05458 ], [ -71.655429, -33.054657 ], [ -71.655404, -33.054701 ], [ -71.655341, -33.054724 ], [ -71.655304, -33.054767 ], [ -71.655279, -33.054768 ], [ -71.655203, -33.054813 ], [ -71.654874, -33.054917 ], [ -71.654811, -33.054972 ], [ -71.654763, -33.05507 ], [ -71.654689, -33.055147 ], [ -71.654475, -33.055259 ], [ -71.654299, -33.05537 ], [ -71.654236, -33.055382 ], [ -71.654199, -33.055437 ], [ -71.654174, -33.055459 ], [ -71.654148, -33.05546 ], [ -71.65405, -33.05558 ], [ -71.654023, -33.055775 ], [ -71.653959, -33.0558 ], [ -71.653604, -33.056064 ], [ -71.653528, -33.056087 ], [ -71.65324, -33.056287 ], [ -71.653215, -33.05632 ], [ -71.653218, -33.056416 ], [ -71.653132, -33.056515 ], [ -71.653043, -33.056549 ], [ -71.65275, -33.056577 ], [ -71.652649, -33.056633 ], [ -71.652611, -33.056634 ], [ -71.651825, -33.056855 ], [ -71.651761, -33.056857 ], [ -71.651761, -33.056878 ], [ -71.65171, -33.056879 ], [ -71.651685, -33.056901 ], [ -71.651468, -33.056906 ], [ -71.651354, -33.05693 ], [ -71.651342, -33.056952 ], [ -71.650805, -33.056974 ], [ -71.650653, -33.057031 ], [ -71.650335, -33.05707 ], [ -71.650145, -33.057139 ], [ -71.650056, -33.057151 ], [ -71.649943, -33.057208 ], [ -71.649584, -33.057603 ], [ -71.649495, -33.057637 ], [ -71.649483, -33.057659 ], [ -71.649357, -33.057726 ], [ -71.649281, -33.057749 ], [ -71.649269, -33.057771 ], [ -71.649205, -33.057783 ], [ -71.649143, -33.057828 ], [ -71.649092, -33.057829 ], [ -71.649003, -33.057863 ], [ -71.648926, -33.057864 ], [ -71.648801, -33.057932 ], [ -71.648623, -33.057989 ], [ -71.648585, -33.05799 ], [ -71.64856, -33.058012 ], [ -71.648483, -33.058014 ], [ -71.648433, -33.058037 ], [ -71.648242, -33.058062 ], [ -71.648014, -33.058132 ], [ -71.647367, -33.058738 ], [ -71.647355, -33.05877 ], [ -71.647317, -33.058782 ], [ -71.64728, -33.058815 ], [ -71.64728, -33.058836 ], [ -71.647243, -33.058869 ], [ -71.647244, -33.058891 ], [ -71.647218, -33.058902 ], [ -71.647219, -33.058935 ], [ -71.64717, -33.059011 ], [ -71.647171, -33.059032 ], [ -71.647122, -33.059098 ], [ -71.647123, -33.05913 ], [ -71.647061, -33.059186 ], [ -71.647002, -33.059348 ], [ -71.646817, -33.0596 ], [ -71.646769, -33.059687 ], [ -71.646743, -33.059698 ], [ -71.646622, -33.059906 ], [ -71.646589, -33.060089 ], [ -71.646564, -33.060111 ], [ -71.646529, -33.060231 ], [ -71.646431, -33.060373 ], [ -71.64642, -33.060427 ], [ -71.646395, -33.06046 ], [ -71.646396, -33.060492 ], [ -71.646325, -33.060666 ], [ -71.646326, -33.060698 ], [ -71.646301, -33.06072 ], [ -71.646304, -33.060817 ], [ -71.646291, -33.060828 ], [ -71.646294, -33.060903 ], [ -71.646281, -33.060925 ], [ -71.646287, -33.061097 ], [ -71.646263, -33.061152 ], [ -71.646264, -33.061205 ], [ -71.646229, -33.061314 ], [ -71.646208, -33.061454 ], [ -71.64616, -33.061552 ], [ -71.646012, -33.061738 ], [ -71.645826, -33.061936 ], [ -71.645735, -33.062315 ], [ -71.645753, -33.062508 ], [ -71.645976, -33.062698 ], [ -71.646049, -33.062976 ], [ -71.645964, -33.06315 ] ] } },
{ "type": "Feature", "properties": { "objectid": 49003, "fid_drenes": 113836, "cod_comuna": 5101, "shape_leng": 1745.2031706800001, "st_length_": 2321.1667570499999, "Nombre": null, "Dren_Tipo": "Quebrada", "Region": "Región de Valparaíso", "Provincia": "Valparaíso", "Comuna": "Valparaíso" }, "geometry": { "type": "LineString", "coordinates": [ [ -71.660126, -33.062823 ], [ -71.659708, -33.062998 ], [ -71.659329, -33.063178 ], [ -71.659203, -33.063213 ], [ -71.659165, -33.063246 ], [ -71.659064, -33.063281 ], [ -71.659027, -33.063314 ], [ -71.658912, -33.063316 ], [ -71.658785, -33.063351 ], [ -71.658786, -33.063383 ], [ -71.658699, -33.063471 ], [ -71.658456, -33.063477 ], [ -71.65832, -33.063619 ], [ -71.658115, -33.063635 ], [ -71.658103, -33.063646 ], [ -71.657796, -33.063652 ], [ -71.657771, -33.063663 ], [ -71.657708, -33.063697 ], [ -71.657659, -33.063752 ], [ -71.65761, -33.063828 ], [ -71.65761, -33.06385 ], [ -71.657585, -33.063872 ], [ -71.657575, -33.063937 ], [ -71.65755, -33.063959 ], [ -71.657411, -33.064016 ], [ -71.657361, -33.064071 ], [ -71.657323, -33.064082 ], [ -71.657262, -33.06417 ], [ -71.657149, -33.064247 ], [ -71.657034, -33.064261 ], [ -71.65696, -33.064327 ], [ -71.656668, -33.064419 ], [ -71.656481, -33.064563 ], [ -71.656432, -33.064629 ], [ -71.656432, -33.06465 ], [ -71.65632, -33.06475 ], [ -71.656282, -33.064761 ], [ -71.656208, -33.064838 ], [ -71.655993, -33.064929 ], [ -71.655814, -33.064944 ], [ -71.655675, -33.065 ], [ -71.655575, -33.065056 ], [ -71.655513, -33.065112 ], [ -71.655437, -33.065135 ], [ -71.655361, -33.06519 ], [ -71.655134, -33.065281 ], [ -71.655122, -33.065303 ], [ -71.655059, -33.065326 ], [ -71.654996, -33.065381 ], [ -71.65492, -33.065393 ], [ -71.654845, -33.065449 ], [ -71.654794, -33.06545 ], [ -71.654706, -33.065506 ], [ -71.654566, -33.06553 ], [ -71.654262, -33.065634 ], [ -71.654046, -33.06567 ], [ -71.653829, -33.065675 ], [ -71.65374, -33.06572 ], [ -71.653689, -33.065721 ], [ -71.653627, -33.065776 ], [ -71.653398, -33.065803 ], [ -71.653332, -33.065761 ], [ -71.653191, -33.065753 ], [ -71.653104, -33.06582 ], [ -71.653105, -33.065841 ], [ -71.653042, -33.065896 ], [ -71.653043, -33.065918 ], [ -71.652893, -33.06604 ], [ -71.65283, -33.066052 ], [ -71.652818, -33.066084 ], [ -71.652729, -33.066108 ], [ -71.652489, -33.06622 ], [ -71.652451, -33.066221 ], [ -71.652451, -33.066232 ], [ -71.652426, -33.066233 ], [ -71.652363, -33.066277 ], [ -71.652262, -33.066301 ], [ -71.652159, -33.066303 ], [ -71.651895, -33.066448 ], [ -71.651858, -33.066482 ], [ -71.651717, -33.066485 ], [ -71.651638, -33.066422 ], [ -71.651498, -33.066425 ], [ -71.651384, -33.06647 ], [ -71.651173, -33.066679 ], [ -71.651059, -33.066725 ], [ -71.650662, -33.066701 ], [ -71.65055, -33.066789 ], [ -71.650538, -33.066822 ], [ -71.650525, -33.066822 ], [ -71.650526, -33.066844 ], [ -71.650451, -33.06691 ], [ -71.650439, -33.066942 ], [ -71.650364, -33.067009 ], [ -71.650314, -33.067021 ], [ -71.650289, -33.067053 ], [ -71.650162, -33.067099 ], [ -71.650112, -33.067132 ], [ -71.650023, -33.067134 ], [ -71.649985, -33.067157 ], [ -71.649908, -33.067158 ], [ -71.649896, -33.06718 ], [ -71.64982, -33.067203 ], [ -71.649758, -33.067258 ], [ -71.649707, -33.06727 ], [ -71.649418, -33.067438 ], [ -71.648907, -33.067438 ], [ -71.648756, -33.067538 ], [ -71.648744, -33.06756 ], [ -71.64863, -33.067606 ], [ -71.648593, -33.067639 ], [ -71.648363, -33.067643 ], [ -71.648237, -33.067711 ], [ -71.648084, -33.067725 ], [ -71.648008, -33.067748 ], [ -71.64797, -33.067781 ], [ -71.647882, -33.067815 ], [ -71.647728, -33.067818 ], [ -71.647347, -33.067902 ], [ -71.647334, -33.067881 ], [ -71.647206, -33.067873 ], [ -71.647141, -33.067853 ], [ -71.647115, -33.067821 ], [ -71.647037, -33.06779 ], [ -71.646997, -33.067737 ], [ -71.646945, -33.067706 ], [ -71.646877, -33.067557 ], [ -71.6468, -33.067547 ], [ -71.646773, -33.067526 ], [ -71.646733, -33.067452 ], [ -71.646667, -33.0674 ], [ -71.646629, -33.06739 ], [ -71.646628, -33.067368 ], [ -71.646589, -33.067347 ], [ -71.646512, -33.067338 ], [ -71.64642, -33.067254 ], [ -71.64629, -33.067181 ], [ -71.646226, -33.067183 ], [ -71.646149, -33.067163 ], [ -71.645748, -33.067021 ], [ -71.645606, -33.066991 ], [ -71.645274, -33.066988 ], [ -71.645236, -33.066999 ], [ -71.645186, -33.067054 ], [ -71.645046, -33.067089 ], [ -71.644574, -33.06711 ], [ -71.643766, -33.067041 ], [ -71.643766, -33.06703 ], [ -71.643638, -33.067033 ], [ -71.643626, -33.067055 ], [ -71.643549, -33.067057 ], [ -71.643524, -33.067079 ], [ -71.643473, -33.06709 ], [ -71.643449, -33.067123 ], [ -71.643398, -33.067135 ], [ -71.643398, -33.067146 ], [ -71.643373, -33.067146 ], [ -71.643323, -33.06718 ], [ -71.643118, -33.067195 ], [ -71.643017, -33.067229 ], [ -71.643018, -33.067251 ], [ -71.64298, -33.067273 ], [ -71.642854, -33.06733 ], [ -71.642816, -33.067331 ], [ -71.642765, -33.067364 ], [ -71.642766, -33.067385 ] ] } },
{ "type": "Feature", "properties": { "objectid": 49006, "fid_drenes": 113843, "cod_comuna": 5101, "shape_leng": 897.8205413, "st_length_": 1072.4196555799999, "Nombre": null, "Dren_Tipo": "Quebrada", "Region": "Región de Valparaíso", "Provincia": "Valparaíso", "Comuna": "Valparaíso" }, "geometry": { "type": "LineString", "coordinates": [ [ -71.578512, -33.068834 ], [ -71.578042, -33.068271 ], [ -71.577747, -33.067848 ], [ -71.577118, -33.06767 ], [ -71.576611, -33.067718 ], [ -71.5763, -33.067766 ], [ -71.575997, -33.067841 ], [ -71.575563, -33.068001 ], [ -71.575164, -33.068215 ], [ -71.57494, -33.068434 ], [ -71.57474, -33.068668 ], [ -71.574564, -33.068916 ], [ -71.574413, -33.069175 ], [ -71.574289, -33.069444 ], [ -71.574192, -33.069721 ], [ -71.574033, -33.069956 ], [ -71.573848, -33.070178 ], [ -71.573527, -33.07048 ], [ -71.573157, -33.07074 ], [ -71.571941, -33.071848 ] ] } },
{ "type": "Feature", "properties": { "objectid": 49014, "fid_drenes": 113879, "cod_comuna": 5101, "shape_leng": 991.54806685999995, "st_length_": 1182.26084156, "Nombre": null, "Dren_Tipo": "Quebrada", "Region": "Región de Valparaíso", "Provincia": "Valparaíso", "Comuna": "Valparaíso" }, "geometry": { "type": "LineString", "coordinates": [ [ -71.637637, -33.077076 ], [ -71.6365, -33.076416 ], [ -71.635318, -33.07599 ], [ -71.634384, -33.075722 ], [ -71.633796, -33.075612 ], [ -71.633114, -33.075626 ], [ -71.632393, -33.07597 ], [ -71.631423, -33.076113 ], [ -71.630398, -33.076053 ], [ -71.629908, -33.075981 ], [ -71.628689, -33.075966 ], [ -71.627569, -33.075989 ] ] } },
{ "type": "Feature", "properties": { "objectid": 49019, "fid_drenes": 113896, "cod_comuna": 5109, "shape_leng": 1163.1846082, "st_length_": 1386.9607088400001, "Nombre": null, "Dren_Tipo": "Quebrada", "Region": "Región de Valparaíso", "Provincia": "Valparaíso", "Comuna": "Viña del Mar" }, "geometry": { "type": "LineString", "coordinates": [ [ -71.544394, -33.081622 ], [ -71.543596, -33.08165 ], [ -71.542293, -33.08139 ], [ -71.541667, -33.080943 ], [ -71.541045, -33.080669 ], [ -71.540429, -33.080567 ], [ -71.539541, -33.080527 ], [ -71.538727, -33.080659 ], [ -71.536819, -33.080698 ], [ -71.535935, -33.080773 ], [ -71.534921, -33.081081 ], [ -71.534113, -33.081442 ], [ -71.532484, -33.081704 ] ] } },
{ "type": "Feature", "properties": { "objectid": 49024, "fid_drenes": 113909, "cod_comuna": 5101, "shape_leng": 2647.3880411499999, "st_length_": 3231.6369557100002, "Nombre": null, "Dren_Tipo": "Quebrada", "Region": "Región de Valparaíso", "Provincia": "Valparaíso", "Comuna": "Valparaíso" }, "geometry": { "type": "LineString", "coordinates": [ [ -71.662261, -33.075853 ], [ -71.661738, -33.076091 ], [ -71.661457, -33.076108 ], [ -71.661241, -33.076156 ], [ -71.660989, -33.076269 ], [ -71.660876, -33.076357 ], [ -71.66075, -33.076425 ], [ -71.660572, -33.076439 ], [ -71.660483, -33.076484 ], [ -71.660333, -33.076574 ], [ -71.660013, -33.076854 ], [ -71.659648, -33.077063 ], [ -71.659649, -33.077234 ], [ -71.65946, -33.077335 ], [ -71.659398, -33.07739 ], [ -71.659106, -33.077403 ], [ -71.658625, -33.077791 ], [ -71.658672, -33.077934 ], [ -71.658651, -33.078085 ], [ -71.658591, -33.078205 ], [ -71.658546, -33.07841 ], [ -71.658459, -33.078487 ], [ -71.658463, -33.078627 ], [ -71.658581, -33.078722 ], [ -71.658582, -33.078754 ], [ -71.658609, -33.078786 ], [ -71.658613, -33.078926 ], [ -71.658588, -33.078948 ], [ -71.658537, -33.078959 ], [ -71.658513, -33.078992 ], [ -71.658474, -33.079004 ], [ -71.65845, -33.079037 ], [ -71.658387, -33.07907 ], [ -71.65835, -33.079114 ], [ -71.658312, -33.079126 ], [ -71.6583, -33.079148 ], [ -71.658045, -33.079234 ], [ -71.657803, -33.079541 ], [ -71.657918, -33.07964 ], [ -71.657919, -33.079683 ], [ -71.657961, -33.079779 ], [ -71.657956, -33.080038 ], [ -71.65793, -33.080049 ], [ -71.65787, -33.080158 ], [ -71.657832, -33.08017 ], [ -71.657794, -33.080203 ], [ -71.657743, -33.080204 ], [ -71.657706, -33.080237 ], [ -71.65768, -33.080238 ], [ -71.657277, -33.080429 ], [ -71.657213, -33.080431 ], [ -71.657188, -33.080453 ], [ -71.657124, -33.080465 ], [ -71.657125, -33.080476 ], [ -71.656999, -33.080543 ], [ -71.656987, -33.080575 ], [ -71.656961, -33.080576 ], [ -71.656874, -33.080653 ], [ -71.656492, -33.080666 ], [ -71.656198, -33.080711 ], [ -71.655993, -33.080704 ], [ -71.655734, -33.080591 ], [ -71.655655, -33.080528 ], [ -71.655616, -33.080519 ], [ -71.655304, -33.080185 ], [ -71.65484, -33.080066 ], [ -71.654032, -33.079606 ], [ -71.653399, -33.079286 ], [ -71.652532, -33.078732 ], [ -71.651776, -33.07808 ], [ -71.651363, -33.077516 ], [ -71.650948, -33.076904 ], [ -71.650702, -33.076289 ], [ -71.650406, -33.075866 ], [ -71.65, -33.075541 ], [ -71.649371, -33.075364 ], [ -71.648295, -33.075386 ], [ -71.646987, -33.075223 ], [ -71.646232, -33.074619 ], [ -71.645769, -33.074295 ], [ -71.644904, -33.073789 ], [ -71.644092, -33.073185 ], [ -71.643163, -33.072442 ], [ -71.642386, -33.071075 ] ] } },
{ "type": "Feature", "properties": { "objectid": 49031, "fid_drenes": 113933, "cod_comuna": 5101, "shape_leng": 1583.31806132, "st_length_": 1891.8358100600001, "Nombre": null, "Dren_Tipo": "Quebrada", "Region": "Región de Valparaíso", "Provincia": "Valparaíso", "Comuna": "Valparaíso" }, "geometry": { "type": "LineString", "coordinates": [ [ -71.556015, -33.088741 ], [ -71.555765, -33.087485 ], [ -71.555404, -33.086804 ], [ -71.555318, -33.086174 ], [ -71.555499, -33.085367 ], [ -71.555614, -33.084619 ], [ -71.555325, -33.08405 ], [ -71.554502, -33.083895 ], [ -71.553829, -33.084196 ], [ -71.553496, -33.08449 ], [ -71.553091, -33.084613 ], [ -71.552817, -33.084561 ], [ -71.552464, -33.084167 ], [ -71.552587, -33.083705 ], [ -71.552641, -33.083187 ], [ -71.552429, -33.082962 ], [ -71.551815, -33.082917 ], [ -71.551404, -33.082868 ], [ -71.551058, -33.082703 ], [ -71.550018, -33.082093 ], [ -71.548497, -33.081378 ], [ -71.54774, -33.081106 ], [ -71.546922, -33.081123 ], [ -71.546714, -33.08114 ] ] } },
{ "type": "Feature", "properties": { "objectid": 49032, "fid_drenes": 113933, "cod_comuna": 5109, "shape_leng": 224.22525507, "st_length_": 267.34266536000001, "Nombre": null, "Dren_Tipo": "Quebrada", "Region": "Región de Valparaíso", "Provincia": "Valparaíso", "Comuna": "Viña del Mar" }, "geometry": { "type": "LineString", "coordinates": [ [ -71.546714, -33.08114 ], [ -71.54597, -33.0812 ], [ -71.544394, -33.081622 ] ] } },
{ "type": "Feature", "properties": { "objectid": 49034, "fid_drenes": 113937, "cod_comuna": 5101, "shape_leng": 2571.2112039799999, "st_length_": 3073.6045685200002, "Nombre": null, "Dren_Tipo": "Quebrada", "Region": "Región de Valparaíso", "Provincia": "Valparaíso", "Comuna": "Valparaíso" }, "geometry": { "type": "LineString", "coordinates": [ [ -71.571941, -33.071848 ], [ -71.570696, -33.07286 ], [ -71.569469, -33.073554 ], [ -71.568631, -33.073953 ], [ -71.567798, -33.074542 ], [ -71.56558, -33.07621 ], [ -71.565084, -33.076698 ], [ -71.564528, -33.077091 ], [ -71.564201, -33.077527 ], [ -71.563932, -33.07801 ], [ -71.563948, -33.078582 ], [ -71.564077, -33.079104 ], [ -71.564149, -33.079627 ], [ -71.563541, -33.080165 ], [ -71.562976, -33.080224 ], [ -71.562463, -33.080139 ], [ -71.561958, -33.080293 ], [ -71.561688, -33.080775 ], [ -71.561235, -33.082741 ], [ -71.560698, -33.083754 ], [ -71.560597, -33.084185 ], [ -71.560557, -33.084759 ], [ -71.560603, -33.086332 ], [ -71.560514, -33.087193 ], [ -71.559971, -33.088015 ], [ -71.559198, -33.088699 ], [ -71.558414, -33.089049 ], [ -71.557862, -33.089096 ] ] } },
{ "type": "Feature", "properties": { "objectid": 49035, "fid_drenes": 113938, "cod_comuna": 5101, "shape_leng": 180.98757351, "st_length_": 215.831243769, "Nombre": null, "Dren_Tipo": "Quebrada", "Region": "Región de Valparaíso", "Provincia": "Valparaíso", "Comuna": "Valparaíso" }, "geometry": { "type": "LineString", "coordinates": [ [ -71.557862, -33.089096 ], [ -71.557679, -33.089112 ], [ -71.556997, -33.089031 ], [ -71.556537, -33.088802 ], [ -71.556223, -33.088736 ], [ -71.556015, -33.088741 ] ] } },
{ "type": "Feature", "properties": { "objectid": 49040, "fid_drenes": 113950, "cod_comuna": 5101, "shape_leng": 4715.68029656, "st_length_": 5641.4012981699998, "Nombre": null, "Dren_Tipo": "Quebrada", "Region": "Región de Valparaíso", "Provincia": "Valparaíso", "Comuna": "Valparaíso" }, "geometry": { "type": "LineString", "coordinates": [ [ -71.595896, -33.052124 ], [ -71.595877, -33.052222 ], [ -71.595816, -33.052249 ], [ -71.595315, -33.052688 ], [ -71.594374, -33.053726 ], [ -71.593969, -33.054227 ], [ -71.59375, -33.054389 ], [ -71.593589, -33.054541 ], [ -71.593241, -33.05491 ], [ -71.593155, -33.055093 ], [ -71.593089, -33.055302 ], [ -71.593012, -33.055476 ], [ -71.593016, -33.055605 ], [ -71.593051, -33.055768 ], [ -71.59328, -33.05622 ], [ -71.59334, -33.056521 ], [ -71.593334, -33.056659 ], [ -71.593224, -33.056765 ], [ -71.593123, -33.05681 ], [ -71.593018, -33.057089 ], [ -71.593024, -33.057278 ], [ -71.593006, -33.057365 ], [ -71.592846, -33.057489 ], [ -71.592342, -33.057762 ], [ -71.592006, -33.05783 ], [ -71.591624, -33.058079 ], [ -71.591482, -33.058479 ], [ -71.591258, -33.059217 ], [ -71.591134, -33.059556 ], [ -71.591048, -33.059916 ], [ -71.590857, -33.060049 ], [ -71.590705, -33.060121 ], [ -71.590485, -33.06029 ], [ -71.590389, -33.060524 ], [ -71.59042, -33.060877 ], [ -71.590477, -33.061057 ], [ -71.590463, -33.061273 ], [ -71.590394, -33.061715 ], [ -71.590429, -33.061852 ], [ -71.590703, -33.062127 ], [ -71.590863, -33.062356 ], [ -71.590836, -33.062495 ], [ -71.590698, -33.06267 ], [ -71.590595, -33.063 ], [ -71.590499, -33.0632 ], [ -71.590352, -33.063428 ], [ -71.590282, -33.063507 ], [ -71.589998, -33.06359 ], [ -71.589645, -33.063779 ], [ -71.589179, -33.063978 ], [ -71.588834, -33.064063 ], [ -71.588644, -33.06424 ], [ -71.58864, -33.064455 ], [ -71.588728, -33.064643 ], [ -71.588731, -33.064773 ], [ -71.588525, -33.065062 ], [ -71.588448, -33.065231 ], [ -71.588528, -33.065514 ], [ -71.588533, -33.065704 ], [ -71.588417, -33.065835 ], [ -71.588397, -33.065931 ], [ -71.588463, -33.066094 ], [ -71.588771, -33.066484 ], [ -71.588911, -33.066723 ], [ -71.589, -33.066962 ], [ -71.588901, -33.067076 ], [ -71.588884, -33.06718 ], [ -71.5893, -33.067609 ], [ -71.589597, -33.06808 ], [ -71.589893, -33.068503 ], [ -71.590733, -33.070108 ], [ -71.591319, -33.070763 ], [ -71.591627, -33.071616 ], [ -71.591761, -33.072329 ], [ -71.591884, -33.075547 ], [ -71.592135, -33.076353 ], [ -71.592444, -33.077253 ], [ -71.592751, -33.078057 ], [ -71.593238, -33.079192 ], [ -71.59327, -33.080289 ], [ -71.593522, -33.081143 ], [ -71.593959, -33.082517 ], [ -71.594093, -33.08323 ], [ -71.59437, -33.083964 ], [ -71.594736, -33.084863 ], [ -71.595157, -33.085665 ], [ -71.595699, -33.086751 ], [ -71.596177, -33.0876 ], [ -71.596833, -33.088684 ], [ -71.597264, -33.089868 ] ] } },
{ "type": "Feature", "properties": { "objectid": 49048, "fid_drenes": 113963, "cod_comuna": 5109, "shape_leng": 2299.7448069000002, "st_length_": 2746.3052975099999, "Nombre": null, "Dren_Tipo": "Quebrada", "Region": "Región de Valparaíso", "Provincia": "Valparaíso", "Comuna": "Viña del Mar" }, "geometry": { "type": "LineString", "coordinates": [ [ -71.544394, -33.081622 ], [ -71.543267, -33.082059 ], [ -71.542187, -33.082425 ], [ -71.541181, -33.08302 ], [ -71.540245, -33.08367 ], [ -71.539186, -33.084782 ], [ -71.538254, -33.085547 ], [ -71.537592, -33.08625 ], [ -71.53714, -33.08712 ], [ -71.536353, -33.088226 ], [ -71.535559, -33.089046 ], [ -71.534092, -33.090224 ], [ -71.532952, -33.090879 ], [ -71.531604, -33.091423 ], [ -71.530659, -33.091786 ], [ -71.529248, -33.092504 ], [ -71.528653, -33.092737 ] ] } },
{ "type": "Feature", "properties": { "objectid": 49051, "fid_drenes": 113973, "cod_comuna": 5101, "shape_leng": 2946.04410861, "st_length_": 3773.8596068900001, "Nombre": null, "Dren_Tipo": "Quebrada", "Region": "Región de Valparaíso", "Provincia": "Valparaíso", "Comuna": "Valparaíso" }, "geometry": { "type": "LineString", "coordinates": [ [ -71.662717, -33.091295 ], [ -71.662622, -33.091305 ], [ -71.662533, -33.091278 ], [ -71.662486, -33.091242 ], [ -71.662455, -33.091195 ], [ -71.662312, -33.091101 ], [ -71.662264, -33.09122 ], [ -71.662266, -33.091264 ], [ -71.662189, -33.091265 ], [ -71.662162, -33.091212 ], [ -71.662159, -33.091126 ], [ -71.662133, -33.091105 ], [ -71.66203, -33.091085 ], [ -71.662032, -33.091139 ], [ -71.662019, -33.09115 ], [ -71.662025, -33.091333 ], [ -71.661948, -33.091335 ], [ -71.661934, -33.091303 ], [ -71.661921, -33.091303 ], [ -71.661868, -33.09124 ], [ -71.661867, -33.091197 ], [ -71.661801, -33.091112 ], [ -71.661788, -33.091112 ], [ -71.661735, -33.091049 ], [ -71.66167, -33.091029 ], [ -71.661645, -33.091051 ], [ -71.661622, -33.091116 ], [ -71.661609, -33.091116 ], [ -71.66161, -33.091148 ], [ -71.661586, -33.091203 ], [ -71.661547, -33.091193 ], [ -71.66152, -33.091129 ], [ -71.661456, -33.091141 ], [ -71.661457, -33.091162 ], [ -71.661419, -33.091174 ], [ -71.661408, -33.09125 ], [ -71.661371, -33.091293 ], [ -71.661346, -33.091294 ], [ -71.661308, -33.091327 ], [ -71.661272, -33.091392 ], [ -71.661273, -33.091425 ], [ -71.661248, -33.091458 ], [ -71.661249, -33.091479 ], [ -71.661174, -33.091535 ], [ -71.661163, -33.091589 ], [ -71.6611, -33.091622 ], [ -71.660997, -33.091624 ], [ -71.660883, -33.091659 ], [ -71.660768, -33.091662 ], [ -71.660768, -33.091651 ], [ -71.660678, -33.091642 ], [ -71.660639, -33.091621 ], [ -71.660601, -33.091622 ], [ -71.6606, -33.091611 ], [ -71.660498, -33.091603 ], [ -71.660303, -33.09151 ], [ -71.660303, -33.091499 ], [ -71.660136, -33.091492 ], [ -71.660058, -33.091451 ], [ -71.660007, -33.091441 ], [ -71.659993, -33.09142 ], [ -71.659853, -33.091423 ], [ -71.659827, -33.091434 ], [ -71.659791, -33.091489 ], [ -71.659768, -33.091597 ], [ -71.659719, -33.091662 ], [ -71.65972, -33.091684 ], [ -71.65967, -33.091728 ], [ -71.659416, -33.091787 ], [ -71.658968, -33.091797 ], [ -71.658942, -33.091776 ], [ -71.658827, -33.091757 ], [ -71.658735, -33.091705 ], [ -71.658658, -33.091685 ], [ -71.658644, -33.091653 ], [ -71.658579, -33.091601 ], [ -71.658515, -33.091591 ], [ -71.658385, -33.091529 ], [ -71.658253, -33.091403 ], [ -71.658239, -33.091371 ], [ -71.658069, -33.091256 ], [ -71.658018, -33.091236 ], [ -71.657939, -33.091173 ], [ -71.657937, -33.091108 ], [ -71.657883, -33.091013 ], [ -71.657831, -33.090971 ], [ -71.657676, -33.090942 ], [ -71.657523, -33.090945 ], [ -71.657509, -33.090924 ], [ -71.657484, -33.090924 ], [ -71.657432, -33.090893 ], [ -71.657366, -33.09084 ], [ -71.657339, -33.090798 ], [ -71.657287, -33.090778 ], [ -71.657274, -33.090746 ], [ -71.657261, -33.090746 ], [ -71.657208, -33.090682 ], [ -71.65681, -33.090626 ], [ -71.656757, -33.090584 ], [ -71.65668, -33.090554 ], [ -71.656679, -33.090532 ], [ -71.656562, -33.090459 ], [ -71.656433, -33.090451 ], [ -71.656329, -33.0904 ], [ -71.656304, -33.0904 ], [ -71.656304, -33.090389 ], [ -71.656201, -33.090392 ], [ -71.656111, -33.09035 ], [ -71.656034, -33.090352 ], [ -71.655866, -33.090302 ], [ -71.655813, -33.090249 ], [ -71.655761, -33.090229 ], [ -71.655646, -33.090231 ], [ -71.655582, -33.090211 ], [ -71.655531, -33.090212 ], [ -71.655504, -33.090191 ], [ -71.654571, -33.090211 ], [ -71.654086, -33.090254 ], [ -71.654086, -33.090243 ], [ -71.654047, -33.090233 ], [ -71.653932, -33.090235 ], [ -71.653895, -33.090258 ], [ -71.653831, -33.090259 ], [ -71.653831, -33.09028 ], [ -71.653691, -33.090305 ], [ -71.653654, -33.090327 ], [ -71.653334, -33.090334 ], [ -71.653177, -33.090208 ], [ -71.65315, -33.090155 ], [ -71.653071, -33.090092 ], [ -71.653045, -33.090093 ], [ -71.653018, -33.09005 ], [ -71.652953, -33.090008 ], [ -71.65294, -33.089976 ], [ -71.652914, -33.089977 ], [ -71.652901, -33.089956 ], [ -71.652849, -33.089935 ], [ -71.652158, -33.08995 ], [ -71.652132, -33.089918 ], [ -71.652067, -33.089898 ], [ -71.652001, -33.089835 ], [ -71.651937, -33.089825 ], [ -71.651911, -33.089804 ], [ -71.651552, -33.089769 ], [ -71.651487, -33.089738 ], [ -71.651448, -33.089739 ], [ -71.651383, -33.089687 ], [ -71.651293, -33.089678 ], [ -71.651267, -33.089657 ], [ -71.651203, -33.089658 ], [ -71.651177, -33.089637 ], [ -71.651074, -33.089628 ], [ -71.651074, -33.089607 ], [ -71.651008, -33.089565 ], [ -71.650928, -33.089449 ], [ -71.650876, -33.089428 ], [ -71.65081, -33.089365 ], [ -71.650785, -33.089365 ], [ -71.650745, -33.089323 ], [ -71.650694, -33.089314 ], [ -71.650654, -33.089271 ], [ -71.650551, -33.08923 ], [ -71.650315, -33.089042 ], [ -71.650186, -33.089012 ], [ -71.650107, -33.08896 ], [ -71.650054, -33.088886 ], [ -71.650053, -33.088864 ], [ -71.650014, -33.088833 ], [ -71.649999, -33.088758 ], [ -71.649895, -33.088695 ], [ -71.649868, -33.088663 ], [ -71.649853, -33.088578 ], [ -71.649826, -33.088524 ], [ -71.649824, -33.08846 ], [ -71.649811, -33.088449 ], [ -71.64979, -33.088202 ], [ -71.649764, -33.08817 ], [ -71.649667, -33.087935 ], [ -71.649602, -33.087894 ], [ -71.649499, -33.087874 ], [ -71.649486, -33.087853 ], [ -71.64932, -33.087857 ], [ -71.649075, -33.087808 ], [ -71.648879, -33.087661 ], [ -71.64876, -33.087524 ], [ -71.648708, -33.087504 ], [ -71.648681, -33.087472 ], [ -71.648617, -33.087462 ], [ -71.6485, -33.0874 ], [ -71.648434, -33.087326 ], [ -71.64833, -33.087264 ], [ -71.648251, -33.08719 ], [ -71.648223, -33.087126 ], [ -71.64821, -33.087126 ], [ -71.648157, -33.087052 ], [ -71.648156, -33.08702 ], [ -71.648117, -33.086999 ], [ -71.648049, -33.08685 ], [ -71.647915, -33.086648 ], [ -71.647887, -33.086584 ], [ -71.647857, -33.086423 ], [ -71.64776, -33.086199 ], [ -71.647758, -33.086124 ], [ -71.647716, -33.086006 ], [ -71.647698, -33.085834 ], [ -71.647451, -33.085678 ], [ -71.647373, -33.085658 ], [ -71.647334, -33.085627 ], [ -71.647239, -33.085435 ], [ -71.647232, -33.08522 ], [ -71.647102, -33.085147 ], [ -71.646865, -33.084977 ], [ -71.646842, -33.084895 ], [ -71.646285, -33.084209 ], [ -71.645377, -33.083162 ], [ -71.644478, -33.082442 ], [ -71.643768, -33.081514 ], [ -71.642573, -33.080678 ], [ -71.641023, -33.079357 ], [ -71.640134, -33.078965 ], [ -71.639253, -33.078449 ] ] } },
{ "type": "Feature", "properties": { "objectid": 49053, "fid_drenes": 113976, "cod_comuna": 5101, "shape_leng": 3057.0297103799999, "st_length_": 3655.5615658400002, "Nombre": null, "Dren_Tipo": "Quebrada", "Region": "Región de Valparaíso", "Provincia": "Valparaíso", "Comuna": "Valparaíso" }, "geometry": { "type": "LineString", "coordinates": [ [ -71.587078, -33.094278 ], [ -71.587058, -33.093611 ], [ -71.586638, -33.092808 ], [ -71.585933, -33.091964 ], [ -71.585227, -33.091072 ], [ -71.584411, -33.090326 ], [ -71.584053, -33.089713 ], [ -71.583528, -33.089199 ], [ -71.582779, -33.088785 ], [ -71.581975, -33.08842 ], [ -71.581229, -33.088102 ], [ -71.58048, -33.087688 ], [ -71.57949, -33.086802 ], [ -71.57873, -33.086006 ], [ -71.578147, -33.085446 ], [ -71.577445, -33.084697 ], [ -71.577024, -33.083847 ], [ -71.577066, -33.083369 ], [ -71.577496, -33.082549 ], [ -71.577646, -33.081878 ], [ -71.57772, -33.08054 ], [ -71.577646, -33.079921 ], [ -71.577353, -33.079594 ], [ -71.57677, -33.079033 ], [ -71.576175, -33.078091 ], [ -71.575594, -33.077578 ], [ -71.575125, -33.077063 ], [ -71.574712, -33.076499 ], [ -71.57435, -33.075743 ], [ -71.574275, -33.075124 ], [ -71.574194, -33.074267 ], [ -71.573836, -33.073654 ], [ -71.57354, -33.073231 ], [ -71.572966, -33.072957 ], [ -71.571941, -33.071848 ] ] } },
{ "type": "Feature", "properties": { "objectid": 49064, "fid_drenes": 114006, "cod_comuna": 5101, "shape_leng": 1620.96106738, "st_length_": 1939.87327418, "Nombre": null, "Dren_Tipo": "Quebrada", "Region": "Región de Valparaíso", "Provincia": "Valparaíso", "Comuna": "Valparaíso" }, "geometry": { "type": "LineString", "coordinates": [ [ -71.557862, -33.089096 ], [ -71.557298, -33.089645 ], [ -71.556521, -33.090233 ], [ -71.555578, -33.090921 ], [ -71.554968, -33.09141 ], [ -71.554648, -33.092085 ], [ -71.554671, -33.092895 ], [ -71.555028, -33.093461 ], [ -71.555216, -33.094077 ], [ -71.554899, -33.094895 ], [ -71.554515, -33.095332 ], [ -71.554368, -33.096146 ], [ -71.554635, -33.097524 ], [ -71.554945, -33.098424 ], [ -71.555199, -33.099374 ], [ -71.555572, -33.100511 ], [ -71.555735, -33.102225 ] ] } },
{ "type": "Feature", "properties": { "objectid": 49066, "fid_drenes": 114011, "cod_comuna": 5101, "shape_leng": 5254.1864489199997, "st_length_": 6263.21679141, "Nombre": null, "Dren_Tipo": "Quebrada", "Region": "Región de Valparaíso", "Provincia": "Valparaíso", "Comuna": "Valparaíso" }, "geometry": { "type": "LineString", "coordinates": [ [ -71.664304, -33.095615 ], [ -71.663796, -33.095967 ], [ -71.663478, -33.096221 ], [ -71.663176, -33.096489 ], [ -71.663032, -33.096628 ], [ -71.662893, -33.096827 ], [ -71.662771, -33.097084 ], [ -71.662267, -33.097549 ], [ -71.6615, -33.098328 ], [ -71.661315, -33.098474 ], [ -71.661094, -33.098579 ], [ -71.660851, -33.098638 ], [ -71.660667, -33.09873 ], [ -71.66031, -33.098928 ], [ -71.659674, -33.099346 ], [ -71.659254, -33.099566 ], [ -71.658957, -33.09969 ], [ -71.658308, -33.099903 ], [ -71.657764, -33.100118 ], [ -71.657415, -33.100283 ], [ -71.657077, -33.100465 ], [ -71.656754, -33.100664 ], [ -71.656609, -33.100776 ], [ -71.656449, -33.100872 ], [ -71.656275, -33.10095 ], [ -71.655995, -33.101029 ], [ -71.655801, -33.101056 ], [ -71.655505, -33.101056 ], [ -71.654983, -33.100922 ], [ -71.654612, -33.100802 ], [ -71.654117, -33.100696 ], [ -71.65338, -33.100712 ], [ -71.652818, -33.100867 ], [ -71.652426, -33.101019 ], [ -71.651691, -33.101082 ], [ -71.651402, -33.100897 ], [ -71.650949, -33.100907 ], [ -71.650672, -33.101151 ], [ -71.65062, -33.101296 ], [ -71.650224, -33.101304 ], [ -71.649879, -33.101168 ], [ -71.649757, -33.100885 ], [ -71.649753, -33.100742 ], [ -71.649685, -33.100361 ], [ -71.649169, -33.100181 ], [ -71.648484, -33.100005 ], [ -71.648026, -33.099872 ], [ -71.647688, -33.099927 ], [ -71.646677, -33.100234 ], [ -71.646455, -33.100382 ], [ -71.645493, -33.10045 ], [ -71.644637, -33.100278 ], [ -71.64373, -33.100249 ], [ -71.64288, -33.100267 ], [ -71.641805, -33.100338 ], [ -71.641192, -33.100685 ], [ -71.640515, -33.100795 ], [ -71.639771, -33.100572 ], [ -71.639195, -33.10025 ], [ -71.638281, -33.100031 ], [ -71.637538, -33.099808 ], [ -71.636798, -33.099728 ], [ -71.635715, -33.099513 ], [ -71.634963, -33.099004 ], [ -71.633627, -33.097935 ], [ -71.632358, -33.097198 ], [ -71.631726, -33.096925 ], [ -71.630813, -33.096706 ], [ -71.630236, -33.096384 ], [ -71.629135, -33.095549 ], [ -71.628156, -33.095044 ], [ -71.627448, -33.094105 ], [ -71.627087, -33.093397 ], [ -71.626894, -33.092638 ], [ -71.626594, -33.092071 ], [ -71.62596, -33.090773 ], [ -71.625324, -33.090357 ], [ -71.624467, -33.090136 ], [ -71.623313, -33.089445 ], [ -71.622779, -33.088645 ], [ -71.622132, -33.087848 ], [ -71.62188, -33.086994 ], [ -71.621751, -33.086472 ], [ -71.621607, -33.085425 ] ] } },
{ "type": "Feature", "properties": { "objectid": 49068, "fid_drenes": 114015, "cod_comuna": 5101, "shape_leng": 1740.98561402, "st_length_": 2080.7001255499999, "Nombre": null, "Dren_Tipo": "Quebrada", "Region": "Región de Valparaíso", "Provincia": "Valparaíso", "Comuna": "Valparaíso" }, "geometry": { "type": "MultiLineString", "coordinates": [ [ [ -71.556015, -33.088741 ], [ -71.555883, -33.088743 ], [ -71.555382, -33.08904 ], [ -71.554826, -33.089433 ], [ -71.55455, -33.089677 ], [ -71.553824, -33.090074 ], [ -71.553096, -33.090375 ], [ -71.552259, -33.090822 ], [ -71.551538, -33.091361 ], [ -71.550986, -33.091897 ], [ -71.550266, -33.092485 ], [ -71.549375, -33.093028 ], [ -71.548485, -33.093619 ], [ -71.547547, -33.094497 ], [ -71.546404, -33.096142 ], [ -71.546088, -33.09696 ], [ -71.545982, -33.097191 ] ], [ [ -71.545838, -33.097507 ], [ -71.545714, -33.097778 ], [ -71.543549, -33.100337 ] ] ] } },
{ "type": "Feature", "properties": { "objectid": 49069, "fid_drenes": 114015, "cod_comuna": 5109, "shape_leng": 498.3055078, "st_length_": 596.25143750300003, "Nombre": null, "Dren_Tipo": "Quebrada", "Region": "Región de Valparaíso", "Provincia": "Valparaíso", "Comuna": "Viña del Mar" }, "geometry": { "type": "MultiLineString", "coordinates": [ [ [ -71.545982, -33.097191 ], [ -71.545838, -33.097507 ] ], [ [ -71.543549, -33.100337 ], [ -71.543166, -33.100813 ], [ -71.542504, -33.101446 ], [ -71.54212, -33.101884 ], [ -71.541965, -33.102412 ], [ -71.541815, -33.10313 ], [ -71.541329, -33.103951 ] ] ] } },
{ "type": "Feature", "properties": { "objectid": 49073, "fid_drenes": 114036, "cod_comuna": 5101, "shape_leng": 1096.06437529, "st_length_": 1307.45098431, "Nombre": null, "Dren_Tipo": "Quebrada", "Region": "Región de Valparaíso", "Provincia": "Valparaíso", "Comuna": "Valparaíso" }, "geometry": { "type": "LineString", "coordinates": [ [ -71.593769, -33.105257 ], [ -71.59346, -33.105072 ], [ -71.592888, -33.104893 ], [ -71.592318, -33.104809 ], [ -71.591522, -33.10473 ], [ -71.590952, -33.104599 ], [ -71.589636, -33.104197 ], [ -71.589013, -33.10421 ], [ -71.587095, -33.104536 ], [ -71.585618, -33.104424 ], [ -71.584531, -33.104112 ], [ -71.583448, -33.103896 ], [ -71.582804, -33.103194 ] ] } },
{ "type": "Feature", "properties": { "objectid": 49074, "fid_drenes": 114037, "cod_comuna": 5101, "shape_leng": 831.0330032000001, "st_length_": 994.67237219200001, "Nombre": null, "Dren_Tipo": "Quebrada", "Region": "Región de Valparaíso", "Provincia": "Valparaíso", "Comuna": "Valparaíso" }, "geometry": { "type": "LineString", "coordinates": [ [ -71.592301, -33.098416 ], [ -71.591924, -33.099092 ], [ -71.591545, -33.09972 ], [ -71.591501, -33.10015 ], [ -71.59151, -33.100436 ], [ -71.59192, -33.100905 ], [ -71.592385, -33.101277 ], [ -71.592741, -33.101842 ], [ -71.592999, -33.102887 ], [ -71.593295, -33.10331 ], [ -71.593598, -33.103971 ], [ -71.593769, -33.105257 ] ] } },
{ "type": "Feature", "properties": { "objectid": 49077, "fid_drenes": 114055, "cod_comuna": 5101, "shape_leng": 1510.8680957300001, "st_length_": 1805.54674118, "Nombre": null, "Dren_Tipo": "Quebrada", "Region": "Región de Valparaíso", "Provincia": "Valparaíso", "Comuna": "Valparaíso" }, "geometry": { "type": "LineString", "coordinates": [ [ -71.601842, -33.105545 ], [ -71.60202, -33.105084 ], [ -71.601943, -33.10437 ], [ -71.601636, -33.103565 ], [ -71.600937, -33.10296 ], [ -71.600081, -33.102739 ], [ -71.598994, -33.102428 ], [ -71.598071, -33.101874 ], [ -71.597365, -33.100983 ], [ -71.596882, -33.099991 ], [ -71.596296, -33.099335 ], [ -71.595377, -33.098925 ], [ -71.594179, -33.098663 ], [ -71.594006, -33.098571 ] ] } },
{ "type": "Feature", "properties": { "objectid": 49081, "fid_drenes": 114060, "cod_comuna": 5101, "shape_leng": 2231.0687352999998, "st_length_": 2666.59514889, "Nombre": null, "Dren_Tipo": "Quebrada", "Region": "Región de Valparaíso", "Provincia": "Valparaíso", "Comuna": "Valparaíso" }, "geometry": { "type": "LineString", "coordinates": [ [ -71.619427, -33.105176 ], [ -71.619188, -33.104772 ], [ -71.618606, -33.104259 ], [ -71.61803, -33.103937 ], [ -71.617736, -33.10361 ], [ -71.617721, -33.103085 ], [ -71.617477, -33.102518 ], [ -71.617013, -33.102146 ], [ -71.616149, -33.101687 ], [ -71.615, -33.101186 ], [ -71.613842, -33.100352 ], [ -71.613312, -33.099695 ], [ -71.612556, -33.099043 ], [ -71.611747, -33.098535 ], [ -71.611051, -33.097977 ], [ -71.608528, -33.097028 ], [ -71.60783, -33.096422 ], [ -71.606659, -33.095158 ], [ -71.606243, -33.094499 ], [ -71.606044, -33.093501 ] ] } },
{ "type": "Feature", "properties": { "objectid": 49084, "fid_drenes": 114063, "cod_comuna": 5101, "shape_leng": 1325.18461806, "st_length_": 1332.5550313399999, "Nombre": "Estero del Sauce", "Dren_Tipo": "Estero", "Region": "Región de Valparaíso", "Provincia": "Valparaíso", "Comuna": "Valparaíso" }, "geometry": { "type": "LineString", "coordinates": [ [ -71.670455, -33.100994 ], [ -71.670301, -33.101072 ], [ -71.670135, -33.101132 ], [ -71.669961, -33.101173 ], [ -71.669782, -33.101192 ], [ -71.669692, -33.101195 ], [ -71.66919, -33.101098 ], [ -71.66868, -33.101111 ], [ -71.668176, -33.101171 ], [ -71.667846, -33.101237 ], [ -71.667363, -33.101373 ], [ -71.667052, -33.101488 ], [ -71.666734, -33.101641 ], [ -71.66643, -33.101813 ], [ -71.666143, -33.102004 ], [ -71.665874, -33.102212 ], [ -71.665506, -33.102554 ], [ -71.665187, -33.102929 ], [ -71.66492, -33.103332 ], [ -71.664252, -33.1041 ], [ -71.664196, -33.104227 ] ] } },
{ "type": "Feature", "properties": { "objectid": 49085, "fid_drenes": 114064, "cod_comuna": 5101, "shape_leng": 466.92907466000003, "st_length_": 558.76841658700005, "Nombre": null, "Dren_Tipo": "Quebrada", "Region": "Región de Valparaíso", "Provincia": "Valparaíso", "Comuna": "Valparaíso" }, "geometry": { "type": "LineString", "coordinates": [ [ -71.59413, -33.105706 ], [ -71.593922, -33.105348 ], [ -71.593769, -33.105257 ] ] } },
{ "type": "Feature", "properties": { "objectid": 49087, "fid_drenes": 114066, "cod_comuna": 5101, "shape_leng": 1069.5288079100001, "st_length_": 1269.34276172, "Nombre": null, "Dren_Tipo": "Quebrada", "Region": "Región de Valparaíso", "Provincia": "Valparaíso", "Comuna": "Valparaíso" }, "geometry": { "type": "LineString", "coordinates": [ [ -71.705109, -33.099574 ], [ -71.70516, -33.099778 ], [ -71.705254, -33.099903 ], [ -71.705252, -33.099975 ], [ -71.70537, -33.100044 ], [ -71.705399, -33.100145 ], [ -71.705465, -33.100216 ], [ -71.705493, -33.100269 ], [ -71.705494, -33.10032 ], [ -71.70547, -33.100371 ], [ -71.70546, -33.100721 ], [ -71.705399, -33.10086 ], [ -71.705422, -33.101047 ], [ -71.705626, -33.101241 ], [ -71.705761, -33.101324 ], [ -71.705876, -33.101423 ], [ -71.705931, -33.101548 ], [ -71.706291, -33.101966 ], [ -71.706386, -33.102116 ], [ -71.706409, -33.102177 ], [ -71.706594, -33.102349 ], [ -71.706613, -33.102403 ], [ -71.706589, -33.102443 ], [ -71.706596, -33.10253 ], [ -71.706571, -33.102567 ], [ -71.706572, -33.102613 ], [ -71.706613, -33.102667 ], [ -71.706687, -33.102726 ], [ -71.706739, -33.102714 ], [ -71.706775, -33.102789 ], [ -71.706806, -33.102814 ], [ -71.706807, -33.102843 ], [ -71.706778, -33.102872 ], [ -71.706766, -33.102909 ], [ -71.70677, -33.103031 ], [ -71.706819, -33.103095 ], [ -71.706874, -33.10321 ], [ -71.706891, -33.103306 ] ] } },
{ "type": "Feature", "properties": { "objectid": 49098, "fid_drenes": 114079, "cod_comuna": 5101, "shape_leng": 3924.0109055399998, "st_length_": 4687.7275209400004, "Nombre": null, "Dren_Tipo": "Quebrada", "Region": "Región de Valparaíso", "Provincia": "Valparaíso", "Comuna": "Valparaíso" }, "geometry": { "type": "LineString", "coordinates": [ [ -71.611489, -33.091717 ], [ -71.611783, -33.092093 ], [ -71.612084, -33.092659 ], [ -71.612559, -33.093413 ], [ -71.613037, -33.094214 ], [ -71.61346, -33.095111 ], [ -71.61394, -33.096008 ], [ -71.614529, -33.096759 ], [ -71.615117, -33.097462 ], [ -71.615648, -33.098167 ], [ -71.617044, -33.099378 ], [ -71.617622, -33.099747 ], [ -71.618191, -33.099831 ], [ -71.619101, -33.099907 ], [ -71.619785, -33.100036 ], [ -71.620694, -33.100112 ], [ -71.621825, -33.100041 ], [ -71.622342, -33.100268 ], [ -71.622807, -33.10064 ], [ -71.623832, -33.10081 ], [ -71.624406, -33.101036 ], [ -71.62623, -33.101379 ], [ -71.627202, -33.101645 ], [ -71.628806, -33.102231 ], [ -71.629381, -33.102506 ], [ -71.630356, -33.102867 ], [ -71.630821, -33.103239 ], [ -71.631291, -33.103801 ], [ -71.631986, -33.104311 ], [ -71.632794, -33.104771 ], [ -71.63296, -33.104891 ] ] } },
{ "type": "Feature", "properties": { "objectid": 49114, "fid_drenes": 114096, "cod_comuna": 5101, "shape_leng": 1617.83670284, "st_length_": 2203.0679257900001, "Nombre": null, "Dren_Tipo": "Quebrada", "Region": "Región de Valparaíso", "Provincia": "Valparaíso", "Comuna": "Valparaíso" }, "geometry": { "type": "LineString", "coordinates": [ [ -71.684375, -33.103759 ], [ -71.684414, -33.103793 ] ] } },
{ "type": "Feature", "properties": { "objectid": 49125, "fid_drenes": 114109, "cod_comuna": 5101, "shape_leng": 2070.31408844, "st_length_": 2740.4181549, "Nombre": null, "Dren_Tipo": "Quebrada", "Region": "Región de Valparaíso", "Provincia": "Valparaíso", "Comuna": "Valparaíso" }, "geometry": { "type": "LineString", "coordinates": [ [ -71.678656, -33.103338 ], [ -71.678159, -33.103497 ], [ -71.678013, -33.103564 ], [ -71.677808, -33.103705 ], [ -71.677575, -33.10394 ] ] } },
{ "type": "Feature", "properties": { "objectid": 88420, "fid_drenes": 0, "cod_comuna": 5101, "shape_leng": 5067.7169191900002, "st_length_": 6440.3913458400002, "Nombre": "Quebrada Los Placeres", "Dren_Tipo": "Quebrada", "Region": "Región de Valparaíso", "Provincia": "Valparaíso", "Comuna": "Valparaíso" }, "geometry": { "type": "LineString", "coordinates": [ [ -71.599214, -33.035387 ], [ -71.598989, -33.036207 ], [ -71.598672, -33.036424 ], [ -71.598398, -33.03664 ], [ -71.59825, -33.03709 ], [ -71.598084, -33.037478 ], [ -71.598152, -33.037786 ], [ -71.598144, -33.03784 ], [ -71.59803, -33.038066 ], [ -71.59796, -33.038277 ], [ -71.597941, -33.038771 ], [ -71.597909, -33.038925 ], [ -71.597815, -33.039013 ], [ -71.597694, -33.039005 ], [ -71.597552, -33.038975 ], [ -71.597494, -33.038944 ], [ -71.597252, -33.038761 ], [ -71.597041, -33.038754 ], [ -71.596992, -33.038836 ], [ -71.596995, -33.038954 ], [ -71.597036, -33.03904 ], [ -71.597076, -33.039203 ], [ -71.597007, -33.039268 ], [ -71.596892, -33.039331 ], [ -71.596856, -33.039377 ], [ -71.596838, -33.03943 ], [ -71.596849, -33.039512 ], [ -71.596951, -33.039608 ], [ -71.596988, -33.039732 ], [ -71.596861, -33.039869 ], [ -71.596716, -33.039992 ], [ -71.596685, -33.040087 ], [ -71.596626, -33.040173 ], [ -71.596543, -33.040243 ], [ -71.596386, -33.040309 ], [ -71.596186, -33.040296 ], [ -71.595917, -33.040209 ], [ -71.595831, -33.040226 ], [ -71.595784, -33.040256 ], [ -71.595753, -33.040299 ], [ -71.59574, -33.040347 ], [ -71.59586, -33.040799 ], [ -71.595851, -33.040866 ], [ -71.595818, -33.040926 ], [ -71.595763, -33.040974 ], [ -71.595544, -33.04108 ], [ -71.59532, -33.041268 ], [ -71.595151, -33.041369 ], [ -71.594968, -33.04145 ], [ -71.594773, -33.041508 ], [ -71.594636, -33.041586 ], [ -71.594469, -33.041739 ], [ -71.59426, -33.042079 ], [ -71.594062, -33.042278 ], [ -71.593814, -33.042433 ], [ -71.593683, -33.042464 ], [ -71.593562, -33.042516 ], [ -71.593407, -33.042627 ], [ -71.593303, -33.042751 ], [ -71.593307, -33.042876 ], [ -71.593184, -33.043045 ], [ -71.59288, -33.043364 ], [ -71.59263, -33.043538 ], [ -71.592254, -33.043999 ], [ -71.591898, -33.044388 ], [ -71.59141, -33.044958 ], [ -71.591239, -33.0451 ], [ -71.590946, -33.045273 ], [ -71.59073, -33.04536 ], [ -71.590407, -33.045453 ], [ -71.590312, -33.045625 ], [ -71.590317, -33.045797 ], [ -71.590262, -33.045873 ], [ -71.59018, -33.046144 ], [ -71.590058, -33.04633 ], [ -71.589717, -33.046461 ], [ -71.58951, -33.046395 ], [ -71.589417, -33.046263 ], [ -71.589315, -33.046082 ], [ -71.589089, -33.045954 ], [ -71.588966, -33.045936 ], [ -71.588885, -33.045953 ], [ -71.588815, -33.045991 ], [ -71.588621, -33.046239 ], [ -71.588449, -33.046365 ], [ -71.588314, -33.046424 ], [ -71.588184, -33.04652 ], [ -71.588102, -33.046554 ], [ -71.587753, -33.046647 ], [ -71.587483, -33.046809 ], [ -71.587304, -33.046823 ], [ -71.587114, -33.046876 ], [ -71.586702, -33.046904 ], [ -71.586364, -33.046865 ], [ -71.585993, -33.046753 ], [ -71.58589, -33.046748 ], [ -71.58579, -33.046772 ], [ -71.585669, -33.046853 ], [ -71.585621, -33.046931 ], [ -71.585605, -33.047017 ], [ -71.58561, -33.047061 ], [ -71.585728, -33.047167 ], [ -71.585822, -33.04729 ], [ -71.585889, -33.047425 ], [ -71.585926, -33.047567 ], [ -71.585925, -33.047786 ], [ -71.58587, -33.047851 ], [ -71.585799, -33.048028 ], [ -71.585597, -33.048135 ], [ -71.585491, -33.048229 ], [ -71.585366, -33.048307 ], [ -71.585175, -33.048348 ], [ -71.585002, -33.04833 ], [ -71.584917, -33.048268 ], [ -71.5846, -33.048278 ], [ -71.584443, -33.048348 ], [ -71.584302, -33.048439 ], [ -71.58418, -33.048548 ], [ -71.584146, -33.048598 ], [ -71.584096, -33.048706 ], [ -71.584073, -33.048819 ], [ -71.584072, -33.048877 ], [ -71.584104, -33.048964 ], [ -71.584237, -33.049245 ], [ -71.584236, -33.049324 ], [ -71.584185, -33.049435 ], [ -71.584122, -33.049494 ], [ -71.583986, -33.049571 ], [ -71.583878, -33.049606 ], [ -71.583704, -33.049621 ], [ -71.583589, -33.049605 ], [ -71.583391, -33.049536 ], [ -71.58326, -33.049464 ], [ -71.583115, -33.049356 ], [ -71.583061, -33.049346 ], [ -71.583009, -33.049359 ], [ -71.58297, -33.049392 ], [ -71.582955, -33.049437 ], [ -71.583042, -33.049885 ], [ -71.583037, -33.049926 ], [ -71.582976, -33.050037 ], [ -71.582861, -33.050113 ], [ -71.582717, -33.050135 ], [ -71.582359, -33.050054 ], [ -71.581983, -33.049916 ], [ -71.581696, -33.049767 ], [ -71.581567, -33.049736 ], [ -71.581295, -33.049694 ], [ -71.581047, -33.049726 ], [ -71.580933, -33.049761 ], [ -71.5808, -33.049823 ], [ -71.580639, -33.049987 ], [ -71.580653, -33.050294 ], [ -71.580642, -33.050356 ], [ -71.580676, -33.050556 ], [ -71.58066, -33.05069 ], [ -71.580614, -33.050819 ], [ -71.580538, -33.050938 ], [ -71.580435, -33.051042 ], [ -71.580315, -33.051128 ], [ -71.580178, -33.051194 ], [ -71.580029, -33.051233 ], [ -71.579873, -33.051246 ], [ -71.579717, -33.05123 ], [ -71.579569, -33.051187 ], [ -71.579435, -33.051119 ], [ -71.579277, -33.050924 ], [ -71.5791, -33.050741 ], [ -71.578984, -33.050752 ], [ -71.578875, -33.050788 ], [ -71.578783, -33.050848 ], [ -71.578688, -33.050971 ], [ -71.57866, -33.051116 ], [ -71.578718, -33.051303 ], [ -71.578724, -33.051395 ], [ -71.578671, -33.051527 ], [ -71.578601, -33.051598 ], [ -71.578508, -33.051648 ], [ -71.578402, -33.051672 ], [ -71.578235, -33.051654 ], [ -71.578134, -33.05161 ], [ -71.57805, -33.051545 ], [ -71.577989, -33.051464 ], [ -71.577955, -33.051373 ], [ -71.577921, -33.051353 ], [ -71.577802, -33.051325 ], [ -71.577682, -33.051349 ], [ -71.577354, -33.051522 ], [ -71.577201, -33.051633 ], [ -71.576512, -33.05237 ], [ -71.576144, -33.052611 ], [ -71.575608, -33.052654 ], [ -71.575452, -33.052566 ], [ -71.57531, -33.052521 ], [ -71.575099, -33.052536 ], [ -71.574954, -33.052593 ], [ -71.574349, -33.052686 ], [ -71.574242, -33.05272 ], [ -71.574159, -33.052727 ], [ -71.57405, -33.052724 ], [ -71.573934, -33.0527 ], [ -71.573882, -33.052658 ], [ -71.573837, -33.052643 ], [ -71.573677, -33.052635 ], [ -71.573569, -33.05268 ], [ -71.57352, -33.052741 ], [ -71.573438, -33.05278 ], [ -71.573195, -33.05279 ], [ -71.573099, -33.052766 ], [ -71.572945, -33.052763 ], [ -71.57287, -33.052808 ], [ -71.572814, -33.052868 ], [ -71.57277, -33.052885 ], [ -71.572463, -33.052892 ], [ -71.572355, -33.052926 ], [ -71.57224, -33.052939 ], [ -71.572077, -33.053018 ], [ -71.572026, -33.053057 ], [ -71.571899, -33.05307 ], [ -71.57171, -33.053176 ], [ -71.57164, -33.053194 ], [ -71.571416, -33.053382 ], [ -71.571295, -33.053422 ], [ -71.571087, -33.053523 ], [ -71.571069, -33.053561 ], [ -71.571006, -33.053595 ], [ -71.570892, -33.053608 ], [ -71.570886, -33.053619 ], [ -71.570492, -33.053702 ], [ -71.570378, -33.053753 ], [ -71.570196, -33.05387 ], [ -71.570115, -33.053947 ], [ -71.569955, -33.054166 ], [ -71.56988, -33.05421 ], [ -71.56974, -33.054235 ], [ -71.569588, -33.054281 ], [ -71.569494, -33.054342 ], [ -71.569442, -33.054343 ], [ -71.569316, -33.054378 ], [ -71.569137, -33.054382 ], [ -71.568997, -33.054412 ], [ -71.568858, -33.054479 ], [ -71.568639, -33.05465 ], [ -71.568557, -33.054668 ], [ -71.568352, -33.054673 ], [ -71.56827, -33.054685 ], [ -71.568092, -33.054743 ], [ -71.568054, -33.054738 ], [ -71.56791, -33.054859 ], [ -71.567872, -33.054876 ], [ -71.567598, -33.054893 ], [ -71.567522, -33.054927 ], [ -71.567498, -33.05497 ], [ -71.567347, -33.05507 ], [ -71.567229, -33.055191 ], [ -71.567053, -33.055292 ], [ -71.567042, -33.05534 ], [ -71.566943, -33.055455 ], [ -71.566791, -33.055523 ], [ -71.56661, -33.055667 ], [ -71.566489, -33.055912 ], [ -71.566452, -33.055955 ], [ -71.566376, -33.055968 ], [ -71.566288, -33.056018 ], [ -71.566135, -33.056027 ], [ -71.566115, -33.056011 ], [ -71.565917, -33.056015 ], [ -71.565644, -33.056101 ], [ -71.565244, -33.056185 ], [ -71.56502, -33.056195 ], [ -71.564958, -33.05625 ], [ -71.56494, -33.056299 ], [ -71.564915, -33.056321 ], [ -71.564891, -33.056375 ], [ -71.564894, -33.056456 ], [ -71.564869, -33.056483 ], [ -71.564894, -33.056623 ], [ -71.564946, -33.056719 ], [ -71.564917, -33.056805 ], [ -71.564867, -33.056855 ], [ -71.56476, -33.056906 ], [ -71.564697, -33.056961 ], [ -71.564642, -33.057043 ], [ -71.564496, -33.057056 ], [ -71.564476, -33.057041 ], [ -71.564336, -33.057081 ], [ -71.564318, -33.057103 ], [ -71.564223, -33.057148 ], [ -71.564192, -33.057187 ], [ -71.564194, -33.05723 ], [ -71.56417, -33.057289 ], [ -71.564101, -33.057345 ], [ -71.563929, -33.057364 ], [ -71.563871, -33.057339 ], [ -71.563698, -33.057331 ], [ -71.563597, -33.057366 ], [ -71.56349, -33.057443 ], [ -71.563324, -33.057447 ], [ -71.562833, -33.057382 ], [ -71.56274, -33.057389 ], [ -71.56247, -33.057443 ], [ -71.562219, -33.057543 ] ] } },
{ "type": "Feature", "properties": { "objectid": 101036, "fid_drenes": 114066, "cod_comuna": 5101, "shape_leng": 1069.5288079100001, "st_length_": 1438.2977795899999, "Nombre": null, "Dren_Tipo": "Quebrada", "Region": "Región de Valparaíso", "Provincia": "Valparaíso", "Comuna": "Valparaíso" }, "geometry": { "type": "LineString", "coordinates": [ [ -71.698219, -33.102856 ], [ -71.698368, -33.103032 ], [ -71.698463, -33.103213 ], [ -71.698479, -33.103331 ], [ -71.69855, -33.103487 ] ] } },
{ "type": "Feature", "properties": { "objectid": 101038, "fid_drenes": 114066, "cod_comuna": 5101, "shape_leng": 1069.5288079100001, "st_length_": 1669.9286014500001, "Nombre": null, "Dren_Tipo": "Quebrada", "Region": "Región de Valparaíso", "Provincia": "Valparaíso", "Comuna": "Valparaíso" }, "geometry": { "type": "MultiLineString", "coordinates": [ [ [ -71.694729, -33.102996 ], [ -71.694681, -33.103316 ] ], [ [ -71.694681, -33.103316 ], [ -71.694679, -33.103327 ], [ -71.694679, -33.103316 ], [ -71.694681, -33.103316 ] ], [ [ -71.694681, -33.103316 ], [ -71.694692, -33.103316 ], [ -71.6947, -33.10357 ] ] ] } },
{ "type": "Feature", "properties": { "objectid": 101039, "fid_drenes": 114066, "cod_comuna": 5101, "shape_leng": 1069.5288079100001, "st_length_": 1520.21344176, "Nombre": null, "Dren_Tipo": "Quebrada", "Region": "Región de Valparaíso", "Provincia": "Valparaíso", "Comuna": "Valparaíso" }, "geometry": { "type": "LineString", "coordinates": [ [ -71.69376, -33.103591 ], [ -71.693684, -33.103424 ], [ -71.69358, -33.10334 ], [ -71.693552, -33.103276 ], [ -71.6935, -33.103245 ], [ -71.693499, -33.103223 ], [ -71.693183, -33.103072 ] ] } },
{ "type": "Feature", "properties": { "objectid": 101041, "fid_drenes": 114066, "cod_comuna": 5101, "shape_leng": 1069.5288079100001, "st_length_": 1055.7689466300001, "Nombre": null, "Dren_Tipo": "Quebrada", "Region": "Región de Valparaíso", "Provincia": "Valparaíso", "Comuna": "Valparaíso" }, "geometry": { "type": "LineString", "coordinates": [ [ -71.679417, -33.10371 ], [ -71.67938, -33.103819 ], [ -71.679355, -33.103851 ], [ -71.679357, -33.103901 ] ] } },
{ "type": "Feature", "properties": { "objectid": 101042, "fid_drenes": 114066, "cod_comuna": 5101, "shape_leng": 1069.5288079100001, "st_length_": 1501.24903113, "Nombre": null, "Dren_Tipo": "Quebrada", "Region": "Región de Valparaíso", "Provincia": "Valparaíso", "Comuna": "Valparaíso" }, "geometry": { "type": "LineString", "coordinates": [ [ -71.682834, -33.103827 ], [ -71.682772, -33.103637 ] ] } },
{ "type": "Feature", "properties": { "objectid": 101043, "fid_drenes": 113741, "cod_comuna": 5101, "shape_leng": 978.06945009000003, "st_length_": 288.40195515400001, "Nombre": null, "Dren_Tipo": "Quebrada", "Region": "Región de Valparaíso", "Provincia": "Valparaíso", "Comuna": "Valparaíso" }, "geometry": { "type": "LineString", "coordinates": [ [ -71.652591, -33.044245 ], [ -71.652656, -33.044066 ], [ -71.652838, -33.043766 ], [ -71.65285, -33.043723 ], [ -71.652847, -33.043615 ], [ -71.65287, -33.043545 ], [ -71.653003, -33.0433 ], [ -71.653035, -33.043272 ], [ -71.65308, -33.043088 ], [ -71.653073, -33.042862 ], [ -71.65312, -33.042705 ], [ -71.653206, -33.042595 ], [ -71.653217, -33.042536 ], [ -71.653375, -33.042252 ] ] } },
{ "type": "Feature", "properties": { "objectid": 101045, "fid_drenes": 113741, "cod_comuna": 5101, "shape_leng": 978.06945009000003, "st_length_": 470.92958727600001, "Nombre": null, "Dren_Tipo": "Quebrada", "Region": "Región de Valparaíso", "Provincia": "Valparaíso", "Comuna": "Valparaíso" }, "geometry": { "type": "LineString", "coordinates": [ [ -71.655125, -33.037736 ], [ -71.654754, -33.037501 ], [ -71.654624, -33.03745 ], [ -71.654539, -33.037376 ], [ -71.65442, -33.03725 ], [ -71.654372, -33.037127 ], [ -71.654228, -33.037022 ], [ -71.654155, -33.036943 ], [ -71.654038, -33.036865 ], [ -71.654004, -33.036796 ], [ -71.653706, -33.036463 ], [ -71.653596, -33.036417 ], [ -71.653556, -33.036364 ], [ -71.653501, -33.036225 ], [ -71.653461, -33.036172 ], [ -71.65335, -33.036115 ], [ -71.653241, -33.036101 ], [ -71.653157, -33.036065 ], [ -71.653087, -33.036067 ], [ -71.653067, -33.036051 ], [ -71.652958, -33.036026 ], [ -71.652899, -33.035985 ], [ -71.652752, -33.035972 ], [ -71.652393, -33.035737 ], [ -71.652301, -33.035658 ], [ -71.652184, -33.035601 ], [ -71.652146, -33.035597 ] ] } },
{ "type": "Feature", "properties": { "objectid": 101046, "fid_drenes": 113741, "cod_comuna": 5101, "shape_leng": 978.06945009000003, "st_length_": 107.75909461099999, "Nombre": null, "Dren_Tipo": "Quebrada", "Region": "Región de Valparaíso", "Provincia": "Valparaíso", "Comuna": "Valparaíso" }, "geometry": { "type": "LineString", "coordinates": [ [ -71.652504, -33.036655 ], [ -71.652526, -33.036536 ], [ -71.652585, -33.036395 ], [ -71.652654, -33.03634 ], [ -71.652717, -33.036322 ], [ -71.652768, -33.036289 ], [ -71.652804, -33.03624 ], [ -71.652846, -33.036142 ], [ -71.65289, -33.036103 ], [ -71.652945, -33.036016 ] ] } },
{ "type": "Feature", "properties": { "objectid": 101048, "fid_drenes": 113741, "cod_comuna": 5101, "shape_leng": 978.06945009000003, "st_length_": 3154.9423822700001, "Nombre": null, "Dren_Tipo": "Quebrada", "Region": "Región de Valparaíso", "Provincia": "Valparaíso", "Comuna": "Viña del Mar" }, "geometry": { "type": "LineString", "coordinates": [ [ -71.566785, -33.044523 ], [ -71.566974, -33.044411 ], [ -71.566992, -33.044384 ], [ -71.567068, -33.04435 ], [ -71.567208, -33.04432 ], [ -71.567258, -33.044292 ], [ -71.567531, -33.044217 ], [ -71.567556, -33.044189 ], [ -71.567682, -33.044128 ], [ -71.567879, -33.044113 ], [ -71.568244, -33.044121 ], [ -71.568494, -33.044143 ], [ -71.568755, -33.0441 ], [ -71.568969, -33.043993 ], [ -71.569038, -33.043933 ], [ -71.569049, -33.043879 ], [ -71.569092, -33.043824 ], [ -71.569358, -33.043727 ], [ -71.57031, -33.043702 ], [ -71.570551, -33.043654 ], [ -71.570671, -33.043603 ], [ -71.570773, -33.043579 ], [ -71.571599, -33.043422 ], [ -71.571715, -33.043436 ], [ -71.571831, -33.043477 ], [ -71.571908, -33.043475 ], [ -71.571984, -33.043452 ], [ -71.572021, -33.043414 ], [ -71.572204, -33.043345 ], [ -71.572324, -33.043273 ], [ -71.572751, -33.043237 ], [ -71.572776, -33.043215 ], [ -71.572896, -33.043169 ], [ -71.572977, -33.043103 ], [ -71.573034, -33.043086 ], [ -71.573615, -33.043063 ], [ -71.573666, -33.043035 ], [ -71.573708, -33.042959 ], [ -71.573712, -33.042872 ], [ -71.573754, -33.042791 ], [ -71.573823, -33.042736 ], [ -71.574015, -33.042726 ], [ -71.574118, -33.042746 ], [ -71.57415, -33.042777 ], [ -71.574234, -33.042802 ], [ -71.574432, -33.042798 ], [ -71.574432, -33.042788 ], [ -71.574476, -33.042771 ], [ -71.574563, -33.042666 ], [ -71.574706, -33.042534 ], [ -71.574854, -33.042337 ], [ -71.574962, -33.04212 ], [ -71.575093, -33.041988 ], [ -71.575282, -33.041887 ], [ -71.575369, -33.041821 ], [ -71.575418, -33.041755 ], [ -71.575456, -33.041275 ], [ -71.57551, -33.041177 ], [ -71.57554, -33.04109 ], [ -71.575537, -33.041009 ], [ -71.575468, -33.040822 ], [ -71.575496, -33.040472 ], [ -71.575526, -33.040412 ], [ -71.575555, -33.040282 ], [ -71.575532, -33.03996 ], [ -71.575538, -33.039933 ], [ -71.575612, -33.03984 ], [ -71.575581, -33.039662 ], [ -71.575569, -33.039458 ], [ -71.575616, -33.039333 ], [ -71.575727, -33.039169 ], [ -71.575737, -33.039099 ], [ -71.575729, -33.038825 ], [ -71.575759, -33.038754 ], [ -71.57579, -33.038721 ], [ -71.575843, -33.038559 ], [ -71.575807, -33.038209 ], [ -71.575766, -33.038119 ], [ -71.575764, -33.038033 ], [ -71.575868, -33.037874 ], [ -71.575873, -33.037842 ], [ -71.576055, -33.037504 ], [ -71.576082, -33.037305 ], [ -71.576042, -33.037252 ], [ -71.576037, -33.037101 ], [ -71.575972, -33.03707 ], [ -71.575919, -33.036979 ], [ -71.575903, -33.036646 ], [ -71.575919, -33.036559 ], [ -71.575949, -33.036494 ], [ -71.575952, -33.03637 ], [ -71.575899, -33.036312 ], [ -71.575889, -33.036167 ], [ -71.575968, -33.036031 ], [ -71.576234, -33.035729 ], [ -71.576198, -33.035369 ], [ -71.576228, -33.035304 ], [ -71.576227, -33.035272 ], [ -71.576135, -33.035204 ], [ -71.576115, -33.035172 ], [ -71.576114, -33.035129 ], [ -71.576151, -33.035063 ], [ -71.576206, -33.035003 ], [ -71.576407, -33.034859 ], [ -71.576437, -33.03481 ], [ -71.576448, -33.034756 ], [ -71.576517, -33.034684 ], [ -71.57664, -33.034515 ], [ -71.576675, -33.034422 ], [ -71.576633, -33.034073 ], [ -71.576577, -33.033918 ], [ -71.576607, -33.033826 ], [ -71.576602, -33.033681 ], [ -71.576528, -33.033537 ], [ -71.576524, -33.033397 ], [ -71.576547, -33.033327 ], [ -71.576546, -33.033262 ], [ -71.576416, -33.032969 ], [ -71.576214, -33.032283 ], [ -71.57615, -33.031978 ], [ -71.576109, -33.031667 ], [ -71.576123, -33.031519 ], [ -71.576158, -33.031374 ], [ -71.576258, -33.031113 ], [ -71.576282, -33.030988 ], [ -71.576284, -33.030861 ], [ -71.576348, -33.030652 ], [ -71.576415, -33.030519 ], [ -71.576631, -33.030296 ], [ -71.576755, -33.030135 ], [ -71.576782, -33.030051 ], [ -71.576819, -33.029881 ], [ -71.576832, -33.029708 ], [ -71.577118, -33.028787 ], [ -71.57714, -33.028623 ], [ -71.57714, -33.02823 ], [ -71.57719, -33.02789 ], [ -71.577256, -33.027669 ], [ -71.577348, -33.027455 ] ] } }
]
}
