{
"type": "FeatureCollection",
"name": "sectores_informales",
"crs": { "type": "name", "properties": { "name": "urn:ogc:def:crs:OGC:1.3:CRS84" } },
"xy_coordinate_resolution": 1e-06,
"features": [
{ "type": "Feature", "properties": { "nombre": "LAS FLORES", "DNSDAD_POB": 208, "AREA_Has": 51.9 }, "geometry": { "type": "Polygon", "coordinates": [ [ [ -74.823704, 11.042352 ], [ -74.823736, 11.042269 ], [ -74.824098, 11.041478 ], [ -74.824236, 11.041457 ], [ -74.824145, 11.0412 ], [ -74.82414, 11.041177 ], [ -74.824162, 11.04115 ], [ -74.824249, 11.04109 ], [ -74.82412, 11.040684 ], [ -74.824128, 11.040623 ], [ -74.824039, 11.040289 ], [ -74.824082, 11.040209 ], [ -74.824002, 11.039907 ], [ -74.823853, 11.03932 ], [ -74.823881, 11.039246 ], [ -74.824066, 11.039199 ], [ -74.824055, 11.03918 ], [ -74.82404, 11.039172 ], [ -74.823808, 11.039121 ], [ -74.823837, 11.038973 ], [ -74.825409, 11.036948 ], [ -74.825477, 11.037 ], [ -74.825761, 11.037363 ], [ -74.825957, 11.037725 ], [ -74.826135, 11.038037 ], [ -74.826157, 11.038086 ], [ -74.826279, 11.038314 ], [ -74.826365, 11.038534 ], [ -74.826654, 11.039019 ], [ -74.826981, 11.038917 ], [ -74.827219, 11.038834 ], [ -74.827531, 11.038699 ], [ -74.827705, 11.038621 ], [ -74.828404, 11.038254 ], [ -74.828497, 11.038423 ], [ -74.828569, 11.038565 ], [ -74.828747, 11.038854 ], [ -74.828972, 11.039308 ], [ -74.829013, 11.039359 ], [ -74.829071, 11.039414 ], [ -74.829287, 11.039603 ], [ -74.829367, 11.039682 ], [ -74.829444, 11.039791 ], [ -74.829507, 11.039888 ], [ -74.829732, 11.040206 ], [ -74.829786, 11.040251 ], [ -74.82991, 11.040343 ], [ -74.830034, 11.040451 ], [ -74.830113, 11.040509 ], [ -74.830152, 11.040527 ], [ -74.830197, 11.040542 ], [ -74.830416, 11.04057 ], [ -74.830823, 11.040634 ], [ -74.830882, 11.040773 ], [ -74.830874, 11.040917 ], [ -74.830922, 11.041061 ], [ -74.830904, 11.041243 ], [ -74.830918, 11.041311 ], [ -74.830938, 11.041358 ], [ -74.83089, 11.041406 ], [ -74.830824, 11.041458 ], [ -74.830759, 11.041497 ], [ -74.830707, 11.041503 ], [ -74.830598, 11.041423 ], [ -74.830598, 11.041281 ], [ -74.830499, 11.04119 ], [ -74.830415, 11.041149 ], [ -74.830274, 11.04114 ], [ -74.830229, 11.041171 ], [ -74.830165, 11.0412 ], [ -74.83004, 11.041169 ], [ -74.829971, 11.041182 ], [ -74.829878, 11.041312 ], [ -74.829807, 11.041474 ], [ -74.829796, 11.041553 ], [ -74.830079, 11.04191 ], [ -74.83035, 11.042021 ], [ -74.8306, 11.042316 ], [ -74.83076, 11.042468 ], [ -74.831293, 11.042948 ], [ -74.831527, 11.043042 ], [ -74.831581, 11.043243 ], [ -74.831761, 11.043465 ], [ -74.831675, 11.043617 ], [ -74.831954, 11.043768 ], [ -74.83211, 11.04392 ], [ -74.832171, 11.044134 ], [ -74.832155, 11.044248 ], [ -74.832028, 11.044347 ], [ -74.831831, 11.044347 ], [ -74.831716, 11.04433 ], [ -74.831675, 11.044371 ], [ -74.8317, 11.044462 ], [ -74.83156, 11.044572 ], [ -74.831556, 11.044646 ], [ -74.831409, 11.044669 ], [ -74.831326, 11.044749 ], [ -74.831162, 11.044675 ], [ -74.831002, 11.044544 ], [ -74.830834, 11.044507 ], [ -74.830719, 11.044474 ], [ -74.8306, 11.04433 ], [ -74.830469, 11.044285 ], [ -74.830403, 11.044384 ], [ -74.830457, 11.044523 ], [ -74.830637, 11.044581 ], [ -74.830793, 11.044655 ], [ -74.830752, 11.044913 ], [ -74.830819, 11.045192 ], [ -74.830831, 11.045286 ], [ -74.830757, 11.045344 ], [ -74.830667, 11.045393 ], [ -74.830636, 11.045413 ], [ -74.830652, 11.045443 ], [ -74.83071, 11.045451 ], [ -74.83079, 11.045513 ], [ -74.830812, 11.045584 ], [ -74.830789, 11.045683 ], [ -74.830741, 11.045787 ], [ -74.830598, 11.045835 ], [ -74.830366, 11.046072 ], [ -74.830131, 11.046228 ], [ -74.82995, 11.046357 ], [ -74.829823, 11.046472 ], [ -74.830783, 11.047466 ], [ -74.831054, 11.047717 ], [ -74.83091, 11.047872 ], [ -74.830594, 11.047655 ], [ -74.830311, 11.047417 ], [ -74.830081, 11.047183 ], [ -74.829683, 11.046724 ], [ -74.829437, 11.046457 ], [ -74.827642, 11.044964 ], [ -74.827613, 11.044907 ], [ -74.827545, 11.044864 ], [ -74.827473, 11.044807 ], [ -74.827103, 11.044572 ], [ -74.826591, 11.04424 ], [ -74.826008, 11.043949 ], [ -74.825454, 11.043658 ], [ -74.825104, 11.043481 ], [ -74.824337, 11.04317 ], [ -74.823494, 11.042794 ], [ -74.823704, 11.042352 ] ] ] } },
{ "type": "Feature", "properties": { "nombre": "CORREGIMIENTO LA PLAYA", "DNSDAD_POB": 135, "AREA_Has": 179.7 }, "geometry": { "type": "Polygon", "coordinates": [ [ [ -74.872479, 11.034513 ], [ -74.872236, 11.034807 ], [ -74.871473, 11.035696 ], [ -74.871056, 11.036126 ], [ -74.869952, 11.037228 ], [ -74.869121, 11.038388 ], [ -74.868788, 11.038232 ], [ -74.868855, 11.0381 ], [ -74.867998, 11.037765 ], [ -74.867599, 11.038494 ], [ -74.866391, 11.038038 ], [ -74.865188, 11.037483 ], [ -74.864859, 11.037567 ], [ -74.864782, 11.03763 ], [ -74.86469, 11.037663 ], [ -74.864607, 11.03762 ], [ -74.864515, 11.037654 ], [ -74.864433, 11.037697 ], [ -74.864365, 11.037759 ], [ -74.864288, 11.037816 ], [ -74.864196, 11.037797 ], [ -74.864147, 11.037716 ], [ -74.863973, 11.03763 ], [ -74.863896, 11.037568 ], [ -74.863804, 11.037563 ], [ -74.863712, 11.037529 ], [ -74.863707, 11.037438 ], [ -74.863682, 11.037343 ], [ -74.863595, 11.037295 ], [ -74.863503, 11.037276 ], [ -74.863445, 11.037199 ], [ -74.863266, 11.037123 ], [ -74.863227, 11.037037 ], [ -74.863169, 11.036965 ], [ -74.863092, 11.036907 ], [ -74.863, 11.036888 ], [ -74.862908, 11.036874 ], [ -74.862782, 11.036735 ], [ -74.862699, 11.036683 ], [ -74.862656, 11.036592 ], [ -74.862603, 11.03651 ], [ -74.862578, 11.03642 ], [ -74.862593, 11.036329 ], [ -74.862501, 11.036329 ], [ -74.862409, 11.036353 ], [ -74.862322, 11.036324 ], [ -74.862274, 11.036317 ], [ -74.862201, 11.036247 ], [ -74.862171, 11.036161 ], [ -74.862109, 11.036094 ], [ -74.861963, 11.03598 ], [ -74.861876, 11.035946 ], [ -74.861789, 11.03598 ], [ -74.861707, 11.035937 ], [ -74.861634, 11.035994 ], [ -74.861547, 11.036023 ], [ -74.861484, 11.035951 ], [ -74.861406, 11.035898 ], [ -74.861314, 11.035874 ], [ -74.861222, 11.03586 ], [ -74.86113, 11.035855 ], [ -74.861033, 11.03586 ], [ -74.860961, 11.035922 ], [ -74.860908, 11.036004 ], [ -74.860869, 11.03609 ], [ -74.86084, 11.036176 ], [ -74.860782, 11.036248 ], [ -74.860685, 11.036252 ], [ -74.860612, 11.036195 ], [ -74.860448, 11.036109 ], [ -74.860365, 11.036061 ], [ -74.860278, 11.036032 ], [ -74.860186, 11.036037 ], [ -74.860094, 11.036056 ], [ -74.860002, 11.036071 ], [ -74.859944, 11.036142 ], [ -74.859929, 11.036233 ], [ -74.859837, 11.036243 ], [ -74.85975, 11.036272 ], [ -74.859678, 11.036444 ], [ -74.859615, 11.036511 ], [ -74.859523, 11.036516 ], [ -74.859436, 11.036487 ], [ -74.859348, 11.036439 ], [ -74.859251, 11.036401 ], [ -74.859179, 11.036339 ], [ -74.859121, 11.036262 ], [ -74.859097, 11.036166 ], [ -74.859009, 11.036128 ], [ -74.858956, 11.036171 ], [ -74.858934, 11.036197 ], [ -74.858859, 11.036248 ], [ -74.858792, 11.036364 ], [ -74.85867, 11.036406 ], [ -74.858653, 11.036417 ], [ -74.858588, 11.036396 ], [ -74.858496, 11.036406 ], [ -74.858414, 11.036353 ], [ -74.858375, 11.036262 ], [ -74.858322, 11.036176 ], [ -74.858293, 11.03609 ], [ -74.858385, 11.036076 ], [ -74.858443, 11.036004 ], [ -74.858414, 11.035918 ], [ -74.858336, 11.035865 ], [ -74.858307, 11.035779 ], [ -74.858254, 11.035741 ], [ -74.858239, 11.035717 ], [ -74.858157, 11.035669 ], [ -74.858075, 11.035712 ], [ -74.857992, 11.035765 ], [ -74.857934, 11.035693 ], [ -74.857973, 11.035607 ], [ -74.858041, 11.035545 ], [ -74.858123, 11.035501 ], [ -74.858201, 11.035444 ], [ -74.858283, 11.035391 ], [ -74.85837, 11.035363 ], [ -74.858462, 11.035382 ], [ -74.858544, 11.03543 ], [ -74.858622, 11.035482 ], [ -74.858714, 11.035525 ], [ -74.858811, 11.035549 ], [ -74.858903, 11.035564 ], [ -74.858995, 11.035564 ], [ -74.859092, 11.035549 ], [ -74.859372, 11.035463 ], [ -74.859464, 11.035425 ], [ -74.859552, 11.035396 ], [ -74.859634, 11.035344 ], [ -74.859668, 11.035257 ], [ -74.859721, 11.035176 ], [ -74.859866, 11.035061 ], [ -74.859954, 11.035028 ], [ -74.860041, 11.035056 ], [ -74.860118, 11.035109 ], [ -74.860307, 11.035119 ], [ -74.860409, 11.035095 ], [ -74.860598, 11.035037 ], [ -74.86069, 11.035013 ], [ -74.860731, 11.034953 ], [ -74.860854, 11.034908 ], [ -74.860927, 11.034851 ], [ -74.861014, 11.034808 ], [ -74.861077, 11.034741 ], [ -74.861116, 11.034655 ], [ -74.861193, 11.034602 ], [ -74.861285, 11.034578 ], [ -74.861372, 11.03454 ], [ -74.861416, 11.034458 ], [ -74.861489, 11.034401 ], [ -74.861518, 11.034315 ], [ -74.861576, 11.034243 ], [ -74.861658, 11.034186 ], [ -74.86175, 11.034167 ], [ -74.861842, 11.034166 ], [ -74.861895, 11.03409 ], [ -74.861978, 11.034042 ], [ -74.86207, 11.033999 ], [ -74.862089, 11.033908 ], [ -74.862065, 11.033817 ], [ -74.862002, 11.03375 ], [ -74.861915, 11.033712 ], [ -74.861886, 11.033626 ], [ -74.861847, 11.03354 ], [ -74.861798, 11.033459 ], [ -74.861726, 11.033396 ], [ -74.861639, 11.033358 ], [ -74.861363, 11.033358 ], [ -74.861271, 11.033382 ], [ -74.861179, 11.033372 ], [ -74.86112, 11.033291 ], [ -74.861043, 11.033239 ], [ -74.86098, 11.033162 ], [ -74.860844, 11.033033 ], [ -74.860752, 11.033009 ], [ -74.860685, 11.032947 ], [ -74.860612, 11.032889 ], [ -74.860534, 11.032837 ], [ -74.860452, 11.032789 ], [ -74.860355, 11.03276 ], [ -74.860181, 11.032698 ], [ -74.860089, 11.032698 ], [ -74.860021, 11.03276 ], [ -74.859963, 11.032837 ], [ -74.859881, 11.03288 ], [ -74.859803, 11.032932 ], [ -74.859716, 11.032966 ], [ -74.859619, 11.032942 ], [ -74.85944, 11.03288 ], [ -74.859343, 11.032866 ], [ -74.859246, 11.032866 ], [ -74.859154, 11.032856 ], [ -74.859091, 11.032789 ], [ -74.858999, 11.032784 ], [ -74.858912, 11.032813 ], [ -74.858815, 11.032808 ], [ -74.858651, 11.032913 ], [ -74.858578, 11.032976 ], [ -74.85852, 11.033057 ], [ -74.858438, 11.033105 ], [ -74.858351, 11.033143 ], [ -74.858263, 11.033172 ], [ -74.85821, 11.033248 ], [ -74.858122, 11.033282 ], [ -74.855673, 11.032524 ], [ -74.856258, 11.030608 ], [ -74.859241, 11.031352 ], [ -74.859724, 11.031233 ], [ -74.860706, 11.028381 ], [ -74.862186, 11.027791 ], [ -74.862551, 11.027338 ], [ -74.864465, 11.024621 ], [ -74.865107, 11.025343 ], [ -74.866535, 11.025213 ], [ -74.867471, 11.024327 ], [ -74.867659, 11.023982 ], [ -74.867744, 11.023853 ], [ -74.868008, 11.023614 ], [ -74.868173, 11.023452 ], [ -74.868479, 11.023209 ], [ -74.868785, 11.022938 ], [ -74.869157, 11.022558 ], [ -74.869446, 11.02215 ], [ -74.869642, 11.021903 ], [ -74.869991, 11.021297 ], [ -74.870124, 11.021089 ], [ -74.871826, 11.022326 ], [ -74.868293, 11.026605 ], [ -74.868613, 11.026664 ], [ -74.868798, 11.026702 ], [ -74.869254, 11.02681 ], [ -74.87106, 11.027135 ], [ -74.872437, 11.028759 ], [ -74.871981, 11.029574 ], [ -74.873175, 11.031107 ], [ -74.873633, 11.031377 ], [ -74.873363, 11.033005 ], [ -74.872999, 11.033639 ], [ -74.872726, 11.034091 ], [ -74.872544, 11.034359 ], [ -74.872512, 11.034429 ], [ -74.872479, 11.034513 ] ] ] } }
]
}
