{
"type": "FeatureCollection",
"name": "t73_isocronas",
"crs": { "type": "name", "properties": { "name": "urn:ogc:def:crs:OGC:1.3:CRS84" } },
"xy_coordinate_resolution": 1e-05,
"features": [
{ "type": "Feature", "properties": { "MINUTOS": "60", "ROTULO": "60 min", "NOMBRE": "Isócrona 60 min en camión (segundo anillo y borde rural)" }, "geometry": { "type": "Polygon", "coordinates": [ [ [ -74.65831, 11.04936 ], [ -74.6611, 11.05386 ], [ -74.66407, 11.05826 ], [ -74.66722, 11.06255 ], [ -74.67053, 11.06671 ], [ -74.67402, 11.07076 ], [ -74.67767, 11.07468 ], [ -74.68148, 11.07846 ], [ -74.68545, 11.08212 ], [ -74.68958, 11.08564 ], [ -74.69385, 11.08901 ], [ -74.69827, 11.09224 ], [ -74.70284, 11.09533 ], [ -74.70754, 11.09826 ], [ -74.71237, 11.10104 ], [ -74.71733, 11.10367 ], [ -74.72241, 11.10613 ], [ -74.72761, 11.10844 ], [ -74.73292, 11.11058 ], [ -74.73834, 11.11255 ], [ -74.74386, 11.11436 ], [ -74.74947, 11.11599 ], [ -74.75518, 11.11746 ], [ -74.76097, 11.11875 ], [ -74.76684, 11.11987 ], [ -74.77278, 11.12081 ], [ -74.77879, 11.12158 ], [ -74.78486, 11.12217 ], [ -74.79099, 11.12258 ], [ -74.79716, 11.12282 ], [ -74.80338, 11.12288 ], [ -74.80963, 11.12276 ], [ -74.81592, 11.12246 ], [ -74.82223, 11.12198 ], [ -74.82855, 11.12133 ], [ -74.83489, 11.1205 ], [ -74.84123, 11.11949 ], [ -74.84757, 11.11831 ], [ -74.85391, 11.11696 ], [ -74.86022, 11.11543 ], [ -74.86652, 11.11373 ], [ -74.8728, 11.11187 ], [ -74.87904, 11.10983 ], [ -74.88524, 11.10763 ], [ -74.89139, 11.10527 ], [ -74.8975, 11.10275 ], [ -74.90354, 11.10007 ], [ -74.90953, 11.09724 ], [ -74.91544, 11.09425 ], [ -74.92128, 11.09111 ], [ -74.92739, 11.08762 ], [ -74.9345, 11.08336 ], [ -74.94151, 11.07897 ], [ -74.94841, 11.07444 ], [ -74.95521, 11.06978 ], [ -74.9619, 11.06499 ], [ -74.96846, 11.06009 ], [ -74.9749, 11.05507 ], [ -74.98119, 11.04994 ], [ -74.98735, 11.0447 ], [ -74.99336, 11.03936 ], [ -74.99922, 11.03393 ], [ -75.00492, 11.02841 ], [ -75.01046, 11.02281 ], [ -75.01582, 11.01712 ], [ -75.02101, 11.01137 ], [ -75.02602, 11.00555 ], [ -75.03084, 10.99966 ], [ -75.03547, 10.99372 ], [ -75.03991, 10.98774 ], [ -75.04415, 10.98171 ], [ -75.04818, 10.97564 ], [ -75.05201, 10.96954 ], [ -75.05563, 10.96341 ], [ -75.05903, 10.95727 ], [ -75.06221, 10.95111 ], [ -75.06517, 10.94495 ], [ -75.0679, 10.93879 ], [ -75.07041, 10.93263 ], [ -75.07269, 10.92648 ], [ -75.07474, 10.92036 ], [ -75.07655, 10.91425 ], [ -75.07813, 10.90818 ], [ -75.07947, 10.90214 ], [ -75.08057, 10.89614 ], [ -75.08143, 10.89019 ], [ -75.08205, 10.8843 ], [ -75.08243, 10.87847 ], [ -75.08256, 10.8727 ], [ -75.08246, 10.867 ], [ -75.08212, 10.86138 ], [ -75.08153, 10.85584 ], [ -75.0807, 10.8504 ], [ -75.07963, 10.84504 ], [ -75.07833, 10.83979 ], [ -75.07679, 10.83463 ], [ -75.07501, 10.82959 ], [ -75.07299, 10.82466 ], [ -75.07075, 10.81985 ], [ -75.06827, 10.81517 ], [ -75.06527, 10.81011 ], [ -75.06175, 10.80469 ], [ -75.05801, 10.7994 ], [ -75.05405, 10.79426 ], [ -75.04988, 10.78927 ], [ -75.0455, 10.78443 ], [ -75.04091, 10.77976 ], [ -75.03613, 10.77524 ], [ -75.03115, 10.7709 ], [ -75.02598, 10.76673 ], [ -75.02062, 10.76273 ], [ -75.01508, 10.75892 ], [ -75.00937, 10.75529 ], [ -75.00349, 10.75185 ], [ -74.99745, 10.7486 ], [ -74.99125, 10.74554 ], [ -74.98491, 10.74269 ], [ -74.97841, 10.74003 ], [ -74.97178, 10.73758 ], [ -74.96502, 10.73533 ], [ -74.95813, 10.73329 ], [ -74.95113, 10.73147 ], [ -74.94401, 10.72985 ], [ -74.9368, 10.72845 ], [ -74.92948, 10.72726 ], [ -74.92208, 10.72629 ], [ -74.91459, 10.72554 ], [ -74.90703, 10.725 ], [ -74.89941, 10.72468 ], [ -74.89172, 10.72458 ], [ -74.88398, 10.7247 ], [ -74.8762, 10.72504 ], [ -74.86838, 10.7256 ], [ -74.86054, 10.72637 ], [ -74.85267, 10.72737 ], [ -74.84479, 10.72857 ], [ -74.83691, 10.73 ], [ -74.82903, 10.73163 ], [ -74.82116, 10.73348 ], [ -74.81331, 10.73554 ], [ -74.80548, 10.7378 ], [ -74.79769, 10.74028 ], [ -74.78994, 10.74295 ], [ -74.78224, 10.74583 ], [ -74.7746, 10.7489 ], [ -74.76703, 10.75217 ], [ -74.75952, 10.75563 ], [ -74.7521, 10.75927 ], [ -74.74476, 10.7631 ], [ -74.73752, 10.76712 ], [ -74.73145, 10.77068 ], [ -74.72585, 10.77422 ], [ -74.72037, 10.77792 ], [ -74.715, 10.78179 ], [ -74.70976, 10.78582 ], [ -74.70465, 10.79 ], [ -74.69967, 10.79435 ], [ -74.69483, 10.79884 ], [ -74.69014, 10.80347 ], [ -74.6856, 10.80825 ], [ -74.68121, 10.81316 ], [ -74.67697, 10.8182 ], [ -74.6729, 10.82337 ], [ -74.669, 10.82866 ], [ -74.66527, 10.83407 ], [ -74.66171, 10.83958 ], [ -74.65833, 10.8452 ], [ -74.65512, 10.85092 ], [ -74.65211, 10.85673 ], [ -74.64928, 10.86263 ], [ -74.64664, 10.86861 ], [ -74.64419, 10.87466 ], [ -74.64194, 10.88079 ], [ -74.63989, 10.88697 ], [ -74.63803, 10.89322 ], [ -74.63638, 10.89952 ], [ -74.63493, 10.90586 ], [ -74.63368, 10.91224 ], [ -74.63264, 10.91865 ], [ -74.6318, 10.92508 ], [ -74.63118, 10.93154 ], [ -74.63076, 10.93801 ], [ -74.63055, 10.94449 ], [ -74.63055, 10.95096 ], [ -74.63076, 10.95743 ], [ -74.63117, 10.96389 ], [ -74.6318, 10.97032 ], [ -74.63263, 10.97673 ], [ -74.63367, 10.98311 ], [ -74.63491, 10.98945 ], [ -74.63636, 10.99574 ], [ -74.63802, 11.00199 ], [ -74.63987, 11.00817 ], [ -74.64192, 11.0143 ], [ -74.64418, 11.02035 ], [ -74.64662, 11.02633 ], [ -74.64926, 11.03222 ], [ -74.65209, 11.03803 ], [ -74.65511, 11.04374 ], [ -74.65831, 11.04936 ] ] ] } },
{ "type": "Feature", "properties": { "MINUTOS": "30", "ROTULO": "30 min", "NOMBRE": "Isócrona 30 min en camión (primer anillo metropolitano)" }, "geometry": { "type": "Polygon", "coordinates": [ [ [ -74.69591, 11.03384 ], [ -74.69761, 11.03683 ], [ -74.69943, 11.03975 ], [ -74.70136, 11.0426 ], [ -74.7034, 11.04538 ], [ -74.70555, 11.04809 ], [ -74.70781, 11.05072 ], [ -74.71018, 11.05327 ], [ -74.71264, 11.05574 ], [ -74.71521, 11.05813 ], [ -74.71787, 11.06043 ], [ -74.72063, 11.06264 ], [ -74.72348, 11.06476 ], [ -74.72641, 11.06679 ], [ -74.72944, 11.06872 ], [ -74.73255, 11.07056 ], [ -74.73573, 11.0723 ], [ -74.739, 11.07394 ], [ -74.74234, 11.07547 ], [ -74.74574, 11.0769 ], [ -74.74922, 11.07823 ], [ -74.75276, 11.07945 ], [ -74.75635, 11.08057 ], [ -74.76001, 11.08157 ], [ -74.76371, 11.08247 ], [ -74.76747, 11.08325 ], [ -74.77127, 11.08392 ], [ -74.77511, 11.08448 ], [ -74.77899, 11.08493 ], [ -74.78291, 11.08527 ], [ -74.78685, 11.08549 ], [ -74.79082, 11.0856 ], [ -74.79481, 11.08559 ], [ -74.79882, 11.08547 ], [ -74.80284, 11.08524 ], [ -74.80687, 11.0849 ], [ -74.81091, 11.08444 ], [ -74.81495, 11.08387 ], [ -74.81899, 11.08318 ], [ -74.82302, 11.08239 ], [ -74.82704, 11.08148 ], [ -74.83105, 11.08047 ], [ -74.83504, 11.07935 ], [ -74.839, 11.07811 ], [ -74.84294, 11.07678 ], [ -74.84685, 11.07534 ], [ -74.85073, 11.07379 ], [ -74.85456, 11.07214 ], [ -74.85836, 11.0704 ], [ -74.86211, 11.06855 ], [ -74.86604, 11.06649 ], [ -74.87061, 11.06396 ], [ -74.87512, 11.06134 ], [ -74.87957, 11.05863 ], [ -74.88396, 11.05583 ], [ -74.88827, 11.05295 ], [ -74.8925, 11.04999 ], [ -74.89666, 11.04695 ], [ -74.90073, 11.04383 ], [ -74.90472, 11.04064 ], [ -74.90861, 11.03739 ], [ -74.91241, 11.03406 ], [ -74.91611, 11.03068 ], [ -74.9197, 11.02724 ], [ -74.92319, 11.02374 ], [ -74.92657, 11.02019 ], [ -74.92984, 11.01659 ], [ -74.93298, 11.01294 ], [ -74.93601, 11.00926 ], [ -74.93892, 11.00554 ], [ -74.94169, 11.00178 ], [ -74.94435, 10.99799 ], [ -74.94686, 10.99418 ], [ -74.94925, 10.99035 ], [ -74.9515, 10.98649 ], [ -74.95361, 10.98262 ], [ -74.95558, 10.97874 ], [ -74.95741, 10.97486 ], [ -74.95909, 10.97097 ], [ -74.96063, 10.96708 ], [ -74.96202, 10.96319 ], [ -74.96326, 10.95932 ], [ -74.96435, 10.95545 ], [ -74.96529, 10.95161 ], [ -74.96608, 10.94778 ], [ -74.96672, 10.94397 ], [ -74.9672, 10.9402 ], [ -74.96752, 10.93645 ], [ -74.9677, 10.93274 ], [ -74.96772, 10.92907 ], [ -74.96758, 10.92544 ], [ -74.96729, 10.92186 ], [ -74.96685, 10.91832 ], [ -74.96625, 10.91484 ], [ -74.9655, 10.91142 ], [ -74.9646, 10.90806 ], [ -74.96354, 10.90476 ], [ -74.96234, 10.90152 ], [ -74.96099, 10.89836 ], [ -74.95949, 10.89527 ], [ -74.95767, 10.89195 ], [ -74.95555, 10.88842 ], [ -74.95329, 10.88496 ], [ -74.95089, 10.88159 ], [ -74.94835, 10.87831 ], [ -74.94567, 10.87513 ], [ -74.94286, 10.87204 ], [ -74.93992, 10.86905 ], [ -74.93686, 10.86616 ], [ -74.93367, 10.86338 ], [ -74.93036, 10.8607 ], [ -74.92694, 10.85813 ], [ -74.9234, 10.85568 ], [ -74.91975, 10.85335 ], [ -74.91599, 10.85113 ], [ -74.91213, 10.84903 ], [ -74.90817, 10.84705 ], [ -74.90412, 10.8452 ], [ -74.89998, 10.84347 ], [ -74.89575, 10.84188 ], [ -74.89143, 10.84041 ], [ -74.88704, 10.83907 ], [ -74.88257, 10.83786 ], [ -74.87804, 10.83679 ], [ -74.87344, 10.83585 ], [ -74.86877, 10.83505 ], [ -74.86406, 10.83438 ], [ -74.85929, 10.83385 ], [ -74.85447, 10.83345 ], [ -74.84962, 10.8332 ], [ -74.84472, 10.83308 ], [ -74.8398, 10.8331 ], [ -74.83485, 10.83326 ], [ -74.82987, 10.83355 ], [ -74.82488, 10.83398 ], [ -74.81988, 10.83455 ], [ -74.81487, 10.83526 ], [ -74.80986, 10.8361 ], [ -74.80485, 10.83708 ], [ -74.79984, 10.83819 ], [ -74.79485, 10.83944 ], [ -74.78988, 10.84081 ], [ -74.78493, 10.84232 ], [ -74.78001, 10.84396 ], [ -74.77512, 10.84572 ], [ -74.77027, 10.84761 ], [ -74.76546, 10.84962 ], [ -74.7607, 10.85175 ], [ -74.75599, 10.854 ], [ -74.75134, 10.85637 ], [ -74.74744, 10.85849 ], [ -74.74383, 10.86059 ], [ -74.74029, 10.86281 ], [ -74.73683, 10.86514 ], [ -74.73344, 10.86757 ], [ -74.73013, 10.8701 ], [ -74.7269, 10.87274 ], [ -74.72375, 10.87547 ], [ -74.7207, 10.8783 ], [ -74.71774, 10.88123 ], [ -74.71487, 10.88424 ], [ -74.7121, 10.88734 ], [ -74.70943, 10.89052 ], [ -74.70686, 10.89379 ], [ -74.7044, 10.89713 ], [ -74.70204, 10.90055 ], [ -74.6998, 10.90404 ], [ -74.69767, 10.90759 ], [ -74.69565, 10.91121 ], [ -74.69375, 10.91489 ], [ -74.69197, 10.91863 ], [ -74.69031, 10.92242 ], [ -74.68877, 10.92625 ], [ -74.68735, 10.93014 ], [ -74.68606, 10.93406 ], [ -74.6849, 10.93802 ], [ -74.68386, 10.94202 ], [ -74.68295, 10.94604 ], [ -74.68217, 10.95009 ], [ -74.68152, 10.95417 ], [ -74.681, 10.95826 ], [ -74.68062, 10.96236 ], [ -74.68036, 10.96647 ], [ -74.68024, 10.97059 ], [ -74.68024, 10.9747 ], [ -74.68038, 10.97882 ], [ -74.68066, 10.98293 ], [ -74.68106, 10.98702 ], [ -74.6816, 10.99111 ], [ -74.68226, 10.99517 ], [ -74.68306, 10.99921 ], [ -74.68398, 11.00322 ], [ -74.68504, 11.0072 ], [ -74.68622, 11.01114 ], [ -74.68753, 11.01504 ], [ -74.68896, 11.01891 ], [ -74.69051, 11.02272 ], [ -74.69219, 11.02648 ], [ -74.69399, 11.03019 ], [ -74.69591, 11.03384 ] ] ] } },
{ "type": "Feature", "properties": { "MINUTOS": "15", "ROTULO": "15 min", "NOMBRE": "Isócrona 15 min en camión desde el Puerto de Barranquilla" }, "geometry": { "type": "Polygon", "coordinates": [ [ [ -74.73254, 11.02787 ], [ -74.73331, 11.0294 ], [ -74.73415, 11.0309 ], [ -74.73504, 11.03237 ], [ -74.73599, 11.03381 ], [ -74.73701, 11.03522 ], [ -74.73808, 11.03658 ], [ -74.7392, 11.03791 ], [ -74.74038, 11.0392 ], [ -74.74162, 11.04045 ], [ -74.74291, 11.04166 ], [ -74.74424, 11.04283 ], [ -74.74563, 11.04395 ], [ -74.74707, 11.04503 ], [ -74.74856, 11.04606 ], [ -74.75009, 11.04704 ], [ -74.75167, 11.04798 ], [ -74.75328, 11.04886 ], [ -74.75495, 11.0497 ], [ -74.75664, 11.05049 ], [ -74.75838, 11.05122 ], [ -74.76016, 11.0519 ], [ -74.76196, 11.05253 ], [ -74.7638, 11.05311 ], [ -74.76567, 11.05363 ], [ -74.76757, 11.0541 ], [ -74.7695, 11.05451 ], [ -74.77145, 11.05487 ], [ -74.77343, 11.05517 ], [ -74.77542, 11.05541 ], [ -74.77744, 11.0556 ], [ -74.77947, 11.05573 ], [ -74.78152, 11.05581 ], [ -74.78358, 11.05583 ], [ -74.78565, 11.05579 ], [ -74.78773, 11.05569 ], [ -74.78982, 11.05554 ], [ -74.79191, 11.05533 ], [ -74.794, 11.05507 ], [ -74.7961, 11.05475 ], [ -74.79819, 11.05437 ], [ -74.80028, 11.05394 ], [ -74.80237, 11.05345 ], [ -74.80444, 11.05291 ], [ -74.80651, 11.05231 ], [ -74.80856, 11.05167 ], [ -74.81061, 11.05096 ], [ -74.81263, 11.05021 ], [ -74.81464, 11.04941 ], [ -74.81662, 11.04855 ], [ -74.81866, 11.04761 ], [ -74.8209, 11.04652 ], [ -74.82311, 11.04538 ], [ -74.82529, 11.0442 ], [ -74.82743, 11.04297 ], [ -74.82955, 11.04169 ], [ -74.83163, 11.04038 ], [ -74.83368, 11.03902 ], [ -74.83568, 11.03762 ], [ -74.83765, 11.03619 ], [ -74.83957, 11.03471 ], [ -74.84145, 11.0332 ], [ -74.84328, 11.03166 ], [ -74.84506, 11.03008 ], [ -74.84679, 11.02847 ], [ -74.84847, 11.02684 ], [ -74.85009, 11.02517 ], [ -74.85167, 11.02348 ], [ -74.85318, 11.02176 ], [ -74.85463, 11.02002 ], [ -74.85603, 11.01826 ], [ -74.85736, 11.01649 ], [ -74.85863, 11.01469 ], [ -74.85984, 11.01288 ], [ -74.86098, 11.01105 ], [ -74.86206, 11.00921 ], [ -74.86307, 11.00736 ], [ -74.86401, 11.0055 ], [ -74.86488, 11.00364 ], [ -74.86568, 11.00177 ], [ -74.86641, 10.9999 ], [ -74.86707, 10.99802 ], [ -74.86766, 10.99615 ], [ -74.86817, 10.99428 ], [ -74.86861, 10.99242 ], [ -74.86898, 10.99056 ], [ -74.86927, 10.98871 ], [ -74.86949, 10.98687 ], [ -74.86963, 10.98504 ], [ -74.8697, 10.98323 ], [ -74.86969, 10.98143 ], [ -74.86961, 10.97964 ], [ -74.86945, 10.97788 ], [ -74.86922, 10.97614 ], [ -74.86892, 10.97442 ], [ -74.86854, 10.97273 ], [ -74.86809, 10.97106 ], [ -74.86756, 10.96942 ], [ -74.86696, 10.96781 ], [ -74.86629, 10.96623 ], [ -74.86551, 10.9646 ], [ -74.86462, 10.96293 ], [ -74.86367, 10.9613 ], [ -74.86264, 10.9597 ], [ -74.86155, 10.95815 ], [ -74.86039, 10.95663 ], [ -74.85916, 10.95516 ], [ -74.85787, 10.95373 ], [ -74.85652, 10.95234 ], [ -74.8551, 10.951 ], [ -74.85363, 10.94971 ], [ -74.85209, 10.94847 ], [ -74.8505, 10.94728 ], [ -74.84885, 10.94614 ], [ -74.84715, 10.94505 ], [ -74.8454, 10.94401 ], [ -74.84359, 10.94303 ], [ -74.84174, 10.94211 ], [ -74.83984, 10.94124 ], [ -74.83789, 10.94043 ], [ -74.83591, 10.93968 ], [ -74.83388, 10.93899 ], [ -74.83181, 10.93835 ], [ -74.8297, 10.93778 ], [ -74.82756, 10.93727 ], [ -74.82539, 10.93682 ], [ -74.82318, 10.93643 ], [ -74.82095, 10.9361 ], [ -74.81869, 10.93583 ], [ -74.81641, 10.93563 ], [ -74.8141, 10.93549 ], [ -74.81178, 10.93542 ], [ -74.80944, 10.93541 ], [ -74.80708, 10.93546 ], [ -74.80471, 10.93557 ], [ -74.80233, 10.93575 ], [ -74.79995, 10.93599 ], [ -74.79755, 10.93629 ], [ -74.79516, 10.93665 ], [ -74.79276, 10.93708 ], [ -74.79037, 10.93757 ], [ -74.78798, 10.93812 ], [ -74.7856, 10.93873 ], [ -74.78322, 10.9394 ], [ -74.78086, 10.94013 ], [ -74.77851, 10.94092 ], [ -74.77618, 10.94176 ], [ -74.77387, 10.94266 ], [ -74.77157, 10.94362 ], [ -74.7693, 10.94463 ], [ -74.76728, 10.9456 ], [ -74.76535, 10.94658 ], [ -74.76345, 10.94762 ], [ -74.76159, 10.9487 ], [ -74.75976, 10.94984 ], [ -74.75796, 10.95102 ], [ -74.7562, 10.95226 ], [ -74.75448, 10.95353 ], [ -74.75279, 10.95486 ], [ -74.75115, 10.95623 ], [ -74.74956, 10.95764 ], [ -74.748, 10.95909 ], [ -74.7465, 10.96058 ], [ -74.74504, 10.96211 ], [ -74.74363, 10.96367 ], [ -74.74227, 10.96528 ], [ -74.74097, 10.96691 ], [ -74.73971, 10.96858 ], [ -74.73852, 10.97027 ], [ -74.73737, 10.972 ], [ -74.73629, 10.97375 ], [ -74.73526, 10.97553 ], [ -74.73429, 10.97733 ], [ -74.73339, 10.97915 ], [ -74.73254, 10.98099 ], [ -74.73175, 10.98285 ], [ -74.73103, 10.98472 ], [ -74.73037, 10.98661 ], [ -74.72978, 10.98851 ], [ -74.72925, 10.99042 ], [ -74.72878, 10.99234 ], [ -74.72838, 10.99427 ], [ -74.72805, 10.9962 ], [ -74.72778, 10.99813 ], [ -74.72758, 11.00007 ], [ -74.72745, 11.002 ], [ -74.72738, 11.00393 ], [ -74.72738, 11.00585 ], [ -74.72745, 11.00777 ], [ -74.72758, 11.00968 ], [ -74.72778, 11.01158 ], [ -74.72805, 11.01346 ], [ -74.72838, 11.01533 ], [ -74.72878, 11.01719 ], [ -74.72925, 11.01902 ], [ -74.72978, 11.02084 ], [ -74.73037, 11.02263 ], [ -74.73103, 11.0244 ], [ -74.73175, 11.02615 ], [ -74.73254, 11.02787 ] ] ] } }
]
}
