{
"type": "FeatureCollection",
"name": "t73_puntos",
"crs": { "type": "name", "properties": { "name": "urn:ogc:def:crs:OGC:1.3:CRS84" } },
"xy_coordinate_resolution": 1e-05,
"features": [
{ "type": "Feature", "properties": { "TIPO": "Puerto de Barranquilla (origen de isócronas)", "NOMBRE": "Puerto de Barranquilla" }, "geometry": { "type": "Point", "coordinates": [ -74.76541, 11.0171 ] } },
{ "type": "Feature", "properties": { "TIPO": "Nuevo Puerto Interior propuesto", "NOMBRE": "Nuevo Puerto Interior" }, "geometry": { "type": "Point", "coordinates": [ -74.79839, 10.8704 ] } },
{ "type": "Feature", "properties": { "TIPO": "Cabecera municipal / asentamiento periurbano", "NOMBRE": "Puerto Colombia" }, "geometry": { "type": "Point", "coordinates": [ -74.98706, 11.03833 ] } },
{ "type": "Feature", "properties": { "TIPO": "Cabecera municipal / asentamiento periurbano", "NOMBRE": "Galapa" }, "geometry": { "type": "Point", "coordinates": [ -74.93598, 10.92563 ] } },
{ "type": "Feature", "properties": { "TIPO": "Cabecera municipal / asentamiento periurbano", "NOMBRE": "Malambo" }, "geometry": { "type": "Point", "coordinates": [ -74.76173, 10.85886 ] } }
]
}
