{
"type": "FeatureCollection",
"name": "t73_franja_funcional",
"crs": { "type": "name", "properties": { "name": "urn:ogc:def:crs:OGC:1.3:CRS84" } },
"xy_coordinate_resolution": 1e-05,
"features": [
{ "type": "Feature", "properties": { "NOMBRE": "Franja de interfaz funcional (delimitación sintética: 18.587,5 ha)" }, "geometry": { "type": "MultiPolygon", "coordinates": [ [ [ [ -74.81893, 10.88985 ], [ -74.81918, 10.88956 ], [ -74.81938, 10.88937 ], [ -74.81955, 10.88918 ], [ -74.81973, 10.88894 ], [ -74.81992, 10.88867 ], [ -74.82, 10.88846 ], [ -74.82009, 10.88823 ], [ -74.82025, 10.88778 ], [ -74.82041, 10.88747 ], [ -74.82051, 10.88727 ], [ -74.82057, 10.88716 ], [ -74.82073, 10.887 ], [ -74.82063, 10.88696 ], [ -74.82062, 10.8869 ], [ -74.82063, 10.88678 ], [ -74.82068, 10.88658 ], [ -74.82078, 10.88626 ], [ -74.82089, 10.88601 ], [ -74.82108, 10.88563 ], [ -74.8214, 10.885 ], [ -74.82174, 10.88431 ], [ -74.82182, 10.88415 ], [ -74.82217, 10.88345 ], [ -74.82247, 10.88285 ], [ -74.82261, 10.88257 ], [ -74.82267, 10.88246 ], [ -74.8228, 10.88221 ], [ -74.82291, 10.88205 ], [ -74.82296, 10.88187 ], [ -74.82306, 10.88172 ], [ -74.82321, 10.88153 ], [ -74.82325, 10.88147 ], [ -74.82332, 10.88137 ], [ -74.8234, 10.88122 ], [ -74.82345, 10.88112 ], [ -74.82348, 10.88106 ], [ -74.82359, 10.88086 ], [ -74.82366, 10.88074 ], [ -74.82391, 10.8804 ], [ -74.82402, 10.88027 ], [ -74.82413, 10.88012 ], [ -74.82437, 10.87987 ], [ -74.82454, 10.87965 ], [ -74.82468, 10.87946 ], [ -74.82461, 10.87946 ], [ -74.82484, 10.87911 ], [ -74.82486, 10.87904 ], [ -74.82487, 10.87901 ], [ -74.82478, 10.879 ], [ -74.82283, 10.8783 ], [ -74.82094, 10.87762 ], [ -74.82088, 10.87759 ], [ -74.81992, 10.87724 ], [ -74.81963, 10.87721 ], [ -74.81877, 10.87712 ], [ -74.81665, 10.87691 ], [ -74.81391, 10.87662 ], [ -74.8121, 10.87884 ], [ -74.81159, 10.87949 ], [ -74.81174, 10.87949 ], [ -74.81136, 10.87992 ], [ -74.8112, 10.8801 ], [ -74.8106, 10.88016 ], [ -74.80951, 10.88027 ], [ -74.80859, 10.88033 ], [ -74.80799, 10.8804 ], [ -74.80776, 10.88063 ], [ -74.80749, 10.88084 ], [ -74.8072, 10.88141 ], [ -74.80672, 10.88236 ], [ -74.80643, 10.88311 ], [ -74.80604, 10.88452 ], [ -74.80579, 10.88543 ], [ -74.80573, 10.88581 ], [ -74.80571, 10.8861 ], [ -74.80551, 10.88597 ], [ -74.8054, 10.88585 ], [ -74.80516, 10.88565 ], [ -74.8049, 10.88541 ], [ -74.80429, 10.88492 ], [ -74.80353, 10.88419 ], [ -74.80271, 10.88351 ], [ -74.80213, 10.883 ], [ -74.80176, 10.88266 ], [ -74.80128, 10.88218 ], [ -74.80097, 10.88186 ], [ -74.80065, 10.88147 ], [ -74.80017, 10.8809 ], [ -74.79979, 10.88047 ], [ -74.79954, 10.88022 ], [ -74.79911, 10.87985 ], [ -74.79866, 10.87952 ], [ -74.79927, 10.87952 ], [ -74.80002, 10.87805 ], [ -74.7998, 10.87792 ], [ -74.80001, 10.87743 ], [ -74.80046, 10.87634 ], [ -74.79936, 10.87603 ], [ -74.79884, 10.87694 ], [ -74.79842, 10.87732 ], [ -74.79755, 10.87789 ], [ -74.79722, 10.87811 ], [ -74.79689, 10.87778 ], [ -74.79674, 10.8776 ], [ -74.79663, 10.87745 ], [ -74.79656, 10.87749 ], [ -74.79606, 10.87855 ], [ -74.79597, 10.87895 ], [ -74.79588, 10.87934 ], [ -74.79587, 10.87953 ], [ -74.79576, 10.87982 ], [ -74.79569, 10.88002 ], [ -74.79566, 10.88024 ], [ -74.79564, 10.88038 ], [ -74.79566, 10.88051 ], [ -74.79565, 10.88061 ], [ -74.79565, 10.88074 ], [ -74.79563, 10.88084 ], [ -74.79555, 10.88108 ], [ -74.79534, 10.88146 ], [ -74.79436, 10.88104 ], [ -74.7926, 10.88032 ], [ -74.79236, 10.88023 ], [ -74.7923, 10.88021 ], [ -74.79213, 10.88054 ], [ -74.79164, 10.88028 ], [ -74.79137, 10.88011 ], [ -74.79138, 10.88006 ], [ -74.79144, 10.87999 ], [ -74.79154, 10.87986 ], [ -74.79164, 10.87973 ], [ -74.79172, 10.87964 ], [ -74.79177, 10.87954 ], [ -74.79184, 10.87946 ], [ -74.7919, 10.8793 ], [ -74.79082, 10.87837 ], [ -74.79036, 10.87797 ], [ -74.78928, 10.87705 ], [ -74.78934, 10.87674 ], [ -74.78949, 10.87631 ], [ -74.78962, 10.87607 ], [ -74.78977, 10.87584 ], [ -74.78992, 10.87565 ], [ -74.7897, 10.87562 ], [ -74.78927, 10.87557 ], [ -74.78861, 10.87542 ], [ -74.78808, 10.87521 ], [ -74.78796, 10.87512 ], [ -74.78783, 10.8753 ], [ -74.78769, 10.87553 ], [ -74.78755, 10.87588 ], [ -74.78737, 10.87646 ], [ -74.78726, 10.87699 ], [ -74.7872, 10.87724 ], [ -74.78717, 10.87743 ], [ -74.78717, 10.87751 ], [ -74.78706, 10.87751 ], [ -74.78679, 10.87746 ], [ -74.78654, 10.87744 ], [ -74.7862, 10.87737 ], [ -74.78597, 10.87735 ], [ -74.78582, 10.87737 ], [ -74.78573, 10.87742 ], [ -74.78565, 10.87752 ], [ -74.78556, 10.87779 ], [ -74.78549, 10.87803 ], [ -74.78542, 10.87821 ], [ -74.7853, 10.87835 ], [ -74.78513, 10.87839 ], [ -74.78505, 10.87843 ], [ -74.78496, 10.87859 ], [ -74.78489, 10.87878 ], [ -74.78487, 10.87893 ], [ -74.78485, 10.87901 ], [ -74.78478, 10.87914 ], [ -74.78394, 10.87901 ], [ -74.78313, 10.87885 ], [ -74.78309, 10.87865 ], [ -74.78307, 10.87829 ], [ -74.78306, 10.87779 ], [ -74.78297, 10.87735 ], [ -74.78289, 10.87705 ], [ -74.78211, 10.87683 ], [ -74.78128, 10.8766 ], [ -74.78123, 10.87671 ], [ -74.7812, 10.87682 ], [ -74.78028, 10.87785 ], [ -74.77919, 10.87909 ], [ -74.77971, 10.87956 ], [ -74.77978, 10.87956 ], [ -74.78009, 10.87991 ], [ -74.7804, 10.88026 ], [ -74.77973, 10.88145 ], [ -74.77917, 10.88243 ], [ -74.7784, 10.88385 ], [ -74.77823, 10.88415 ], [ -74.77806, 10.88406 ], [ -74.7779, 10.88395 ], [ -74.77792, 10.88384 ], [ -74.77794, 10.88375 ], [ -74.77793, 10.88365 ], [ -74.77787, 10.88357 ], [ -74.77777, 10.88352 ], [ -74.77763, 10.88348 ], [ -74.77751, 10.88342 ], [ -74.7774, 10.88338 ], [ -74.77732, 10.88329 ], [ -74.7772, 10.8831 ], [ -74.7771, 10.88292 ], [ -74.77703, 10.88281 ], [ -74.77698, 10.88275 ], [ -74.77687, 10.88268 ], [ -74.77671, 10.8826 ], [ -74.77652, 10.88253 ], [ -74.77637, 10.88251 ], [ -74.77593, 10.88249 ], [ -74.77538, 10.88245 ], [ -74.77497, 10.8824 ], [ -74.77461, 10.88239 ], [ -74.77458, 10.88221 ], [ -74.77453, 10.88216 ], [ -74.77436, 10.88208 ], [ -74.77418, 10.882 ], [ -74.77405, 10.88197 ], [ -74.77389, 10.88192 ], [ -74.77378, 10.88191 ], [ -74.77369, 10.8819 ], [ -74.77361, 10.88191 ], [ -74.77356, 10.88188 ], [ -74.77358, 10.88182 ], [ -74.77365, 10.88171 ], [ -74.77378, 10.88153 ], [ -74.77388, 10.88139 ], [ -74.77371, 10.88132 ], [ -74.77357, 10.88124 ], [ -74.77342, 10.88122 ], [ -74.77325, 10.88122 ], [ -74.77309, 10.88123 ], [ -74.77296, 10.88124 ], [ -74.77276, 10.88124 ], [ -74.77248, 10.88125 ], [ -74.77227, 10.88123 ], [ -74.77212, 10.8812 ], [ -74.77199, 10.88119 ], [ -74.77188, 10.88116 ], [ -74.77172, 10.88115 ], [ -74.77159, 10.88109 ], [ -74.77146, 10.88102 ], [ -74.77131, 10.88099 ], [ -74.77119, 10.881 ], [ -74.77105, 10.88102 ], [ -74.77083, 10.88105 ], [ -74.77056, 10.88108 ], [ -74.77039, 10.88108 ], [ -74.77024, 10.88105 ], [ -74.77005, 10.881 ], [ -74.76991, 10.88096 ], [ -74.7697, 10.88094 ], [ -74.76953, 10.88094 ], [ -74.76944, 10.88164 ], [ -74.76939, 10.882 ], [ -74.76937, 10.88228 ], [ -74.76936, 10.88252 ], [ -74.76935, 10.88299 ], [ -74.76935, 10.8837 ], [ -74.76933, 10.88399 ], [ -74.76937, 10.88436 ], [ -74.76941, 10.88482 ], [ -74.76947, 10.88549 ], [ -74.76959, 10.88628 ], [ -74.7697, 10.88703 ], [ -74.76978, 10.88759 ], [ -74.76983, 10.88795 ], [ -74.76983, 10.8883 ], [ -74.76983, 10.88857 ], [ -74.76982, 10.88885 ], [ -74.76981, 10.88919 ], [ -74.76976, 10.88973 ], [ -74.76972, 10.89014 ], [ -74.76922, 10.89018 ], [ -74.76884, 10.89021 ], [ -74.76826, 10.89024 ], [ -74.76781, 10.89023 ], [ -74.76758, 10.89021 ], [ -74.76718, 10.89023 ], [ -74.76697, 10.89029 ], [ -74.76662, 10.89039 ], [ -74.76633, 10.89048 ], [ -74.7643, 10.89049 ], [ -74.76426, 10.89038 ], [ -74.76421, 10.89023 ], [ -74.76421, 10.89013 ], [ -74.76421, 10.89003 ], [ -74.7642, 10.88993 ], [ -74.76416, 10.88986 ], [ -74.76411, 10.88976 ], [ -74.76408, 10.88961 ], [ -74.76407, 10.88951 ], [ -74.76403, 10.88933 ], [ -74.76399, 10.88922 ], [ -74.76394, 10.88912 ], [ -74.76391, 10.88907 ], [ -74.76387, 10.88897 ], [ -74.76383, 10.88884 ], [ -74.76377, 10.88871 ], [ -74.76369, 10.88858 ], [ -74.7636, 10.88849 ], [ -74.76349, 10.88842 ], [ -74.76303, 10.88833 ], [ -74.76258, 10.88822 ], [ -74.76216, 10.88806 ], [ -74.76167, 10.88787 ], [ -74.76133, 10.88773 ], [ -74.7611, 10.88762 ], [ -74.76064, 10.88735 ], [ -74.75998, 10.88701 ], [ -74.75964, 10.8868 ], [ -74.75918, 10.88657 ], [ -74.75869, 10.88625 ], [ -74.75819, 10.88597 ], [ -74.75777, 10.88577 ], [ -74.75739, 10.88562 ], [ -74.75706, 10.88553 ], [ -74.75673, 10.88546 ], [ -74.75649, 10.88538 ], [ -74.75626, 10.8853 ], [ -74.75591, 10.8852 ], [ -74.75566, 10.88515 ], [ -74.75499, 10.88504 ], [ -74.75456, 10.88497 ], [ -74.75415, 10.88494 ], [ -74.75389, 10.88486 ], [ -74.75336, 10.88487 ], [ -74.75285, 10.88493 ], [ -74.75239, 10.88501 ], [ -74.75217, 10.88504 ], [ -74.75175, 10.88516 ], [ -74.75155, 10.88522 ], [ -74.75139, 10.8853 ], [ -74.7512, 10.88535 ], [ -74.751, 10.88537 ], [ -74.7508, 10.88534 ], [ -74.75064, 10.88533 ], [ -74.75033, 10.88531 ], [ -74.75004, 10.88526 ], [ -74.74991, 10.88523 ], [ -74.74948, 10.88523 ], [ -74.74927, 10.88523 ], [ -74.749, 10.88523 ], [ -74.74876, 10.88523 ], [ -74.74819, 10.88527 ], [ -74.74768, 10.88531 ], [ -74.74714, 10.88527 ], [ -74.74627, 10.88521 ], [ -74.74514, 10.88514 ], [ -74.74486, 10.88509 ], [ -74.74502, 10.88481 ], [ -74.74514, 10.8846 ], [ -74.74525, 10.88443 ], [ -74.74545, 10.88418 ], [ -74.74555, 10.88397 ], [ -74.74567, 10.88375 ], [ -74.74587, 10.88341 ], [ -74.74557, 10.88347 ], [ -74.74442, 10.88371 ], [ -74.74432, 10.88413 ], [ -74.74388, 10.88408 ], [ -74.74357, 10.88405 ], [ -74.74329, 10.83445 ], [ -74.74947, 10.83443 ], [ -74.75293, 10.83443 ], [ -74.75296, 10.83441 ], [ -74.75313, 10.83432 ], [ -74.7533, 10.83424 ], [ -74.75348, 10.83415 ], [ -74.75365, 10.83408 ], [ -74.75382, 10.834 ], [ -74.75401, 10.83393 ], [ -74.75418, 10.83384 ], [ -74.75435, 10.83377 ], [ -74.75452, 10.83369 ], [ -74.75468, 10.83359 ], [ -74.75483, 10.83348 ], [ -74.75507, 10.83336 ], [ -74.75525, 10.83326 ], [ -74.75531, 10.83309 ], [ -74.75543, 10.83294 ], [ -74.75557, 10.8328 ], [ -74.75569, 10.83262 ], [ -74.75581, 10.83246 ], [ -74.75595, 10.83231 ], [ -74.75593, 10.83212 ], [ -74.75591, 10.83193 ], [ -74.75588, 10.83175 ], [ -74.75584, 10.83156 ], [ -74.75584, 10.83132 ], [ -74.75583, 10.8311 ], [ -74.75583, 10.83091 ], [ -74.75579, 10.83073 ], [ -74.75576, 10.83054 ], [ -74.75576, 10.83035 ], [ -74.75569, 10.83018 ], [ -74.75558, 10.83001 ], [ -74.75546, 10.82986 ], [ -74.75534, 10.82971 ], [ -74.75518, 10.8296 ], [ -74.75503, 10.82957 ], [ -74.75486, 10.82951 ], [ -74.75472, 10.82935 ], [ -74.75462, 10.82918 ], [ -74.75455, 10.829 ], [ -74.75453, 10.82881 ], [ -74.75451, 10.82862 ], [ -74.75439, 10.82847 ], [ -74.75427, 10.82832 ], [ -74.75412, 10.8282 ], [ -74.75396, 10.82808 ], [ -74.75381, 10.82798 ], [ -74.7536, 10.82791 ], [ -74.75346, 10.82777 ], [ -74.75331, 10.82764 ], [ -74.75315, 10.82752 ], [ -74.75303, 10.82737 ], [ -74.753, 10.82713 ], [ -74.75296, 10.82694 ], [ -74.75298, 10.82676 ], [ -74.75298, 10.82657 ], [ -74.75303, 10.82638 ], [ -74.75317, 10.82616 ], [ -74.75327, 10.82594 ], [ -74.75332, 10.82575 ], [ -74.75339, 10.82558 ], [ -74.75347, 10.82541 ], [ -74.75354, 10.82524 ], [ -74.75363, 10.82507 ], [ -74.75373, 10.82492 ], [ -74.75385, 10.82476 ], [ -74.75399, 10.82463 ], [ -74.75414, 10.82449 ], [ -74.75428, 10.82436 ], [ -74.75438, 10.8242 ], [ -74.75447, 10.82403 ], [ -74.75455, 10.82386 ], [ -74.7546, 10.82367 ], [ -74.75466, 10.82349 ], [ -74.75466, 10.8233 ], [ -74.75461, 10.82311 ], [ -74.75469, 10.82299 ], [ -74.76335, 10.82475 ], [ -74.76377, 10.8248 ], [ -74.76415, 10.82486 ], [ -74.76507, 10.82501 ], [ -74.7658, 10.82512 ], [ -74.76643, 10.82522 ], [ -74.7674, 10.82538 ], [ -74.76786, 10.82546 ], [ -74.76783, 10.82531 ], [ -74.76771, 10.82488 ], [ -74.76767, 10.82474 ], [ -74.76795, 10.82458 ], [ -74.76862, 10.82435 ], [ -74.76887, 10.82426 ], [ -74.76953, 10.82406 ], [ -74.77005, 10.82388 ], [ -74.77123, 10.8235 ], [ -74.77173, 10.82333 ], [ -74.77246, 10.82307 ], [ -74.77298, 10.8229 ], [ -74.77368, 10.82266 ], [ -74.77481, 10.82227 ], [ -74.77551, 10.82202 ], [ -74.7759, 10.8219 ], [ -74.7768, 10.82159 ], [ -74.77782, 10.82123 ], [ -74.77791, 10.82119 ], [ -74.77888, 10.82086 ], [ -74.77976, 10.82056 ], [ -74.78049, 10.82032 ], [ -74.78097, 10.82014 ], [ -74.78182, 10.81986 ], [ -74.7823, 10.81969 ], [ -74.78316, 10.81939 ], [ -74.78405, 10.81909 ], [ -74.785, 10.81874 ], [ -74.78552, 10.81858 ], [ -74.78647, 10.81825 ], [ -74.78676, 10.81814 ], [ -74.7876, 10.81785 ], [ -74.78859, 10.81752 ], [ -74.78955, 10.81717 ], [ -74.78964, 10.81713 ], [ -74.7897, 10.81711 ], [ -74.78997, 10.81702 ], [ -74.79041, 10.81688 ], [ -74.79081, 10.81673 ], [ -74.79094, 10.81668 ], [ -74.79176, 10.8164 ], [ -74.79203, 10.81629 ], [ -74.79223, 10.81624 ], [ -74.79302, 10.81595 ], [ -74.79332, 10.81585 ], [ -74.7939, 10.81564 ], [ -74.79436, 10.8155 ], [ -74.79474, 10.81535 ], [ -74.79524, 10.81519 ], [ -74.79573, 10.81501 ], [ -74.7963, 10.81482 ], [ -74.79687, 10.81463 ], [ -74.79719, 10.81452 ], [ -74.79776, 10.81432 ], [ -74.79827, 10.81414 ], [ -74.79883, 10.81394 ], [ -74.79937, 10.81377 ], [ -74.79974, 10.81364 ], [ -74.80022, 10.81346 ], [ -74.80067, 10.81332 ], [ -74.80102, 10.8132 ], [ -74.80166, 10.81298 ], [ -74.80263, 10.81266 ], [ -74.80321, 10.81244 ], [ -74.80345, 10.81243 ], [ -74.80353, 10.8124 ], [ -74.80394, 10.81234 ], [ -74.80471, 10.81225 ], [ -74.80492, 10.81224 ], [ -74.80535, 10.81224 ], [ -74.80614, 10.81224 ], [ -74.80779, 10.81228 ], [ -74.80784, 10.81228 ], [ -74.80821, 10.81229 ], [ -74.80826, 10.81229 ], [ -74.80839, 10.81229 ], [ -74.82236, 10.81241 ], [ -74.82246, 10.81241 ], [ -74.82338, 10.81242 ], [ -74.82865, 10.81246 ], [ -74.83038, 10.81248 ], [ -74.83065, 10.81248 ], [ -74.83071, 10.81248 ], [ -74.83112, 10.81249 ], [ -74.83144, 10.81249 ], [ -74.83164, 10.81249 ], [ -74.83189, 10.81249 ], [ -74.83259, 10.8125 ], [ -74.83265, 10.8125 ], [ -74.8349, 10.81252 ], [ -74.83524, 10.81253 ], [ -74.83592, 10.81253 ], [ -74.83808, 10.81255 ], [ -74.84238, 10.8126 ], [ -74.8445, 10.81262 ], [ -74.84618, 10.81263 ], [ -74.84737, 10.81265 ], [ -74.84932, 10.81267 ], [ -74.8539, 10.81271 ], [ -74.85641, 10.81274 ], [ -74.85749, 10.81275 ], [ -74.8596, 10.81277 ], [ -74.86263, 10.8128 ], [ -74.86665, 10.81284 ], [ -74.8668, 10.83659 ], [ -74.86663, 10.83682 ], [ -74.8668, 10.83696 ], [ -74.86695, 10.86093 ], [ -74.86685, 10.86099 ], [ -74.86677, 10.86099 ], [ -74.86655, 10.861 ], [ -74.86615, 10.86098 ], [ -74.86575, 10.86099 ], [ -74.8656, 10.86099 ], [ -74.8655, 10.86099 ], [ -74.86484, 10.86097 ], [ -74.86409, 10.86097 ], [ -74.86283, 10.86098 ], [ -74.86241, 10.86098 ], [ -74.86231, 10.8613 ], [ -74.86219, 10.86163 ], [ -74.86209, 10.86198 ], [ -74.86197, 10.86221 ], [ -74.8619, 10.86236 ], [ -74.86183, 10.86251 ], [ -74.86173, 10.86262 ], [ -74.86164, 10.8627 ], [ -74.8615, 10.86283 ], [ -74.86133, 10.86293 ], [ -74.86121, 10.86299 ], [ -74.86104, 10.86305 ], [ -74.86092, 10.86305 ], [ -74.86078, 10.86305 ], [ -74.86055, 10.86302 ], [ -74.86045, 10.86301 ], [ -74.86034, 10.86299 ], [ -74.86018, 10.86299 ], [ -74.86007, 10.86299 ], [ -74.85977, 10.86299 ], [ -74.85961, 10.86301 ], [ -74.85944, 10.86306 ], [ -74.8592, 10.86313 ], [ -74.85905, 10.86319 ], [ -74.85873, 10.86335 ], [ -74.85844, 10.8635 ], [ -74.85805, 10.86375 ], [ -74.85776, 10.8639 ], [ -74.85752, 10.86403 ], [ -74.85697, 10.86425 ], [ -74.85658, 10.86442 ], [ -74.85631, 10.86454 ], [ -74.85615, 10.86459 ], [ -74.85594, 10.86466 ], [ -74.85589, 10.86459 ], [ -74.85558, 10.86468 ], [ -74.85506, 10.86481 ], [ -74.8548, 10.86488 ], [ -74.85462, 10.8649 ], [ -74.85432, 10.86494 ], [ -74.85411, 10.86495 ], [ -74.85393, 10.86497 ], [ -74.85374, 10.86501 ], [ -74.8535, 10.86512 ], [ -74.85331, 10.8652 ], [ -74.85307, 10.86528 ], [ -74.85276, 10.86535 ], [ -74.85248, 10.86537 ], [ -74.85219, 10.86544 ], [ -74.85188, 10.86553 ], [ -74.85143, 10.8657 ], [ -74.85117, 10.86581 ], [ -74.85076, 10.86601 ], [ -74.85041, 10.86621 ], [ -74.85015, 10.86634 ], [ -74.84985, 10.86648 ], [ -74.84925, 10.86672 ], [ -74.84909, 10.86677 ], [ -74.84897, 10.86676 ], [ -74.84896, 10.86681 ], [ -74.84883, 10.86685 ], [ -74.84856, 10.86692 ], [ -74.84812, 10.86696 ], [ -74.84795, 10.86694 ], [ -74.84781, 10.86692 ], [ -74.84768, 10.8669 ], [ -74.8476, 10.86688 ], [ -74.84745, 10.86684 ], [ -74.84731, 10.86684 ], [ -74.84717, 10.86685 ], [ -74.84703, 10.86687 ], [ -74.84683, 10.86695 ], [ -74.84673, 10.86699 ], [ -74.84662, 10.86705 ], [ -74.84647, 10.86713 ], [ -74.84632, 10.86719 ], [ -74.84609, 10.86729 ], [ -74.84593, 10.86734 ], [ -74.84583, 10.86737 ], [ -74.84572, 10.8674 ], [ -74.84556, 10.86742 ], [ -74.84534, 10.86746 ], [ -74.84513, 10.86748 ], [ -74.84489, 10.86754 ], [ -74.84459, 10.86766 ], [ -74.84448, 10.86774 ], [ -74.84438, 10.8678 ], [ -74.84422, 10.86787 ], [ -74.84407, 10.86793 ], [ -74.84386, 10.86802 ], [ -74.8437, 10.86809 ], [ -74.8432, 10.86832 ], [ -74.84288, 10.86849 ], [ -74.84262, 10.86863 ], [ -74.84247, 10.86875 ], [ -74.84227, 10.86886 ], [ -74.84202, 10.86904 ], [ -74.84152, 10.86942 ], [ -74.84134, 10.86957 ], [ -74.84116, 10.86973 ], [ -74.84096, 10.86991 ], [ -74.84068, 10.87015 ], [ -74.8402, 10.87065 ], [ -74.84003, 10.87084 ], [ -74.83989, 10.87096 ], [ -74.83971, 10.87114 ], [ -74.83958, 10.87126 ], [ -74.83921, 10.87155 ], [ -74.83894, 10.87175 ], [ -74.83885, 10.87181 ], [ -74.83891, 10.87189 ], [ -74.83924, 10.87205 ], [ -74.83959, 10.87216 ], [ -74.83979, 10.87222 ], [ -74.84011, 10.87231 ], [ -74.84032, 10.87235 ], [ -74.84047, 10.87237 ], [ -74.84072, 10.87239 ], [ -74.8409, 10.87241 ], [ -74.84107, 10.87242 ], [ -74.84116, 10.87242 ], [ -74.8414, 10.87252 ], [ -74.84158, 10.87257 ], [ -74.84183, 10.87265 ], [ -74.84202, 10.87272 ], [ -74.84221, 10.87282 ], [ -74.84238, 10.87291 ], [ -74.84251, 10.873 ], [ -74.84264, 10.8731 ], [ -74.84276, 10.87321 ], [ -74.84281, 10.8733 ], [ -74.84284, 10.87346 ], [ -74.84285, 10.8736 ], [ -74.84278, 10.87387 ], [ -74.84272, 10.87413 ], [ -74.84263, 10.87444 ], [ -74.84258, 10.87467 ], [ -74.84257, 10.87497 ], [ -74.84257, 10.87516 ], [ -74.84257, 10.87536 ], [ -74.84261, 10.87551 ], [ -74.84264, 10.87561 ], [ -74.84273, 10.87578 ], [ -74.84283, 10.87586 ], [ -74.84299, 10.87596 ], [ -74.84318, 10.87605 ], [ -74.8434, 10.87614 ], [ -74.84359, 10.87621 ], [ -74.84374, 10.87623 ], [ -74.84388, 10.87624 ], [ -74.84404, 10.87624 ], [ -74.84418, 10.87626 ], [ -74.84431, 10.87625 ], [ -74.84441, 10.87628 ], [ -74.84455, 10.87635 ], [ -74.8446, 10.87643 ], [ -74.84461, 10.87655 ], [ -74.84461, 10.87667 ], [ -74.84463, 10.8768 ], [ -74.84466, 10.87689 ], [ -74.84473, 10.87702 ], [ -74.84486, 10.87719 ], [ -74.84502, 10.87731 ], [ -74.8451, 10.87736 ], [ -74.84504, 10.8776 ], [ -74.84495, 10.87795 ], [ -74.84483, 10.87827 ], [ -74.84468, 10.87854 ], [ -74.84453, 10.87879 ], [ -74.84433, 10.87906 ], [ -74.84418, 10.87926 ], [ -74.84403, 10.87941 ], [ -74.84356, 10.87985 ], [ -74.84323, 10.88017 ], [ -74.84292, 10.88046 ], [ -74.84265, 10.88069 ], [ -74.84254, 10.88081 ], [ -74.84243, 10.88096 ], [ -74.84225, 10.88125 ], [ -74.842, 10.88164 ], [ -74.84187, 10.88189 ], [ -74.84175, 10.88215 ], [ -74.84161, 10.88246 ], [ -74.84152, 10.88268 ], [ -74.84134, 10.88294 ], [ -74.84124, 10.88302 ], [ -74.84115, 10.88296 ], [ -74.84089, 10.88329 ], [ -74.84068, 10.88338 ], [ -74.84056, 10.88344 ], [ -74.84039, 10.88351 ], [ -74.84022, 10.88363 ], [ -74.84006, 10.88371 ], [ -74.83988, 10.88382 ], [ -74.83974, 10.88393 ], [ -74.83951, 10.88416 ], [ -74.83933, 10.88438 ], [ -74.83916, 10.88466 ], [ -74.83902, 10.88497 ], [ -74.83891, 10.88522 ], [ -74.83882, 10.88543 ], [ -74.83819, 10.88547 ], [ -74.83747, 10.88553 ], [ -74.83705, 10.8856 ], [ -74.83663, 10.88566 ], [ -74.83627, 10.8857 ], [ -74.83604, 10.88574 ], [ -74.83488, 10.8861 ], [ -74.83404, 10.88637 ], [ -74.83328, 10.88663 ], [ -74.83288, 10.8867 ], [ -74.83248, 10.88677 ], [ -74.83207, 10.88683 ], [ -74.83184, 10.88685 ], [ -74.8317, 10.88689 ], [ -74.83158, 10.88695 ], [ -74.83134, 10.8871 ], [ -74.8311, 10.88719 ], [ -74.83079, 10.88733 ], [ -74.83013, 10.88761 ], [ -74.83006, 10.88764 ], [ -74.8295, 10.88793 ], [ -74.82857, 10.88833 ], [ -74.82799, 10.88859 ], [ -74.82763, 10.8888 ], [ -74.82749, 10.88891 ], [ -74.82735, 10.88912 ], [ -74.82723, 10.88927 ], [ -74.82717, 10.88936 ], [ -74.82709, 10.88945 ], [ -74.82685, 10.88962 ], [ -74.82659, 10.88977 ], [ -74.82638, 10.88988 ], [ -74.82616, 10.88998 ], [ -74.8259, 10.89012 ], [ -74.82586, 10.89013 ], [ -74.81855, 10.89018 ], [ -74.81865, 10.89008 ], [ -74.81893, 10.88985 ] ] ], [ [ [ -74.82818, 11.01153 ], [ -74.8284, 11.01119 ], [ -74.82854, 11.01103 ], [ -74.82879, 11.01113 ], [ -74.8291, 11.01124 ], [ -74.82987, 11.01143 ], [ -74.83012, 11.01145 ], [ -74.83044, 11.01149 ], [ -74.83076, 11.01152 ], [ -74.83111, 11.01161 ], [ -74.83148, 11.01173 ], [ -74.832, 11.01195 ], [ -74.83251, 11.01215 ], [ -74.83328, 11.01254 ], [ -74.83386, 11.01295 ], [ -74.8346, 11.01346 ], [ -74.83566, 11.01418 ], [ -74.8362, 11.01452 ], [ -74.83697, 11.01498 ], [ -74.8372, 11.01516 ], [ -74.83749, 11.01528 ], [ -74.83823, 11.01558 ], [ -74.83864, 11.01574 ], [ -74.83927, 11.01419 ], [ -74.84034, 11.01154 ], [ -74.84138, 11.0121 ], [ -74.84166, 11.01225 ], [ -74.8425, 11.0127 ], [ -74.84421, 11.01365 ], [ -74.84508, 11.0141 ], [ -74.84637, 11.01479 ], [ -74.84798, 11.01566 ], [ -74.84862, 11.016 ], [ -74.84898, 11.01618 ], [ -74.84946, 11.01641 ], [ -74.85015, 11.01665 ], [ -74.85065, 11.01679 ], [ -74.85119, 11.01693 ], [ -74.8517, 11.01702 ], [ -74.85246, 11.01712 ], [ -74.85346, 11.01716 ], [ -74.85419, 11.01713 ], [ -74.85508, 11.01701 ], [ -74.85594, 11.01691 ], [ -74.85876, 11.01653 ], [ -74.86086, 11.01627 ], [ -74.86238, 11.01611 ], [ -74.86666, 11.01556 ], [ -74.86949, 11.01519 ], [ -74.87094, 11.01502 ], [ -74.87429, 11.01456 ], [ -74.87649, 11.01431 ], [ -74.87654, 11.01452 ], [ -74.87667, 11.01504 ], [ -74.87675, 11.01545 ], [ -74.87691, 11.01608 ], [ -74.87701, 11.01651 ], [ -74.87706, 11.01674 ], [ -74.87716, 11.01678 ], [ -74.87725, 11.01682 ], [ -74.87731, 11.01682 ], [ -74.87737, 11.01682 ], [ -74.87741, 11.01679 ], [ -74.87746, 11.01674 ], [ -74.87757, 11.0166 ], [ -74.87767, 11.01651 ], [ -74.87775, 11.01645 ], [ -74.87784, 11.01642 ], [ -74.87804, 11.01639 ], [ -74.87823, 11.01635 ], [ -74.87838, 11.01633 ], [ -74.87845, 11.01632 ], [ -74.87883, 11.01625 ], [ -74.879, 11.01622 ], [ -74.87932, 11.01617 ], [ -74.87954, 11.01613 ], [ -74.88008, 11.01604 ], [ -74.88054, 11.01597 ], [ -74.88083, 11.01592 ], [ -74.88176, 11.01577 ], [ -74.88218, 11.0157 ], [ -74.88236, 11.01566 ], [ -74.88301, 11.01555 ], [ -74.88347, 11.01544 ], [ -74.88392, 11.01528 ], [ -74.88437, 11.01515 ], [ -74.88463, 11.01505 ], [ -74.88479, 11.01497 ], [ -74.88495, 11.01486 ], [ -74.88516, 11.0147 ], [ -74.88527, 11.01458 ], [ -74.88551, 11.01438 ], [ -74.88568, 11.01423 ], [ -74.88591, 11.0141 ], [ -74.8864, 11.01389 ], [ -74.88707, 11.01361 ], [ -74.88766, 11.01335 ], [ -74.88777, 11.01331 ], [ -74.88792, 11.01325 ], [ -74.88808, 11.01321 ], [ -74.88823, 11.01318 ], [ -74.88841, 11.01316 ], [ -74.88858, 11.01317 ], [ -74.88874, 11.01318 ], [ -74.88888, 11.0132 ], [ -74.88897, 11.01323 ], [ -74.88928, 11.01331 ], [ -74.88956, 11.0134 ], [ -74.88993, 11.01352 ], [ -74.89013, 11.01359 ], [ -74.89031, 11.01365 ], [ -74.8905, 11.01371 ], [ -74.89065, 11.01375 ], [ -74.89074, 11.01377 ], [ -74.89084, 11.01377 ], [ -74.89094, 11.01378 ], [ -74.89112, 11.01377 ], [ -74.89132, 11.01375 ], [ -74.89169, 11.01372 ], [ -74.89202, 11.01369 ], [ -74.89231, 11.01366 ], [ -74.89243, 11.01364 ], [ -74.89255, 11.01362 ], [ -74.89272, 11.01357 ], [ -74.89292, 11.0135 ], [ -74.89308, 11.01345 ], [ -74.8932, 11.01342 ], [ -74.89333, 11.0134 ], [ -74.89345, 11.01337 ], [ -74.89355, 11.01338 ], [ -74.89364, 11.01339 ], [ -74.89372, 11.01341 ], [ -74.89383, 11.01345 ], [ -74.89392, 11.0135 ], [ -74.89402, 11.01357 ], [ -74.89411, 11.01365 ], [ -74.89421, 11.01373 ], [ -74.89429, 11.01383 ], [ -74.89437, 11.0139 ], [ -74.89444, 11.01396 ], [ -74.8945, 11.01402 ], [ -74.89459, 11.01407 ], [ -74.89473, 11.01415 ], [ -74.89485, 11.01423 ], [ -74.89499, 11.01429 ], [ -74.89508, 11.01436 ], [ -74.89518, 11.01444 ], [ -74.89527, 11.01451 ], [ -74.89538, 11.01458 ], [ -74.89546, 11.01464 ], [ -74.89555, 11.01467 ], [ -74.89563, 11.01471 ], [ -74.89582, 11.01475 ], [ -74.89608, 11.01479 ], [ -74.89628, 11.01484 ], [ -74.89645, 11.01487 ], [ -74.89662, 11.01489 ], [ -74.89683, 11.0149 ], [ -74.897, 11.0149 ], [ -74.89716, 11.0149 ], [ -74.89732, 11.01488 ], [ -74.89757, 11.01486 ], [ -74.89778, 11.01482 ], [ -74.898, 11.01479 ], [ -74.89827, 11.01476 ], [ -74.899, 11.01466 ], [ -74.89966, 11.01458 ], [ -74.89984, 11.01455 ], [ -74.89985, 11.01455 ], [ -74.89958, 11.01667 ], [ -74.89875, 11.0175 ], [ -74.89864, 11.01784 ], [ -74.89833, 11.01875 ], [ -74.89792, 11.02 ], [ -74.8975, 11.02208 ], [ -74.89709, 11.02417 ], [ -74.89667, 11.02458 ], [ -74.89542, 11.025 ], [ -74.89417, 11.02542 ], [ -74.89291, 11.02667 ], [ -74.8925, 11.0275 ], [ -74.89208, 11.02833 ], [ -74.88917, 11.03125 ], [ -74.88834, 11.03167 ], [ -74.8875, 11.03208 ], [ -74.88583, 11.0325 ], [ -74.88416, 11.03292 ], [ -74.88333, 11.03375 ], [ -74.8825, 11.03417 ], [ -74.88167, 11.03458 ], [ -74.88125, 11.035 ], [ -74.88084, 11.03583 ], [ -74.88167, 11.0375 ], [ -74.88084, 11.03917 ], [ -74.88125, 11.04 ], [ -74.8825, 11.04125 ], [ -74.88167, 11.04208 ], [ -74.88, 11.0425 ], [ -74.87833, 11.04292 ], [ -74.8775, 11.04333 ], [ -74.87666, 11.04375 ], [ -74.87625, 11.04417 ], [ -74.87617, 11.04449 ], [ -74.87535, 11.04479 ], [ -74.87257, 11.04563 ], [ -74.8709, 11.04619 ], [ -74.86989, 11.04615 ], [ -74.86722, 11.04561 ], [ -74.86672, 11.04476 ], [ -74.86656, 11.04236 ], [ -74.86498, 11.03955 ], [ -74.86325, 11.03713 ], [ -74.86132, 11.03635 ], [ -74.85922, 11.0365 ], [ -74.85749, 11.03638 ], [ -74.85643, 11.03523 ], [ -74.85504, 11.03414 ], [ -74.85349, 11.03376 ], [ -74.85176, 11.03391 ], [ -74.84998, 11.03451 ], [ -74.84914, 11.03556 ], [ -74.84907, 11.03789 ], [ -74.84872, 11.03928 ], [ -74.84802, 11.04046 ], [ -74.84704, 11.04116 ], [ -74.84574, 11.0411 ], [ -74.84538, 11.04023 ], [ -74.84551, 11.03857 ], [ -74.84635, 11.03586 ], [ -74.84599, 11.03573 ], [ -74.84513, 11.03588 ], [ -74.84414, 11.036 ], [ -74.84377, 11.03569 ], [ -74.84334, 11.03481 ], [ -74.84315, 11.03417 ], [ -74.84159, 11.03437 ], [ -74.83951, 11.03532 ], [ -74.83844, 11.03651 ], [ -74.83755, 11.03666 ], [ -74.83403, 11.03999 ], [ -74.83228, 11.04404 ], [ -74.83218, 11.04432 ], [ -74.83153, 11.0448 ], [ -74.83081, 11.04562 ], [ -74.8305, 11.04586 ], [ -74.82955, 11.04693 ], [ -74.82932, 11.0468 ], [ -74.8227, 11.04224 ], [ -74.82478, 11.03917 ], [ -74.82441, 11.03914 ], [ -74.82649, 11.03554 ], [ -74.82785, 11.03012 ], [ -74.82893, 11.02552 ], [ -74.82893, 11.01848 ], [ -74.82839, 11.01361 ], [ -74.82801, 11.01175 ], [ -74.82804, 11.01171 ], [ -74.82818, 11.01153 ] ] ] ] } }
]
}
