{
"type": "FeatureCollection",
"name": "t73_corredores",
"crs": { "type": "name", "properties": { "name": "urn:ogc:def:crs:OGC:1.3:CRS84" } },
"xy_coordinate_resolution": 1e-05,
"features": [
{ "type": "Feature", "properties": { "TIPO": "Corredor logístico estructurante de mercancías" }, "geometry": { "type": "MultiLineString", "coordinates": [ [ [ -74.8276, 11.03881 ], [ -74.82766, 11.03879 ], [ -74.82777, 11.03873 ], [ -74.82808, 11.03853 ], [ -74.82845, 11.03833 ], [ -74.82949, 11.0378 ], [ -74.83024, 11.03739 ], [ -74.8305, 11.03725 ], [ -74.83083, 11.03707 ], [ -74.83118, 11.03687 ], [ -74.83171, 11.03656 ], [ -74.83232, 11.03622 ], [ -74.83346, 11.03553 ], [ -74.83379, 11.03533 ], [ -74.83408, 11.03516 ], [ -74.83431, 11.03502 ], [ -74.83464, 11.03482 ], [ -74.83483, 11.03474 ], [ -74.83503, 11.03467 ], [ -74.83548, 11.03458 ], [ -74.83595, 11.03457 ], [ -74.83651, 11.03458 ], [ -74.83683, 11.03457 ], [ -74.83702, 11.03455 ], [ -74.83722, 11.03452 ], [ -74.83741, 11.03448 ], [ -74.83767, 11.03438 ], [ -74.83772, 11.03436 ], [ -74.83789, 11.03427 ], [ -74.83807, 11.03416 ], [ -74.83823, 11.03404 ], [ -74.83841, 11.03388 ], [ -74.83859, 11.0337 ], [ -74.83891, 11.03339 ], [ -74.83921, 11.03308 ], [ -74.83947, 11.03284 ], [ -74.83964, 11.03273 ], [ -74.83999, 11.03255 ], [ -74.84024, 11.03246 ], [ -74.84062, 11.03236 ], [ -74.84236, 11.03188 ], [ -74.84304, 11.0317 ], [ -74.84335, 11.03162 ], [ -74.84404, 11.03145 ], [ -74.84463, 11.03127 ], [ -74.84617, 11.03086 ], [ -74.84664, 11.03073 ], [ -74.84776, 11.03043 ], [ -74.84879, 11.03019 ], [ -74.84915, 11.03007 ], [ -74.84959, 11.02998 ], [ -74.85012, 11.02988 ], [ -74.85058, 11.02985 ], [ -74.85079, 11.02985 ], [ -74.85099, 11.02986 ], [ -74.85156, 11.02988 ], [ -74.85185, 11.0299 ], [ -74.85246, 11.02995 ], [ -74.85326, 11.03 ], [ -74.85368, 11.03004 ], [ -74.85413, 11.03014 ], [ -74.85517, 11.03042 ], [ -74.8557, 11.03054 ], [ -74.85579, 11.03056 ], [ -74.85602, 11.03061 ], [ -74.85643, 11.03071 ], [ -74.85694, 11.03082 ], [ -74.85714, 11.03086 ], [ -74.85769, 11.031 ], [ -74.85795, 11.03106 ], [ -74.85812, 11.0311 ], [ -74.85826, 11.03113 ], [ -74.85844, 11.03114 ], [ -74.85857, 11.03113 ], [ -74.85883, 11.0311 ] ], [ [ -74.85879, 11.03099 ], [ -74.85863, 11.031 ], [ -74.85847, 11.031 ], [ -74.85831, 11.03099 ], [ -74.85816, 11.03097 ], [ -74.85649, 11.03058 ], [ -74.85578, 11.03041 ], [ -74.85551, 11.03035 ], [ -74.85544, 11.03033 ], [ -74.85535, 11.03031 ], [ -74.85384, 11.02998 ], [ -74.8536, 11.02993 ], [ -74.85323, 11.0299 ], [ -74.85157, 11.02979 ], [ -74.85077, 11.02975 ], [ -74.85039, 11.02976 ], [ -74.8501, 11.02979 ], [ -74.84982, 11.02983 ], [ -74.84936, 11.02993 ], [ -74.84777, 11.03034 ], [ -74.84475, 11.03115 ], [ -74.84389, 11.03139 ], [ -74.84236, 11.03179 ], [ -74.84019, 11.03238 ], [ -74.83996, 11.03247 ], [ -74.8397, 11.03259 ], [ -74.83938, 11.03281 ], [ -74.83903, 11.03312 ], [ -74.83861, 11.03355 ], [ -74.83826, 11.03389 ], [ -74.83811, 11.03402 ], [ -74.83801, 11.03409 ], [ -74.83791, 11.03416 ], [ -74.83776, 11.03423 ], [ -74.83757, 11.03432 ], [ -74.83739, 11.03438 ], [ -74.83723, 11.03442 ], [ -74.8369, 11.03447 ], [ -74.83654, 11.03448 ], [ -74.83542, 11.03449 ], [ -74.83504, 11.03457 ], [ -74.83484, 11.03463 ], [ -74.8346, 11.03473 ], [ -74.83425, 11.03495 ], [ -74.83339, 11.03546 ], [ -74.83194, 11.03633 ], [ -74.83116, 11.03677 ], [ -74.83038, 11.03719 ], [ -74.83018, 11.03731 ], [ -74.82931, 11.03778 ], [ -74.82841, 11.03824 ], [ -74.82809, 11.03841 ], [ -74.82776, 11.0386 ], [ -74.82764, 11.03867 ], [ -74.82756, 11.03871 ] ], [ [ -74.85825, 11.03105 ], [ -74.8589, 11.03104 ], [ -74.85943, 11.03108 ], [ -74.86282, 11.03184 ], [ -74.86495, 11.03225 ], [ -74.86639, 11.03235 ], [ -74.86719, 11.03218 ], [ -74.86808, 11.03121 ], [ -74.87055, 11.02799 ], [ -74.87412, 11.02124 ], [ -74.87538, 11.01733 ], [ -74.87506, 11.01458 ], [ -74.87461, 11.01301 ], [ -74.87431, 11.00937 ], [ -74.87358, 11.00756 ], [ -74.87092, 11.00311 ], [ -74.86637, 10.99805 ], [ -74.86299, 10.99361 ], [ -74.8609, 10.99039 ], [ -74.86017, 10.98797 ], [ -74.85914, 10.98449 ], [ -74.85822, 10.98163 ], [ -74.85571, 10.97837 ], [ -74.85102, 10.97431 ], [ -74.84803, 10.97184 ], [ -74.84516, 10.9691 ], [ -74.84409, 10.96669 ], [ -74.84313, 10.96306 ], [ -74.8428, 10.95897 ], [ -74.84181, 10.95031 ], [ -74.84185, 10.94563 ], [ -74.84384, 10.93811 ], [ -74.84634, 10.92984 ], [ -74.84752, 10.9247 ], [ -74.84742, 10.92195 ], [ -74.84763, 10.91898 ], [ -74.84633, 10.91579 ], [ -74.84307, 10.9106 ], [ -74.83731, 10.9038 ], [ -74.83192, 10.89632 ], [ -74.82342, 10.88507 ], [ -74.8188, 10.87937 ], [ -74.81448, 10.87449 ], [ -74.81055, 10.8702 ], [ -74.8082, 10.86746 ], [ -74.80683, 10.86576 ], [ -74.80449, 10.86328 ], [ -74.80169, 10.8617 ], [ -74.79864, 10.8603 ], [ -74.796, 10.86017 ], [ -74.79345, 10.86052 ], [ -74.7909, 10.86128 ], [ -74.78796, 10.86137 ], [ -74.78364, 10.86143 ], [ -74.77946, 10.86153 ], [ -74.77676, 10.86233 ], [ -74.77436, 10.8642 ], [ -74.77239, 10.86774 ], [ -74.7714, 10.87236 ], [ -74.7703, 10.8833 ], [ -74.76981, 10.8894 ], [ -74.76978, 10.8962 ], [ -74.76985, 10.90204 ], [ -74.77055, 10.90627 ], [ -74.77425, 10.91528 ], [ -74.7767, 10.92122 ], [ -74.78037, 10.93131 ], [ -74.78329, 10.94155 ], [ -74.78604, 10.94867 ], [ -74.78674, 10.95321 ], [ -74.78616, 10.95693 ], [ -74.78439, 10.96289 ], [ -74.78141, 10.96729 ], [ -74.77792, 10.97475 ], [ -74.77621, 10.97914 ], [ -74.77549, 10.98324 ], [ -74.77596, 10.98792 ], [ -74.77802, 10.99177 ], [ -74.78174, 10.99725 ], [ -74.78531, 11.00259 ], [ -74.79008, 11.00791 ], [ -74.79357, 11.01243 ], [ -74.79806, 11.01976 ], [ -74.80336, 11.02613 ], [ -74.80882, 11.03152 ], [ -74.81373, 11.03528 ], [ -74.81736, 11.03749 ], [ -74.82135, 11.03866 ], [ -74.82269, 11.03887 ], [ -74.82428, 11.03907 ], [ -74.82567, 11.03931 ], [ -74.82644, 11.03903 ], [ -74.82686, 11.03879 ], [ -74.82734, 11.03879 ], [ -74.82751, 11.03877 ], [ -74.82764, 11.03874 ], [ -74.82776, 11.03867 ], [ -74.828, 11.03853 ] ] ] } },
{ "type": "Feature", "properties": { "TIPO": "Corredor logístico estructurante de mercancías" }, "geometry": { "type": "LineString", "coordinates": [ [ -74.8273, 11.0384 ], [ -74.83, 11.03541 ], [ -74.83304, 11.03188 ], [ -74.83349, 11.0308 ], [ -74.83519, 11.02592 ], [ -74.83814, 11.01902 ], [ -74.83963, 11.01426 ], [ -74.84078, 11.01168 ], [ -74.84414, 11.01341 ], [ -74.84743, 11.01555 ], [ -74.85109, 11.01705 ], [ -74.85451, 11.01744 ], [ -74.8579, 11.01727 ], [ -74.86297, 11.01646 ], [ -74.86775, 11.01568 ], [ -74.87038, 11.01541 ], [ -74.87226, 11.01465 ], [ -74.87461, 11.01301 ] ] } },
{ "type": "Feature", "properties": { "TIPO": "Corredor logístico estructurante de mercancías" }, "geometry": { "type": "LineString", "coordinates": [ [ -74.84102, 11.01159 ], [ -74.84206, 11.00878 ], [ -74.84293, 11.00647 ], [ -74.84312, 11.00437 ], [ -74.84309, 11.00243 ], [ -74.84242, 11.00048 ], [ -74.84154, 10.99832 ], [ -74.84006, 10.99498 ], [ -74.83826, 10.99116 ], [ -74.83753, 10.98812 ], [ -74.83713, 10.98496 ], [ -74.83707, 10.98139 ], [ -74.83724, 10.97722 ], [ -74.83815, 10.97213 ], [ -74.83892, 10.9693 ], [ -74.8392, 10.96569 ], [ -74.83792, 10.96016 ], [ -74.83661, 10.95489 ], [ -74.83511, 10.95028 ], [ -74.83569, 10.94188 ], [ -74.83545, 10.93708 ], [ -74.83459, 10.93267 ], [ -74.83247, 10.92967 ], [ -74.8285, 10.92761 ], [ -74.81816, 10.92235 ], [ -74.81598, 10.92217 ], [ -74.81175, 10.92233 ], [ -74.80431, 10.92308 ], [ -74.79791, 10.92362 ], [ -74.79474, 10.92395 ], [ -74.79125, 10.92518 ], [ -74.78898, 10.92672 ], [ -74.78582, 10.92951 ], [ -74.78303, 10.93207 ], [ -74.78103, 10.93363 ] ] } },
{ "type": "Feature", "properties": { "TIPO": "Corredor logístico estructurante de mercancías" }, "geometry": { "type": "MultiLineString", "coordinates": [ [ [ -74.86605, 11.02682 ], [ -74.86738, 11.02574 ], [ -74.86755, 11.02563 ], [ -74.86772, 11.02556 ], [ -74.8679, 11.0255 ], [ -74.8681, 11.02547 ], [ -74.86825, 11.02547 ], [ -74.86842, 11.02548 ], [ -74.86857, 11.02551 ], [ -74.86879, 11.02554 ], [ -74.86902, 11.02554 ], [ -74.86924, 11.02552 ], [ -74.86946, 11.02548 ], [ -74.86968, 11.02541 ], [ -74.86988, 11.02532 ], [ -74.87008, 11.02521 ], [ -74.87025, 11.02508 ], [ -74.87042, 11.02492 ], [ -74.87056, 11.02476 ], [ -74.87118, 11.02397 ], [ -74.87279, 11.02189 ], [ -74.8729, 11.02174 ], [ -74.87302, 11.02161 ], [ -74.87315, 11.02148 ], [ -74.87329, 11.02137 ], [ -74.87345, 11.02126 ], [ -74.87355, 11.0212 ], [ -74.8738, 11.02105 ], [ -74.87606, 11.01975 ], [ -74.87638, 11.01954 ], [ -74.87655, 11.01942 ], [ -74.87668, 11.0193 ], [ -74.87682, 11.01914 ], [ -74.87699, 11.01891 ], [ -74.87711, 11.01871 ], [ -74.87719, 11.0185 ], [ -74.87727, 11.01826 ], [ -74.87731, 11.01811 ], [ -74.87734, 11.01786 ], [ -74.87731, 11.01758 ], [ -74.87729, 11.01739 ], [ -74.87726, 11.0172 ], [ -74.87714, 11.0167 ], [ -74.87694, 11.01588 ], [ -74.87669, 11.01486 ], [ -74.87664, 11.01469 ], [ -74.87649, 11.0141 ], [ -74.87644, 11.01389 ], [ -74.87618, 11.01288 ], [ -74.87612, 11.01263 ], [ -74.87608, 11.01236 ], [ -74.87604, 11.01197 ], [ -74.87605, 11.01156 ], [ -74.87608, 11.01129 ], [ -74.87614, 11.01099 ], [ -74.87623, 11.01068 ], [ -74.87634, 11.01038 ], [ -74.87656, 11.00994 ], [ -74.87713, 11.00904 ], [ -74.87732, 11.00874 ], [ -74.87776, 11.00806 ], [ -74.87916, 11.00592 ], [ -74.87941, 11.00554 ], [ -74.88111, 11.00283 ], [ -74.8815, 11.00226 ], [ -74.88252, 11.00069 ], [ -74.88337, 10.99949 ], [ -74.88372, 10.999 ], [ -74.88381, 10.99889 ], [ -74.88415, 10.99841 ], [ -74.88444, 10.99792 ], [ -74.88451, 10.99779 ], [ -74.88483, 10.99721 ], [ -74.8855, 10.99606 ], [ -74.88844, 10.99145 ], [ -74.88891, 10.99069 ], [ -74.88919, 10.99026 ], [ -74.88946, 10.9898 ], [ -74.88961, 10.98947 ], [ -74.88971, 10.98922 ], [ -74.88978, 10.98894 ], [ -74.8898, 10.98876 ], [ -74.88987, 10.98818 ], [ -74.88998, 10.98735 ], [ -74.89001, 10.98706 ], [ -74.89008, 10.98644 ], [ -74.89014, 10.98599 ], [ -74.8905, 10.98363 ], [ -74.89055, 10.98327 ], [ -74.89084, 10.98077 ], [ -74.89096, 10.97983 ], [ -74.89098, 10.97972 ], [ -74.89117, 10.97848 ], [ -74.89143, 10.97656 ], [ -74.8915, 10.97629 ], [ -74.89159, 10.97603 ], [ -74.89193, 10.97525 ], [ -74.89224, 10.97474 ], [ -74.89298, 10.97384 ], [ -74.89334, 10.9735 ], [ -74.89402, 10.97298 ], [ -74.89844, 10.96974 ], [ -74.89979, 10.96874 ], [ -74.90018, 10.96839 ], [ -74.90041, 10.96814 ], [ -74.90071, 10.96771 ], [ -74.90096, 10.96725 ], [ -74.9011, 10.96682 ], [ -74.90119, 10.96633 ], [ -74.90124, 10.96589 ], [ -74.90124, 10.96542 ], [ -74.90112, 10.96487 ], [ -74.90097, 10.96434 ], [ -74.90058, 10.96335 ], [ -74.90038, 10.96282 ], [ -74.90031, 10.96262 ], [ -74.89979, 10.96106 ], [ -74.89971, 10.96079 ], [ -74.89967, 10.96063 ], [ -74.89961, 10.96047 ], [ -74.89948, 10.96019 ], [ -74.8989, 10.95899 ], [ -74.89873, 10.95864 ], [ -74.89831, 10.95767 ], [ -74.89783, 10.95648 ], [ -74.89706, 10.95459 ], [ -74.89675, 10.95376 ], [ -74.89666, 10.95352 ], [ -74.89652, 10.95308 ], [ -74.89645, 10.95278 ], [ -74.8964, 10.95239 ], [ -74.89635, 10.95185 ], [ -74.89632, 10.95068 ], [ -74.89625, 10.9486 ], [ -74.89621, 10.94761 ], [ -74.89615, 10.9468 ], [ -74.89611, 10.94633 ], [ -74.89601, 10.94521 ], [ -74.89587, 10.94373 ], [ -74.89576, 10.94283 ], [ -74.89574, 10.94249 ], [ -74.89573, 10.94213 ], [ -74.89575, 10.94177 ], [ -74.89579, 10.9414 ], [ -74.89587, 10.941 ], [ -74.89603, 10.94052 ], [ -74.8961, 10.94036 ], [ -74.89756, 10.93689 ], [ -74.89772, 10.93646 ], [ -74.89804, 10.93575 ], [ -74.89815, 10.93546 ], [ -74.8982, 10.93532 ], [ -74.89825, 10.93517 ], [ -74.89833, 10.93474 ], [ -74.89835, 10.93458 ], [ -74.89835, 10.93442 ], [ -74.89836, 10.93426 ], [ -74.89836, 10.93411 ], [ -74.89834, 10.93389 ], [ -74.89831, 10.93368 ], [ -74.89827, 10.93348 ], [ -74.89822, 10.93327 ], [ -74.89807, 10.9328 ], [ -74.89801, 10.93265 ], [ -74.89795, 10.9325 ], [ -74.89787, 10.93235 ], [ -74.89779, 10.93221 ], [ -74.89766, 10.93203 ], [ -74.89753, 10.93185 ], [ -74.89729, 10.9316 ], [ -74.89717, 10.93147 ], [ -74.89704, 10.93135 ], [ -74.89615, 10.93059 ], [ -74.89525, 10.9298 ], [ -74.89463, 10.92926 ], [ -74.89456, 10.92921 ], [ -74.8945, 10.92915 ], [ -74.89431, 10.92901 ], [ -74.89376, 10.92859 ], [ -74.89173, 10.92689 ], [ -74.89156, 10.92674 ], [ -74.89138, 10.9266 ], [ -74.89099, 10.92634 ], [ -74.89047, 10.92605 ], [ -74.89014, 10.9259 ], [ -74.8898, 10.92578 ], [ -74.88944, 10.92569 ], [ -74.88903, 10.92557 ], [ -74.88848, 10.92542 ] ], [ [ -74.88472, 10.92462 ], [ -74.88409, 10.92445 ], [ -74.88388, 10.92439 ], [ -74.88367, 10.92432 ], [ -74.8835, 10.92425 ], [ -74.88334, 10.92418 ], [ -74.88298, 10.92398 ], [ -74.88279, 10.92384 ], [ -74.8827, 10.92377 ], [ -74.88261, 10.9237 ], [ -74.88239, 10.9235 ], [ -74.88223, 10.92333 ], [ -74.88205, 10.92309 ], [ -74.88196, 10.92296 ], [ -74.88187, 10.92282 ], [ -74.88173, 10.92255 ], [ -74.88164, 10.92235 ], [ -74.88152, 10.9221 ], [ -74.8814, 10.92184 ], [ -74.88122, 10.92148 ], [ -74.8811, 10.92123 ], [ -74.88101, 10.92109 ], [ -74.88092, 10.92096 ], [ -74.88076, 10.92074 ], [ -74.88059, 10.92053 ], [ -74.8803, 10.92022 ], [ -74.88002, 10.91993 ], [ -74.87986, 10.9198 ], [ -74.8797, 10.91968 ], [ -74.87944, 10.91951 ], [ -74.87922, 10.91938 ], [ -74.87907, 10.9193 ], [ -74.87891, 10.91923 ], [ -74.87857, 10.91909 ], [ -74.87737, 10.91863 ], [ -74.8761, 10.91815 ], [ -74.87599, 10.91809 ], [ -74.87582, 10.91797 ], [ -74.87546, 10.91772 ], [ -74.87514, 10.91744 ], [ -74.87484, 10.91712 ], [ -74.87463, 10.91683 ], [ -74.87443, 10.91653 ], [ -74.87425, 10.91622 ], [ -74.87408, 10.9159 ], [ -74.8739, 10.91552 ], [ -74.87349, 10.91466 ], [ -74.87328, 10.9142 ], [ -74.87313, 10.91391 ], [ -74.87295, 10.91361 ], [ -74.8724, 10.9128 ], [ -74.87222, 10.91253 ], [ -74.87117, 10.91097 ], [ -74.871, 10.91067 ], [ -74.87067, 10.91001 ], [ -74.86914, 10.90631 ], [ -74.86838, 10.90433 ], [ -74.86771, 10.90267 ], [ -74.86698, 10.90086 ], [ -74.86683, 10.90055 ], [ -74.8667, 10.90025 ], [ -74.86654, 10.89996 ], [ -74.86635, 10.89969 ], [ -74.86599, 10.89922 ], [ -74.86562, 10.89883 ], [ -74.86525, 10.8985 ], [ -74.86467, 10.89809 ], [ -74.86246, 10.89682 ], [ -74.86155, 10.89626 ], [ -74.86003, 10.89532 ], [ -74.85945, 10.89494 ], [ -74.85902, 10.89469 ], [ -74.85789, 10.89412 ], [ -74.85706, 10.89365 ], [ -74.85358, 10.89165 ], [ -74.85249, 10.89098 ], [ -74.85152, 10.89041 ], [ -74.85053, 10.88983 ], [ -74.84947, 10.88925 ], [ -74.84847, 10.8887 ], [ -74.84799, 10.8884 ], [ -74.84739, 10.88801 ], [ -74.84703, 10.88778 ], [ -74.84642, 10.88736 ], [ -74.84605, 10.88711 ], [ -74.84575, 10.88691 ], [ -74.84512, 10.88649 ], [ -74.84482, 10.8863 ], [ -74.84467, 10.88622 ], [ -74.84459, 10.88617 ], [ -74.84452, 10.88613 ], [ -74.84431, 10.88602 ], [ -74.84407, 10.88589 ], [ -74.84354, 10.88563 ], [ -74.84314, 10.88544 ], [ -74.84214, 10.88496 ], [ -74.84198, 10.88488 ], [ -74.841, 10.88435 ], [ -74.83998, 10.88376 ], [ -74.83882, 10.88309 ], [ -74.8379, 10.88256 ], [ -74.8369, 10.88199 ], [ -74.83669, 10.88188 ], [ -74.83647, 10.88179 ], [ -74.83627, 10.88171 ], [ -74.83605, 10.88165 ], [ -74.83551, 10.88149 ], [ -74.83286, 10.88072 ], [ -74.83224, 10.88051 ], [ -74.83179, 10.88032 ], [ -74.83143, 10.88009 ], [ -74.831, 10.8798 ], [ -74.83071, 10.87944 ], [ -74.83044, 10.87902 ], [ -74.83027, 10.87873 ], [ -74.83006, 10.87831 ], [ -74.82991, 10.87783 ], [ -74.82986, 10.87762 ], [ -74.82983, 10.8775 ], [ -74.82902, 10.87372 ], [ -74.82899, 10.87358 ], [ -74.82883, 10.87235 ], [ -74.82879, 10.87203 ], [ -74.82876, 10.8718 ], [ -74.82869, 10.87146 ], [ -74.8286, 10.8711 ], [ -74.82816, 10.86991 ], [ -74.82794, 10.86897 ], [ -74.82752, 10.86721 ], [ -74.82699, 10.86468 ], [ -74.82685, 10.864 ], [ -74.8266, 10.8629 ], [ -74.82634, 10.86173 ], [ -74.82619, 10.86115 ], [ -74.82559, 10.85824 ], [ -74.82543, 10.85745 ], [ -74.82523, 10.85591 ], [ -74.82515, 10.85543 ], [ -74.82508, 10.85511 ], [ -74.82495, 10.85477 ], [ -74.82461, 10.85367 ], [ -74.82449, 10.85329 ], [ -74.82415, 10.85194 ], [ -74.82384, 10.85053 ], [ -74.82337, 10.84849 ], [ -74.82298, 10.84735 ], [ -74.82256, 10.8464 ], [ -74.82214, 10.84561 ], [ -74.82178, 10.84501 ], [ -74.82128, 10.84429 ], [ -74.82093, 10.84385 ], [ -74.82065, 10.8435 ], [ -74.82021, 10.84301 ], [ -74.81965, 10.84246 ], [ -74.81899, 10.84188 ], [ -74.81875, 10.84169 ], [ -74.81818, 10.84125 ], [ -74.81706, 10.84053 ], [ -74.81578, 10.83978 ], [ -74.81447, 10.83902 ], [ -74.81395, 10.8387 ], [ -74.8127, 10.83783 ], [ -74.81241, 10.83764 ], [ -74.81216, 10.83749 ], [ -74.81193, 10.83735 ], [ -74.81102, 10.83695 ], [ -74.81043, 10.83663 ], [ -74.81004, 10.83643 ], [ -74.809, 10.83584 ], [ -74.80885, 10.83575 ], [ -74.80791, 10.83521 ], [ -74.80638, 10.8343 ], [ -74.80521, 10.83362 ], [ -74.80476, 10.83335 ], [ -74.80289, 10.83239 ], [ -74.80059, 10.83128 ], [ -74.79828, 10.83012 ], [ -74.79814, 10.83005 ], [ -74.79591, 10.82896 ], [ -74.79229, 10.82717 ], [ -74.79127, 10.82667 ], [ -74.79068, 10.82638 ], [ -74.79046, 10.82628 ], [ -74.79039, 10.82625 ], [ -74.79005, 10.82614 ], [ -74.78977, 10.82606 ], [ -74.78948, 10.826 ], [ -74.78907, 10.82594 ], [ -74.78882, 10.82591 ], [ -74.7887, 10.8259 ], [ -74.78821, 10.82589 ], [ -74.78749, 10.82595 ], [ -74.78623, 10.82613 ], [ -74.78358, 10.82653 ], [ -74.78045, 10.82698 ], [ -74.78009, 10.82702 ], [ -74.77924, 10.82706 ], [ -74.77878, 10.82708 ], [ -74.77856, 10.82708 ], [ -74.77828, 10.82714 ], [ -74.77719, 10.82742 ], [ -74.77653, 10.82758 ], [ -74.77545, 10.82778 ], [ -74.77353, 10.82806 ], [ -74.77121, 10.82838 ], [ -74.77102, 10.82841 ], [ -74.77078, 10.82842 ], [ -74.77054, 10.8284 ], [ -74.77015, 10.82836 ], [ -74.76917, 10.82807 ] ], [ [ -74.86641, 11.0264 ], [ -74.86562, 11.02711 ], [ -74.86541, 11.02761 ], [ -74.86531, 11.0288 ], [ -74.86563, 11.02975 ], [ -74.86669, 11.03179 ], [ -74.86721, 11.03306 ], [ -74.86885, 11.03558 ], [ -74.86954, 11.03829 ], [ -74.86956, 11.04082 ] ], [ [ -74.82647, 10.86292 ], [ -74.82683, 10.86446 ], [ -74.82691, 10.86482 ], [ -74.82744, 10.86722 ], [ -74.82776, 10.86867 ], [ -74.82802, 10.86994 ], [ -74.82818, 10.871 ], [ -74.8283, 10.87165 ], [ -74.82845, 10.87226 ], [ -74.82846, 10.87233 ], [ -74.82877, 10.87345 ], [ -74.82885, 10.87376 ], [ -74.82908, 10.87474 ], [ -74.82919, 10.87523 ], [ -74.82947, 10.8764 ], [ -74.82979, 10.87789 ], [ -74.82986, 10.87817 ], [ -74.82994, 10.87839 ], [ -74.83014, 10.87885 ], [ -74.8303, 10.87912 ], [ -74.8306, 10.87953 ], [ -74.83094, 10.87989 ], [ -74.8313, 10.88015 ], [ -74.83171, 10.88039 ], [ -74.83219, 10.88061 ], [ -74.83284, 10.8808 ], [ -74.83548, 10.88157 ], [ -74.83596, 10.88171 ], [ -74.8362, 10.88179 ], [ -74.83644, 10.88187 ], [ -74.83666, 10.88196 ], [ -74.83686, 10.88206 ], [ -74.83785, 10.88263 ], [ -74.83877, 10.88317 ], [ -74.83987, 10.88381 ], [ -74.84095, 10.88444 ], [ -74.84188, 10.88497 ], [ -74.84283, 10.88561 ], [ -74.84295, 10.88569 ], [ -74.84331, 10.88594 ], [ -74.84337, 10.88598 ], [ -74.84386, 10.88631 ], [ -74.84424, 10.88656 ], [ -74.84435, 10.88663 ], [ -74.84441, 10.88667 ], [ -74.84483, 10.8869 ], [ -74.84551, 10.88725 ], [ -74.8457, 10.88735 ], [ -74.84658, 10.88777 ], [ -74.84698, 10.88798 ], [ -74.8473, 10.88816 ], [ -74.84829, 10.88873 ], [ -74.84922, 10.88925 ], [ -74.85051, 10.89 ], [ -74.85148, 10.89053 ], [ -74.85243, 10.89111 ], [ -74.85354, 10.89176 ], [ -74.85692, 10.89375 ], [ -74.85749, 10.89411 ], [ -74.85778, 10.8943 ], [ -74.85872, 10.89498 ], [ -74.859, 10.89517 ], [ -74.85915, 10.89526 ], [ -74.85931, 10.89535 ], [ -74.85964, 10.8955 ], [ -74.8609, 10.89611 ], [ -74.86125, 10.8963 ], [ -74.86238, 10.89694 ], [ -74.86452, 10.89818 ], [ -74.86515, 10.89863 ], [ -74.86551, 10.89893 ], [ -74.86565, 10.89906 ], [ -74.86585, 10.89927 ], [ -74.86623, 10.89976 ], [ -74.86642, 10.90005 ], [ -74.86658, 10.90034 ], [ -74.86671, 10.90059 ], [ -74.86686, 10.90091 ], [ -74.86757, 10.9027 ], [ -74.87036, 10.90962 ], [ -74.87052, 10.90999 ], [ -74.87065, 10.91032 ], [ -74.87084, 10.91073 ], [ -74.87099, 10.91099 ], [ -74.87195, 10.91266 ], [ -74.87207, 10.91288 ], [ -74.87237, 10.9134 ], [ -74.87259, 10.91382 ], [ -74.87273, 10.91408 ], [ -74.8729, 10.91437 ], [ -74.87368, 10.91572 ], [ -74.87385, 10.91601 ], [ -74.87403, 10.91635 ], [ -74.87424, 10.91668 ], [ -74.87447, 10.91699 ], [ -74.87472, 10.91729 ], [ -74.87506, 10.91757 ], [ -74.87541, 10.91784 ], [ -74.87578, 10.91809 ], [ -74.87596, 10.91819 ], [ -74.87607, 10.91825 ], [ -74.87734, 10.91875 ], [ -74.87853, 10.91917 ], [ -74.87886, 10.91931 ], [ -74.87918, 10.91947 ], [ -74.87942, 10.91962 ], [ -74.87965, 10.91977 ], [ -74.87996, 10.92001 ], [ -74.88023, 10.92029 ], [ -74.88052, 10.92061 ], [ -74.88083, 10.921 ], [ -74.88099, 10.92126 ], [ -74.88113, 10.9215 ], [ -74.88124, 10.92174 ], [ -74.88136, 10.92196 ], [ -74.88147, 10.92227 ], [ -74.88152, 10.92241 ], [ -74.88162, 10.92264 ], [ -74.88169, 10.92278 ], [ -74.88177, 10.92293 ], [ -74.88211, 10.92342 ], [ -74.88234, 10.92369 ], [ -74.88254, 10.92388 ], [ -74.88287, 10.92414 ], [ -74.88326, 10.92439 ], [ -74.88366, 10.92458 ], [ -74.88407, 10.92472 ], [ -74.88452, 10.92485 ], [ -74.88534, 10.92506 ], [ -74.88638, 10.92533 ], [ -74.88719, 10.9255 ], [ -74.88729, 10.92552 ], [ -74.88799, 10.92566 ], [ -74.88836, 10.92574 ], [ -74.88891, 10.92588 ], [ -74.88982, 10.92609 ], [ -74.89026, 10.9262 ], [ -74.89063, 10.92635 ], [ -74.89099, 10.92653 ], [ -74.8914, 10.92679 ], [ -74.89164, 10.92698 ], [ -74.89369, 10.92868 ], [ -74.89437, 10.9293 ], [ -74.89444, 10.92935 ], [ -74.8945, 10.92941 ], [ -74.89469, 10.92954 ], [ -74.89517, 10.92989 ], [ -74.8961, 10.93064 ], [ -74.89699, 10.93141 ], [ -74.89747, 10.9319 ], [ -74.89773, 10.93225 ], [ -74.89801, 10.93283 ], [ -74.89815, 10.93329 ], [ -74.89828, 10.93411 ], [ -74.89826, 10.93473 ], [ -74.89818, 10.93516 ], [ -74.89797, 10.93572 ], [ -74.89769, 10.93635 ], [ -74.89593, 10.94052 ], [ -74.89577, 10.94098 ], [ -74.89566, 10.94128 ], [ -74.89563, 10.94141 ], [ -74.89559, 10.94177 ], [ -74.89557, 10.94213 ], [ -74.89558, 10.94248 ], [ -74.89559, 10.94283 ], [ -74.89561, 10.94353 ], [ -74.89575, 10.94683 ], [ -74.89584, 10.94764 ], [ -74.8959, 10.94868 ], [ -74.89609, 10.95069 ], [ -74.89619, 10.95187 ], [ -74.89624, 10.95241 ], [ -74.89631, 10.95278 ], [ -74.89635, 10.95296 ], [ -74.89639, 10.95311 ], [ -74.89652, 10.95348 ], [ -74.89665, 10.95383 ], [ -74.89695, 10.95463 ], [ -74.89772, 10.95652 ], [ -74.89854, 10.95871 ], [ -74.899, 10.96033 ], [ -74.89911, 10.96065 ], [ -74.89924, 10.96092 ], [ -74.89961, 10.96165 ], [ -74.90006, 10.96252 ], [ -74.90019, 10.96279 ], [ -74.90042, 10.96332 ], [ -74.90084, 10.96437 ], [ -74.90093, 10.96462 ], [ -74.90101, 10.96491 ], [ -74.90106, 10.96516 ], [ -74.9011, 10.96544 ], [ -74.90112, 10.96584 ], [ -74.90109, 10.96628 ], [ -74.901, 10.96676 ], [ -74.90086, 10.9672 ], [ -74.90064, 10.96761 ], [ -74.90028, 10.96811 ], [ -74.90002, 10.96839 ], [ -74.8997, 10.96867 ], [ -74.89729, 10.97041 ], [ -74.89395, 10.97288 ], [ -74.89323, 10.97344 ], [ -74.89288, 10.97378 ], [ -74.89213, 10.97469 ], [ -74.89193, 10.97499 ], [ -74.8918, 10.97523 ], [ -74.89147, 10.976 ], [ -74.89138, 10.97626 ], [ -74.8913, 10.97653 ], [ -74.8908, 10.98031 ], [ -74.89075, 10.98072 ], [ -74.89061, 10.98177 ], [ -74.89048, 10.98278 ], [ -74.89035, 10.98373 ], [ -74.89014, 10.98534 ], [ -74.88997, 10.98659 ], [ -74.8898, 10.98795 ], [ -74.88964, 10.98901 ], [ -74.8895, 10.98944 ], [ -74.88937, 10.98975 ], [ -74.88912, 10.99021 ], [ -74.88882, 10.99065 ], [ -74.88834, 10.99142 ], [ -74.88539, 10.99599 ], [ -74.88473, 10.9969 ], [ -74.88411, 10.99777 ], [ -74.88383, 10.99816 ], [ -74.88361, 10.99856 ], [ -74.88353, 10.9987 ], [ -74.88314, 10.99943 ], [ -74.88236, 11.00071 ], [ -74.87929, 11.00546 ], [ -74.87905, 11.00586 ], [ -74.87723, 11.00869 ], [ -74.87704, 11.00898 ], [ -74.87644, 11.00993 ], [ -74.87625, 11.01031 ], [ -74.87613, 11.01063 ], [ -74.87604, 11.01095 ], [ -74.87598, 11.01126 ], [ -74.87595, 11.01156 ], [ -74.87594, 11.01202 ], [ -74.87598, 11.01236 ], [ -74.87608, 11.01283 ], [ -74.87633, 11.0139 ], [ -74.87638, 11.01411 ], [ -74.87652, 11.01471 ], [ -74.87654, 11.01481 ], [ -74.87665, 11.01527 ], [ -74.87679, 11.01589 ], [ -74.87714, 11.01737 ], [ -74.87717, 11.01772 ], [ -74.87717, 11.0179 ], [ -74.87714, 11.01813 ], [ -74.87708, 11.01836 ], [ -74.87703, 11.01852 ], [ -74.87692, 11.01875 ], [ -74.87682, 11.01891 ], [ -74.87667, 11.0191 ], [ -74.87657, 11.01921 ], [ -74.87642, 11.01935 ], [ -74.87624, 11.01948 ], [ -74.87444, 11.02047 ], [ -74.87407, 11.02067 ], [ -74.87367, 11.0209 ], [ -74.87329, 11.02116 ], [ -74.87294, 11.02149 ], [ -74.87117, 11.0237 ], [ -74.87035, 11.02473 ], [ -74.87019, 11.02491 ], [ -74.87001, 11.02506 ], [ -74.86981, 11.02518 ], [ -74.8696, 11.02528 ], [ -74.86937, 11.02535 ], [ -74.86914, 11.02539 ], [ -74.8689, 11.0254 ], [ -74.86867, 11.02537 ], [ -74.86847, 11.02535 ], [ -74.86829, 11.02533 ], [ -74.8681, 11.02533 ], [ -74.86787, 11.02536 ], [ -74.86766, 11.02542 ], [ -74.86741, 11.02553 ], [ -74.86718, 11.02569 ], [ -74.86593, 11.02672 ] ], [ [ -74.7692, 10.82822 ], [ -74.76957, 10.82835 ], [ -74.76995, 10.82844 ], [ -74.77033, 10.8285 ], [ -74.77071, 10.82853 ], [ -74.77104, 10.82851 ], [ -74.77354, 10.82815 ], [ -74.77546, 10.82787 ], [ -74.77657, 10.82772 ], [ -74.77835, 10.82754 ], [ -74.77862, 10.8275 ], [ -74.77884, 10.82746 ], [ -74.78047, 10.82713 ], [ -74.78359, 10.82662 ], [ -74.78625, 10.82622 ], [ -74.78733, 10.82607 ], [ -74.78754, 10.82604 ], [ -74.78811, 10.82599 ], [ -74.78821, 10.82598 ], [ -74.78868, 10.82599 ], [ -74.7892, 10.82605 ], [ -74.78945, 10.82609 ], [ -74.78974, 10.82615 ], [ -74.79002, 10.82623 ], [ -74.79035, 10.82632 ], [ -74.79065, 10.82645 ], [ -74.79123, 10.82675 ], [ -74.79224, 10.82725 ], [ -74.79587, 10.82904 ], [ -74.79807, 10.83012 ], [ -74.79823, 10.8302 ], [ -74.79923, 10.83072 ], [ -74.80054, 10.83137 ], [ -74.80102, 10.8316 ], [ -74.80208, 10.83213 ], [ -74.8026, 10.83239 ], [ -74.80282, 10.83249 ], [ -74.8047, 10.83344 ], [ -74.80525, 10.83376 ], [ -74.80633, 10.83438 ], [ -74.80786, 10.83528 ], [ -74.80896, 10.83591 ], [ -74.80997, 10.83653 ], [ -74.81085, 10.83714 ], [ -74.81172, 10.83772 ], [ -74.81182, 10.83778 ], [ -74.81219, 10.83798 ], [ -74.81249, 10.83813 ], [ -74.81384, 10.83879 ], [ -74.81435, 10.83909 ], [ -74.81494, 10.83943 ], [ -74.81574, 10.83986 ], [ -74.81701, 10.84061 ], [ -74.81812, 10.84132 ], [ -74.81894, 10.84195 ], [ -74.81959, 10.84252 ], [ -74.82015, 10.84307 ], [ -74.82058, 10.84356 ], [ -74.82088, 10.84394 ], [ -74.82121, 10.84434 ], [ -74.8217, 10.84506 ], [ -74.82206, 10.84565 ], [ -74.82248, 10.84643 ], [ -74.8229, 10.84738 ], [ -74.82299, 10.84767 ], [ -74.82328, 10.84851 ], [ -74.82375, 10.85055 ], [ -74.82379, 10.85073 ], [ -74.82406, 10.85196 ], [ -74.82435, 10.8533 ], [ -74.82459, 10.85485 ], [ -74.82463, 10.8552 ], [ -74.82473, 10.85559 ], [ -74.82482, 10.85599 ], [ -74.82527, 10.85743 ], [ -74.82549, 10.85825 ], [ -74.82625, 10.8619 ] ], [ [ -74.76908, 10.82812 ], [ -74.76839, 10.8279 ], [ -74.7678, 10.82765 ], [ -74.76738, 10.82736 ], [ -74.76597, 10.82656 ], [ -74.76484, 10.82674 ], [ -74.76124, 10.8267 ], [ -74.75805, 10.82734 ], [ -74.75679, 10.82826 ], [ -74.75653, 10.8297 ], [ -74.75696, 10.83167 ], [ -74.75677, 10.83306 ], [ -74.7562, 10.83431 ], [ -74.75601, 10.83564 ], [ -74.75672, 10.83911 ], [ -74.75679, 10.84171 ], [ -74.75729, 10.84368 ], [ -74.7584, 10.84491 ], [ -74.76024, 10.84557 ], [ -74.76178, 10.84547 ] ] ] } },
{ "type": "Feature", "properties": { "TIPO": "Corredor logístico estructurante de mercancías" }, "geometry": { "type": "LineString", "coordinates": [ [ -74.77181, 11.01706 ], [ -74.79906, 10.98073 ], [ -74.8216, 10.92633 ], [ -74.80298, 10.87218 ], [ -74.77064, 10.81811 ] ] } },
{ "type": "Feature", "properties": { "TIPO": "Corredores logísticos y conexiones secundarias" }, "geometry": { "type": "LineString", "coordinates": [ [ -74.83131, 11.01671 ], [ -74.8955, 11.0344 ], [ -74.96867, 11.02489 ] ] } },
{ "type": "Feature", "properties": { "TIPO": "Corredores logísticos y conexiones secundarias" }, "geometry": { "type": "LineString", "coordinates": [ [ -74.76541, 11.0171 ], [ -74.75319, 10.96291 ], [ -74.74092, 10.89967 ], [ -74.75885, 10.83626 ] ] } },
{ "type": "Feature", "properties": { "TIPO": "Circunvalar de la Prosperidad 4G" }, "geometry": { "type": "MultiLineString", "coordinates": [ [ [ -74.85972, 11.03098 ], [ -74.85978, 11.0308 ], [ -74.85983, 11.03067 ], [ -74.86017, 11.02983 ], [ -74.8603, 11.02944 ], [ -74.86051, 11.02889 ], [ -74.86069, 11.02853 ], [ -74.86072, 11.02848 ], [ -74.86077, 11.02841 ], [ -74.86087, 11.0283 ], [ -74.86104, 11.02816 ], [ -74.86118, 11.02807 ], [ -74.86132, 11.028 ], [ -74.86151, 11.02794 ], [ -74.86177, 11.0279 ], [ -74.86187, 11.0279 ], [ -74.86203, 11.02791 ], [ -74.86226, 11.02794 ], [ -74.86263, 11.02799 ], [ -74.86288, 11.02802 ], [ -74.86351, 11.02812 ], [ -74.8637, 11.02814 ], [ -74.86394, 11.02813 ], [ -74.86421, 11.02808 ], [ -74.86446, 11.028 ], [ -74.86468, 11.0279 ], [ -74.86487, 11.02778 ], [ -74.86504, 11.02765 ], [ -74.8652, 11.02752 ], [ -74.86738, 11.02574 ], [ -74.86755, 11.02563 ], [ -74.86772, 11.02556 ], [ -74.8679, 11.0255 ], [ -74.8681, 11.02547 ], [ -74.86825, 11.02547 ], [ -74.86842, 11.02548 ], [ -74.86857, 11.02551 ], [ -74.86879, 11.02554 ], [ -74.86902, 11.02554 ], [ -74.86924, 11.02552 ], [ -74.86946, 11.02548 ], [ -74.86968, 11.02541 ], [ -74.86988, 11.02532 ], [ -74.87008, 11.02521 ], [ -74.87025, 11.02508 ], [ -74.87042, 11.02492 ], [ -74.87056, 11.02476 ], [ -74.87118, 11.02397 ], [ -74.87279, 11.02189 ], [ -74.8729, 11.02174 ], [ -74.87302, 11.02161 ], [ -74.87315, 11.02148 ], [ -74.87329, 11.02137 ], [ -74.87345, 11.02126 ], [ -74.87355, 11.0212 ], [ -74.8738, 11.02105 ], [ -74.87606, 11.01975 ], [ -74.87638, 11.01954 ], [ -74.87655, 11.01942 ], [ -74.87668, 11.0193 ], [ -74.87682, 11.01914 ], [ -74.87699, 11.01891 ], [ -74.87711, 11.01871 ], [ -74.87719, 11.0185 ], [ -74.87727, 11.01826 ], [ -74.87731, 11.01811 ], [ -74.87734, 11.01786 ], [ -74.87731, 11.01758 ], [ -74.87729, 11.01739 ], [ -74.87726, 11.0172 ], [ -74.87714, 11.0167 ], [ -74.87694, 11.01588 ], [ -74.87669, 11.01486 ], [ -74.87664, 11.01469 ], [ -74.87649, 11.0141 ], [ -74.87644, 11.01389 ], [ -74.87618, 11.01288 ], [ -74.87612, 11.01263 ], [ -74.87608, 11.01236 ], [ -74.87604, 11.01197 ], [ -74.87605, 11.01156 ], [ -74.87608, 11.01129 ], [ -74.87614, 11.01099 ], [ -74.87623, 11.01068 ], [ -74.87634, 11.01038 ], [ -74.87656, 11.00994 ], [ -74.87713, 11.00904 ], [ -74.87732, 11.00874 ], [ -74.87776, 11.00806 ], [ -74.87916, 11.00592 ], [ -74.87941, 11.00554 ], [ -74.88111, 11.00283 ], [ -74.8815, 11.00226 ], [ -74.88252, 11.00069 ], [ -74.88337, 10.99949 ], [ -74.88372, 10.999 ], [ -74.88381, 10.99889 ], [ -74.88415, 10.99841 ], [ -74.88444, 10.99792 ], [ -74.88451, 10.99779 ], [ -74.88483, 10.99721 ], [ -74.8855, 10.99606 ], [ -74.88844, 10.99145 ], [ -74.88891, 10.99069 ], [ -74.88919, 10.99026 ], [ -74.88946, 10.9898 ], [ -74.88961, 10.98947 ], [ -74.88971, 10.98922 ], [ -74.88978, 10.98894 ], [ -74.8898, 10.98876 ], [ -74.88987, 10.98818 ], [ -74.88998, 10.98735 ], [ -74.89001, 10.98706 ], [ -74.89008, 10.98644 ], [ -74.89014, 10.98599 ], [ -74.8905, 10.98363 ], [ -74.89055, 10.98327 ], [ -74.89084, 10.98077 ], [ -74.89096, 10.97983 ], [ -74.89098, 10.97972 ], [ -74.89117, 10.97848 ], [ -74.89143, 10.97656 ], [ -74.8915, 10.97629 ], [ -74.89159, 10.97603 ], [ -74.89193, 10.97525 ], [ -74.89224, 10.97474 ], [ -74.89298, 10.97384 ], [ -74.89334, 10.9735 ], [ -74.89402, 10.97298 ], [ -74.89844, 10.96974 ], [ -74.89979, 10.96874 ], [ -74.90018, 10.96839 ], [ -74.90041, 10.96814 ], [ -74.90071, 10.96771 ], [ -74.90096, 10.96725 ], [ -74.9011, 10.96682 ], [ -74.90119, 10.96633 ], [ -74.90124, 10.96589 ], [ -74.90124, 10.96542 ], [ -74.90112, 10.96487 ], [ -74.90097, 10.96434 ], [ -74.90058, 10.96335 ], [ -74.90038, 10.96282 ], [ -74.90031, 10.96262 ], [ -74.89979, 10.96106 ], [ -74.89971, 10.96079 ], [ -74.89967, 10.96063 ], [ -74.89961, 10.96047 ], [ -74.89948, 10.96019 ], [ -74.8989, 10.95899 ], [ -74.89873, 10.95864 ], [ -74.89831, 10.95767 ], [ -74.89783, 10.95648 ], [ -74.89706, 10.95459 ], [ -74.89675, 10.95376 ], [ -74.89666, 10.95352 ], [ -74.89652, 10.95308 ], [ -74.89645, 10.95278 ], [ -74.8964, 10.95239 ], [ -74.89635, 10.95185 ], [ -74.89632, 10.95068 ], [ -74.89625, 10.9486 ], [ -74.89621, 10.94761 ], [ -74.89615, 10.9468 ], [ -74.89611, 10.94633 ], [ -74.89601, 10.94521 ], [ -74.89587, 10.94373 ], [ -74.89576, 10.94283 ], [ -74.89574, 10.94249 ], [ -74.89573, 10.94213 ], [ -74.89575, 10.94177 ], [ -74.89579, 10.9414 ], [ -74.89587, 10.941 ], [ -74.89603, 10.94052 ], [ -74.8961, 10.94036 ], [ -74.89756, 10.93689 ], [ -74.89772, 10.93646 ], [ -74.89804, 10.93575 ], [ -74.89815, 10.93546 ], [ -74.8982, 10.93532 ], [ -74.89825, 10.93517 ], [ -74.89833, 10.93474 ], [ -74.89835, 10.93458 ], [ -74.89835, 10.93442 ], [ -74.89836, 10.93426 ], [ -74.89836, 10.93411 ], [ -74.89834, 10.93389 ], [ -74.89831, 10.93368 ], [ -74.89827, 10.93348 ], [ -74.89822, 10.93327 ], [ -74.89807, 10.9328 ], [ -74.89801, 10.93265 ], [ -74.89795, 10.9325 ], [ -74.89787, 10.93235 ], [ -74.89779, 10.93221 ], [ -74.89766, 10.93203 ], [ -74.89753, 10.93185 ], [ -74.89729, 10.9316 ], [ -74.89717, 10.93147 ], [ -74.89704, 10.93135 ], [ -74.89615, 10.93059 ], [ -74.89525, 10.9298 ], [ -74.89463, 10.92926 ], [ -74.89456, 10.92921 ], [ -74.8945, 10.92915 ], [ -74.89431, 10.92901 ], [ -74.89376, 10.92859 ], [ -74.89173, 10.92689 ], [ -74.89156, 10.92674 ], [ -74.89138, 10.9266 ], [ -74.89099, 10.92634 ], [ -74.89047, 10.92605 ], [ -74.89014, 10.9259 ], [ -74.8898, 10.92578 ], [ -74.88944, 10.92569 ], [ -74.88903, 10.92557 ], [ -74.88848, 10.92542 ] ], [ [ -74.88472, 10.92462 ], [ -74.88409, 10.92445 ], [ -74.88388, 10.92439 ], [ -74.88367, 10.92432 ], [ -74.8835, 10.92425 ], [ -74.88334, 10.92418 ], [ -74.88298, 10.92398 ], [ -74.88279, 10.92384 ], [ -74.8827, 10.92377 ], [ -74.88261, 10.9237 ], [ -74.88239, 10.9235 ], [ -74.88223, 10.92333 ], [ -74.88205, 10.92309 ], [ -74.88196, 10.92296 ], [ -74.88187, 10.92282 ], [ -74.88173, 10.92255 ], [ -74.88164, 10.92235 ], [ -74.88152, 10.9221 ], [ -74.8814, 10.92184 ], [ -74.88122, 10.92148 ], [ -74.8811, 10.92123 ], [ -74.88101, 10.92109 ], [ -74.88092, 10.92096 ], [ -74.88076, 10.92074 ], [ -74.88059, 10.92053 ], [ -74.8803, 10.92022 ], [ -74.88002, 10.91993 ], [ -74.87986, 10.9198 ], [ -74.8797, 10.91968 ], [ -74.87944, 10.91951 ], [ -74.87922, 10.91938 ], [ -74.87907, 10.9193 ], [ -74.87891, 10.91923 ], [ -74.87857, 10.91909 ], [ -74.87737, 10.91863 ], [ -74.8761, 10.91815 ], [ -74.87582, 10.91797 ], [ -74.87546, 10.91772 ], [ -74.87514, 10.91744 ], [ -74.87484, 10.91712 ], [ -74.87463, 10.91683 ], [ -74.87443, 10.91653 ], [ -74.87425, 10.91622 ], [ -74.87408, 10.9159 ], [ -74.8739, 10.91552 ], [ -74.87349, 10.91466 ], [ -74.87328, 10.9142 ], [ -74.87313, 10.91391 ], [ -74.87295, 10.91361 ], [ -74.8724, 10.9128 ], [ -74.87222, 10.91253 ], [ -74.87117, 10.91097 ], [ -74.871, 10.91067 ], [ -74.87067, 10.91001 ], [ -74.86914, 10.90631 ], [ -74.86838, 10.90433 ], [ -74.86771, 10.90267 ], [ -74.86698, 10.90086 ], [ -74.86683, 10.90055 ], [ -74.8667, 10.90025 ], [ -74.86654, 10.89996 ], [ -74.86635, 10.89969 ], [ -74.86599, 10.89922 ], [ -74.86562, 10.89883 ], [ -74.86525, 10.8985 ], [ -74.86467, 10.89809 ], [ -74.86246, 10.89682 ], [ -74.86155, 10.89626 ], [ -74.86003, 10.89532 ], [ -74.85945, 10.89494 ], [ -74.85902, 10.89469 ], [ -74.85789, 10.89412 ], [ -74.85706, 10.89365 ], [ -74.85358, 10.89165 ], [ -74.85249, 10.89098 ], [ -74.85152, 10.89041 ], [ -74.85053, 10.88983 ], [ -74.84947, 10.88925 ], [ -74.84847, 10.8887 ], [ -74.84799, 10.8884 ], [ -74.84739, 10.88801 ], [ -74.84703, 10.88778 ], [ -74.84642, 10.88736 ], [ -74.84605, 10.88711 ], [ -74.84575, 10.88691 ], [ -74.84512, 10.88649 ], [ -74.84482, 10.8863 ], [ -74.84467, 10.88622 ], [ -74.84459, 10.88617 ], [ -74.84452, 10.88613 ], [ -74.84431, 10.88602 ], [ -74.84407, 10.88589 ], [ -74.84354, 10.88563 ], [ -74.84314, 10.88544 ], [ -74.84214, 10.88496 ], [ -74.84198, 10.88488 ], [ -74.841, 10.88435 ], [ -74.83998, 10.88376 ], [ -74.83882, 10.88309 ], [ -74.8379, 10.88256 ], [ -74.8369, 10.88199 ], [ -74.83669, 10.88188 ], [ -74.83647, 10.88179 ], [ -74.83627, 10.88171 ], [ -74.83605, 10.88165 ], [ -74.83551, 10.88149 ], [ -74.83286, 10.88072 ], [ -74.83224, 10.88051 ], [ -74.83179, 10.88032 ], [ -74.83143, 10.88009 ], [ -74.831, 10.8798 ], [ -74.83071, 10.87944 ], [ -74.83044, 10.87902 ], [ -74.83027, 10.87873 ], [ -74.83006, 10.87831 ], [ -74.82991, 10.87783 ], [ -74.82986, 10.87762 ], [ -74.82983, 10.8775 ], [ -74.82902, 10.87372 ], [ -74.82899, 10.87358 ], [ -74.82883, 10.87235 ], [ -74.82879, 10.87203 ], [ -74.82876, 10.8718 ], [ -74.82869, 10.87146 ], [ -74.8286, 10.8711 ], [ -74.82816, 10.86991 ], [ -74.82794, 10.86897 ], [ -74.82752, 10.86721 ], [ -74.82699, 10.86468 ], [ -74.82685, 10.864 ], [ -74.8266, 10.8629 ], [ -74.82634, 10.86173 ], [ -74.82619, 10.86115 ], [ -74.82559, 10.85824 ], [ -74.82543, 10.85745 ], [ -74.82523, 10.85591 ], [ -74.82515, 10.85543 ], [ -74.82508, 10.85511 ], [ -74.82495, 10.85477 ], [ -74.82461, 10.85367 ], [ -74.82449, 10.85329 ], [ -74.82415, 10.85194 ], [ -74.82384, 10.85053 ], [ -74.82337, 10.84849 ], [ -74.82298, 10.84735 ], [ -74.82256, 10.8464 ], [ -74.82214, 10.84561 ], [ -74.82178, 10.84501 ], [ -74.82128, 10.84429 ], [ -74.82093, 10.84385 ], [ -74.82065, 10.8435 ], [ -74.82021, 10.84301 ], [ -74.81965, 10.84246 ], [ -74.81899, 10.84188 ], [ -74.81875, 10.84169 ], [ -74.81818, 10.84125 ], [ -74.81706, 10.84053 ], [ -74.81578, 10.83978 ], [ -74.81447, 10.83902 ], [ -74.81395, 10.8387 ], [ -74.8127, 10.83783 ], [ -74.81241, 10.83764 ], [ -74.81216, 10.83749 ], [ -74.81193, 10.83735 ], [ -74.81102, 10.83695 ], [ -74.81043, 10.83663 ], [ -74.81004, 10.83643 ], [ -74.809, 10.83584 ], [ -74.80885, 10.83575 ], [ -74.80791, 10.83521 ], [ -74.80638, 10.8343 ], [ -74.80521, 10.83362 ], [ -74.80476, 10.83335 ], [ -74.80289, 10.83239 ], [ -74.80059, 10.83128 ], [ -74.79828, 10.83012 ], [ -74.79814, 10.83005 ], [ -74.79591, 10.82896 ], [ -74.79229, 10.82717 ], [ -74.79127, 10.82667 ], [ -74.79068, 10.82638 ], [ -74.79046, 10.82628 ], [ -74.79039, 10.82625 ], [ -74.79005, 10.82614 ], [ -74.78977, 10.82606 ], [ -74.78948, 10.826 ], [ -74.78907, 10.82594 ], [ -74.78882, 10.82591 ], [ -74.7887, 10.8259 ], [ -74.78821, 10.82589 ], [ -74.78749, 10.82595 ], [ -74.78623, 10.82613 ], [ -74.78358, 10.82653 ], [ -74.78045, 10.82698 ], [ -74.78009, 10.82702 ], [ -74.77924, 10.82706 ], [ -74.77878, 10.82708 ], [ -74.77856, 10.82708 ], [ -74.77828, 10.82714 ], [ -74.77719, 10.82742 ], [ -74.77653, 10.82758 ], [ -74.77545, 10.82778 ], [ -74.77353, 10.82806 ], [ -74.77121, 10.82838 ], [ -74.77102, 10.82841 ], [ -74.77078, 10.82842 ], [ -74.77054, 10.8284 ], [ -74.77015, 10.82836 ], [ -74.76917, 10.82807 ] ], [ [ -74.82647, 10.86292 ], [ -74.82683, 10.86446 ], [ -74.82691, 10.86482 ], [ -74.82744, 10.86722 ], [ -74.82776, 10.86867 ], [ -74.82802, 10.86994 ], [ -74.82818, 10.871 ], [ -74.8283, 10.87165 ], [ -74.82845, 10.87226 ], [ -74.82846, 10.87233 ], [ -74.82877, 10.87345 ], [ -74.82885, 10.87376 ], [ -74.82908, 10.87474 ], [ -74.82919, 10.87523 ], [ -74.82947, 10.8764 ], [ -74.82979, 10.87789 ], [ -74.82986, 10.87817 ], [ -74.82994, 10.87839 ], [ -74.83014, 10.87885 ], [ -74.8303, 10.87912 ], [ -74.8306, 10.87953 ], [ -74.83094, 10.87989 ], [ -74.8313, 10.88015 ], [ -74.83171, 10.88039 ], [ -74.83219, 10.88061 ], [ -74.83284, 10.8808 ], [ -74.83548, 10.88157 ], [ -74.83596, 10.88171 ], [ -74.8362, 10.88179 ], [ -74.83644, 10.88187 ], [ -74.83666, 10.88196 ], [ -74.83686, 10.88206 ], [ -74.83785, 10.88263 ], [ -74.83877, 10.88317 ], [ -74.83987, 10.88381 ], [ -74.84095, 10.88444 ], [ -74.84188, 10.88497 ], [ -74.84283, 10.88561 ], [ -74.84295, 10.88569 ], [ -74.84331, 10.88594 ], [ -74.84337, 10.88598 ], [ -74.84386, 10.88631 ], [ -74.84424, 10.88656 ], [ -74.84435, 10.88663 ], [ -74.84441, 10.88667 ], [ -74.84483, 10.8869 ], [ -74.84551, 10.88725 ], [ -74.8457, 10.88735 ], [ -74.84658, 10.88777 ], [ -74.84698, 10.88798 ], [ -74.8473, 10.88816 ], [ -74.84829, 10.88873 ], [ -74.84922, 10.88925 ], [ -74.85051, 10.89 ], [ -74.85148, 10.89053 ], [ -74.85243, 10.89111 ], [ -74.85354, 10.89176 ], [ -74.85692, 10.89375 ], [ -74.85749, 10.89411 ], [ -74.85778, 10.8943 ], [ -74.85872, 10.89498 ], [ -74.859, 10.89517 ], [ -74.85915, 10.89526 ], [ -74.85931, 10.89535 ], [ -74.85964, 10.8955 ], [ -74.8609, 10.89611 ], [ -74.86125, 10.8963 ], [ -74.86238, 10.89694 ], [ -74.86452, 10.89818 ], [ -74.86515, 10.89863 ], [ -74.86551, 10.89893 ], [ -74.86565, 10.89906 ], [ -74.86585, 10.89927 ], [ -74.86623, 10.89976 ], [ -74.86642, 10.90005 ], [ -74.86658, 10.90034 ], [ -74.86671, 10.90059 ], [ -74.86686, 10.90091 ], [ -74.86757, 10.9027 ], [ -74.87036, 10.90962 ], [ -74.87052, 10.90999 ], [ -74.87065, 10.91032 ], [ -74.87084, 10.91073 ], [ -74.87099, 10.91099 ], [ -74.87195, 10.91266 ], [ -74.87207, 10.91288 ], [ -74.87237, 10.9134 ], [ -74.87259, 10.91382 ], [ -74.87273, 10.91408 ], [ -74.8729, 10.91437 ], [ -74.87368, 10.91572 ], [ -74.87385, 10.91601 ], [ -74.87403, 10.91635 ], [ -74.87424, 10.91668 ], [ -74.87447, 10.91699 ], [ -74.87472, 10.91729 ], [ -74.87506, 10.91757 ], [ -74.87541, 10.91784 ], [ -74.87578, 10.91809 ], [ -74.87607, 10.91825 ], [ -74.87734, 10.91875 ], [ -74.87853, 10.91917 ], [ -74.87886, 10.91931 ], [ -74.87918, 10.91947 ], [ -74.87942, 10.91962 ], [ -74.87965, 10.91977 ], [ -74.87996, 10.92001 ], [ -74.88023, 10.92029 ], [ -74.88052, 10.92061 ], [ -74.88083, 10.921 ], [ -74.88099, 10.92126 ], [ -74.88113, 10.9215 ], [ -74.88124, 10.92174 ], [ -74.88136, 10.92196 ], [ -74.88147, 10.92227 ], [ -74.88152, 10.92241 ], [ -74.88162, 10.92264 ], [ -74.88169, 10.92278 ], [ -74.88177, 10.92293 ], [ -74.88211, 10.92342 ], [ -74.88234, 10.92369 ], [ -74.88254, 10.92388 ], [ -74.88287, 10.92414 ], [ -74.88326, 10.92439 ], [ -74.88366, 10.92458 ], [ -74.88407, 10.92472 ], [ -74.88452, 10.92485 ], [ -74.88534, 10.92506 ], [ -74.88638, 10.92533 ], [ -74.88719, 10.9255 ], [ -74.88729, 10.92552 ], [ -74.88799, 10.92566 ], [ -74.88836, 10.92574 ], [ -74.88891, 10.92588 ], [ -74.88982, 10.92609 ], [ -74.89026, 10.9262 ], [ -74.89063, 10.92635 ], [ -74.89099, 10.92653 ], [ -74.8914, 10.92679 ], [ -74.89164, 10.92698 ], [ -74.89369, 10.92868 ], [ -74.89437, 10.9293 ], [ -74.89444, 10.92935 ], [ -74.8945, 10.92941 ], [ -74.89469, 10.92954 ], [ -74.89517, 10.92989 ], [ -74.8961, 10.93064 ], [ -74.89699, 10.93141 ], [ -74.89747, 10.9319 ], [ -74.89773, 10.93225 ], [ -74.89801, 10.93283 ], [ -74.89815, 10.93329 ], [ -74.89828, 10.93411 ], [ -74.89826, 10.93473 ], [ -74.89818, 10.93516 ], [ -74.89797, 10.93572 ], [ -74.89769, 10.93635 ], [ -74.89593, 10.94052 ], [ -74.89577, 10.94098 ], [ -74.89566, 10.94128 ], [ -74.89563, 10.94141 ], [ -74.89559, 10.94177 ], [ -74.89557, 10.94213 ], [ -74.89558, 10.94248 ], [ -74.89559, 10.94283 ], [ -74.89561, 10.94353 ], [ -74.89575, 10.94683 ], [ -74.89584, 10.94764 ], [ -74.8959, 10.94868 ], [ -74.89609, 10.95069 ], [ -74.89619, 10.95187 ], [ -74.89624, 10.95241 ], [ -74.89631, 10.95278 ], [ -74.89635, 10.95296 ], [ -74.89639, 10.95311 ], [ -74.89652, 10.95348 ], [ -74.89665, 10.95383 ], [ -74.89695, 10.95463 ], [ -74.89772, 10.95652 ], [ -74.89854, 10.95871 ], [ -74.899, 10.96033 ], [ -74.89911, 10.96065 ], [ -74.89924, 10.96092 ], [ -74.89961, 10.96165 ], [ -74.90006, 10.96252 ], [ -74.90019, 10.96279 ], [ -74.90042, 10.96332 ], [ -74.90084, 10.96437 ], [ -74.90093, 10.96462 ], [ -74.90101, 10.96491 ], [ -74.90106, 10.96516 ], [ -74.9011, 10.96544 ], [ -74.90112, 10.96584 ], [ -74.90109, 10.96628 ], [ -74.901, 10.96676 ], [ -74.90086, 10.9672 ], [ -74.90064, 10.96761 ], [ -74.90028, 10.96811 ], [ -74.90002, 10.96839 ], [ -74.8997, 10.96867 ], [ -74.89729, 10.97041 ], [ -74.89395, 10.97288 ], [ -74.89323, 10.97344 ], [ -74.89288, 10.97378 ], [ -74.89213, 10.97469 ], [ -74.89193, 10.97499 ], [ -74.8918, 10.97523 ], [ -74.89147, 10.976 ], [ -74.89138, 10.97626 ], [ -74.8913, 10.97653 ], [ -74.8908, 10.98031 ], [ -74.89075, 10.98072 ], [ -74.89061, 10.98177 ], [ -74.89048, 10.98278 ], [ -74.89035, 10.98373 ], [ -74.89014, 10.98534 ], [ -74.88997, 10.98659 ], [ -74.8898, 10.98795 ], [ -74.88964, 10.98901 ], [ -74.8895, 10.98944 ], [ -74.88937, 10.98975 ], [ -74.88912, 10.99021 ], [ -74.88882, 10.99065 ], [ -74.88834, 10.99142 ], [ -74.88539, 10.99599 ], [ -74.88473, 10.9969 ], [ -74.88411, 10.99777 ], [ -74.88383, 10.99816 ], [ -74.88361, 10.99856 ], [ -74.88353, 10.9987 ], [ -74.88314, 10.99943 ], [ -74.88236, 11.00071 ], [ -74.87929, 11.00546 ], [ -74.87905, 11.00586 ], [ -74.87723, 11.00869 ], [ -74.87704, 11.00898 ], [ -74.87644, 11.00993 ], [ -74.87625, 11.01031 ], [ -74.87613, 11.01063 ], [ -74.87604, 11.01095 ], [ -74.87598, 11.01126 ], [ -74.87595, 11.01156 ], [ -74.87594, 11.01202 ], [ -74.87598, 11.01236 ], [ -74.87608, 11.01283 ], [ -74.87633, 11.0139 ], [ -74.87638, 11.01411 ], [ -74.87652, 11.01471 ], [ -74.87654, 11.01481 ], [ -74.87665, 11.01527 ], [ -74.87679, 11.01589 ], [ -74.87714, 11.01737 ], [ -74.87717, 11.01772 ], [ -74.87717, 11.0179 ], [ -74.87714, 11.01813 ], [ -74.87708, 11.01836 ], [ -74.87703, 11.01852 ], [ -74.87692, 11.01875 ], [ -74.87682, 11.01891 ], [ -74.87667, 11.0191 ], [ -74.87657, 11.01921 ], [ -74.87642, 11.01935 ], [ -74.87624, 11.01948 ], [ -74.87444, 11.02047 ], [ -74.87407, 11.02067 ], [ -74.87367, 11.0209 ], [ -74.87329, 11.02116 ], [ -74.87294, 11.02149 ], [ -74.87117, 11.0237 ], [ -74.87035, 11.02473 ], [ -74.87019, 11.02491 ], [ -74.87001, 11.02506 ], [ -74.86981, 11.02518 ], [ -74.8696, 11.02528 ], [ -74.86937, 11.02535 ], [ -74.86914, 11.02539 ], [ -74.8689, 11.0254 ], [ -74.86867, 11.02537 ], [ -74.86847, 11.02535 ], [ -74.86829, 11.02533 ], [ -74.8681, 11.02533 ], [ -74.86787, 11.02536 ], [ -74.86766, 11.02542 ], [ -74.86741, 11.02553 ], [ -74.86718, 11.02569 ], [ -74.8648, 11.02765 ], [ -74.86463, 11.02777 ], [ -74.86446, 11.02786 ], [ -74.8642, 11.02794 ], [ -74.864, 11.02798 ], [ -74.8638, 11.02799 ], [ -74.86353, 11.02798 ], [ -74.86321, 11.02795 ], [ -74.86285, 11.0279 ], [ -74.86275, 11.02789 ], [ -74.86261, 11.02787 ], [ -74.86224, 11.02782 ], [ -74.86206, 11.0278 ], [ -74.86191, 11.02779 ], [ -74.86181, 11.02779 ], [ -74.8617, 11.0278 ], [ -74.86159, 11.02782 ], [ -74.86138, 11.02787 ], [ -74.86123, 11.02793 ], [ -74.86113, 11.02798 ], [ -74.86099, 11.02806 ], [ -74.8609, 11.02812 ], [ -74.86084, 11.02817 ], [ -74.86075, 11.02825 ], [ -74.86066, 11.02835 ], [ -74.86053, 11.02852 ], [ -74.86045, 11.02864 ], [ -74.86034, 11.02892 ], [ -74.85995, 11.02993 ], [ -74.85973, 11.0305 ], [ -74.85966, 11.03063 ], [ -74.85959, 11.03071 ], [ -74.85949, 11.03079 ] ], [ [ -74.82703, 11.03895 ], [ -74.82729, 11.0389 ], [ -74.82733, 11.03889 ], [ -74.8276, 11.03881 ], [ -74.82766, 11.03879 ], [ -74.82777, 11.03873 ], [ -74.82808, 11.03853 ], [ -74.82845, 11.03833 ], [ -74.82949, 11.0378 ], [ -74.83024, 11.03739 ], [ -74.8305, 11.03725 ], [ -74.83083, 11.03707 ], [ -74.83118, 11.03687 ], [ -74.83171, 11.03656 ], [ -74.83232, 11.03622 ], [ -74.83346, 11.03553 ], [ -74.83379, 11.03533 ], [ -74.83408, 11.03516 ], [ -74.83431, 11.03502 ], [ -74.83464, 11.03482 ], [ -74.83483, 11.03474 ], [ -74.83503, 11.03467 ], [ -74.83548, 11.03458 ], [ -74.83595, 11.03457 ], [ -74.83651, 11.03458 ], [ -74.83683, 11.03457 ], [ -74.83702, 11.03455 ], [ -74.83722, 11.03452 ], [ -74.83741, 11.03448 ], [ -74.83767, 11.03438 ], [ -74.83772, 11.03436 ], [ -74.83789, 11.03427 ], [ -74.83807, 11.03416 ], [ -74.83823, 11.03404 ], [ -74.83841, 11.03388 ], [ -74.83859, 11.0337 ], [ -74.83891, 11.03339 ], [ -74.83921, 11.03308 ], [ -74.83947, 11.03284 ], [ -74.83964, 11.03273 ], [ -74.83999, 11.03255 ], [ -74.84024, 11.03246 ], [ -74.84062, 11.03236 ], [ -74.84236, 11.03188 ], [ -74.84304, 11.0317 ], [ -74.84335, 11.03162 ], [ -74.84404, 11.03145 ], [ -74.84463, 11.03127 ], [ -74.84617, 11.03086 ], [ -74.84664, 11.03073 ], [ -74.84776, 11.03043 ], [ -74.84879, 11.03019 ], [ -74.84915, 11.03007 ], [ -74.84959, 11.02998 ], [ -74.85012, 11.02988 ], [ -74.85058, 11.02985 ], [ -74.85079, 11.02985 ], [ -74.85099, 11.02986 ], [ -74.85156, 11.02988 ], [ -74.85185, 11.0299 ], [ -74.85246, 11.02995 ], [ -74.85326, 11.03 ], [ -74.85368, 11.03004 ], [ -74.85413, 11.03014 ], [ -74.85517, 11.03042 ], [ -74.8557, 11.03054 ], [ -74.85579, 11.03056 ], [ -74.85602, 11.03061 ], [ -74.85643, 11.03071 ], [ -74.85694, 11.03082 ], [ -74.85714, 11.03086 ], [ -74.85769, 11.031 ], [ -74.85795, 11.03106 ], [ -74.85812, 11.0311 ], [ -74.85826, 11.03113 ], [ -74.85844, 11.03114 ], [ -74.85857, 11.03113 ], [ -74.85883, 11.0311 ], [ -74.85896, 11.03109 ], [ -74.85903, 11.03111 ], [ -74.8591, 11.03114 ], [ -74.85916, 11.03118 ], [ -74.85926, 11.03125 ] ], [ [ -74.85925, 11.03088 ], [ -74.8591, 11.03092 ], [ -74.85894, 11.03096 ], [ -74.85879, 11.03099 ], [ -74.85863, 11.031 ], [ -74.85847, 11.031 ], [ -74.85831, 11.03099 ], [ -74.85816, 11.03097 ], [ -74.85649, 11.03058 ], [ -74.85578, 11.03041 ], [ -74.85551, 11.03035 ], [ -74.85544, 11.03033 ], [ -74.85535, 11.03031 ], [ -74.85384, 11.02998 ], [ -74.8536, 11.02993 ], [ -74.85323, 11.0299 ], [ -74.85157, 11.02979 ], [ -74.85077, 11.02975 ], [ -74.85039, 11.02976 ], [ -74.8501, 11.02979 ], [ -74.84982, 11.02983 ], [ -74.84936, 11.02993 ], [ -74.84777, 11.03034 ], [ -74.84475, 11.03115 ], [ -74.84389, 11.03139 ], [ -74.84236, 11.03179 ], [ -74.84019, 11.03238 ], [ -74.83996, 11.03247 ], [ -74.8397, 11.03259 ], [ -74.83938, 11.03281 ], [ -74.83903, 11.03312 ], [ -74.83861, 11.03355 ], [ -74.83826, 11.03389 ], [ -74.83811, 11.03402 ], [ -74.83801, 11.03409 ], [ -74.83791, 11.03416 ], [ -74.83776, 11.03423 ], [ -74.83757, 11.03432 ], [ -74.83739, 11.03438 ], [ -74.83723, 11.03442 ], [ -74.8369, 11.03447 ], [ -74.83654, 11.03448 ], [ -74.83542, 11.03449 ], [ -74.83504, 11.03457 ], [ -74.83484, 11.03463 ], [ -74.8346, 11.03473 ], [ -74.83425, 11.03495 ], [ -74.83339, 11.03546 ], [ -74.83194, 11.03633 ], [ -74.83116, 11.03677 ], [ -74.83038, 11.03719 ], [ -74.83018, 11.03731 ], [ -74.82931, 11.03778 ], [ -74.82841, 11.03824 ], [ -74.82809, 11.03841 ], [ -74.82776, 11.0386 ], [ -74.82764, 11.03867 ], [ -74.82756, 11.03871 ], [ -74.82749, 11.03873 ], [ -74.82744, 11.03874 ], [ -74.8274, 11.03874 ], [ -74.82735, 11.03872 ], [ -74.8273, 11.0387 ], [ -74.82723, 11.03864 ] ], [ [ -74.7692, 10.82822 ], [ -74.76957, 10.82835 ], [ -74.76995, 10.82844 ], [ -74.77033, 10.8285 ], [ -74.77071, 10.82853 ], [ -74.77104, 10.82851 ], [ -74.77354, 10.82815 ], [ -74.77546, 10.82787 ], [ -74.77657, 10.82772 ], [ -74.77835, 10.82754 ], [ -74.77862, 10.8275 ], [ -74.77884, 10.82746 ], [ -74.78047, 10.82713 ], [ -74.78359, 10.82662 ], [ -74.78625, 10.82622 ], [ -74.78733, 10.82607 ], [ -74.78754, 10.82604 ], [ -74.78811, 10.82599 ], [ -74.78821, 10.82598 ], [ -74.78868, 10.82599 ], [ -74.7892, 10.82605 ], [ -74.78945, 10.82609 ], [ -74.78974, 10.82615 ], [ -74.79002, 10.82623 ], [ -74.79035, 10.82632 ], [ -74.79065, 10.82645 ], [ -74.79123, 10.82675 ], [ -74.79224, 10.82725 ], [ -74.79587, 10.82904 ], [ -74.79807, 10.83012 ], [ -74.79823, 10.8302 ], [ -74.79923, 10.83072 ], [ -74.80054, 10.83137 ], [ -74.80102, 10.8316 ], [ -74.80208, 10.83213 ], [ -74.8026, 10.83239 ], [ -74.80282, 10.83249 ], [ -74.8047, 10.83344 ], [ -74.80525, 10.83376 ], [ -74.80633, 10.83438 ], [ -74.80786, 10.83528 ], [ -74.80896, 10.83591 ], [ -74.80997, 10.83653 ], [ -74.81085, 10.83714 ], [ -74.81172, 10.83772 ], [ -74.81182, 10.83778 ], [ -74.81219, 10.83798 ], [ -74.81249, 10.83813 ], [ -74.81384, 10.83879 ], [ -74.81435, 10.83909 ], [ -74.81494, 10.83943 ], [ -74.81574, 10.83986 ], [ -74.81701, 10.84061 ], [ -74.81812, 10.84132 ], [ -74.81894, 10.84195 ], [ -74.81959, 10.84252 ], [ -74.82015, 10.84307 ], [ -74.82058, 10.84356 ], [ -74.82088, 10.84394 ], [ -74.82121, 10.84434 ], [ -74.8217, 10.84506 ], [ -74.82206, 10.84565 ], [ -74.82248, 10.84643 ], [ -74.8229, 10.84738 ], [ -74.82299, 10.84767 ], [ -74.82328, 10.84851 ], [ -74.82375, 10.85055 ], [ -74.82379, 10.85073 ], [ -74.82406, 10.85196 ], [ -74.82435, 10.8533 ], [ -74.82459, 10.85485 ], [ -74.82463, 10.8552 ], [ -74.82473, 10.85559 ], [ -74.82482, 10.85599 ], [ -74.82527, 10.85743 ], [ -74.82549, 10.85825 ], [ -74.82625, 10.8619 ] ] ] } }
]
}
