{
"type": "FeatureCollection",
"name": "toponimia_ufp",
"crs": { "type": "name", "properties": { "name": "urn:ogc:def:crs:OGC:1.3:CRS84" } },
"xy_coordinate_resolution": 1e-06,
"features": [
{ "type": "Feature", "properties": { "id": null, "NOMBRE": "ECO PARQUE", "UFP": "UFP_1" }, "geometry": { "type": "Point", "coordinates": [ -74.842064, 11.036432 ] } },
{ "type": "Feature", "properties": { "id": null, "NOMBRE": "PUERTO MOCHO", "UFP": "UFP_1" }, "geometry": { "type": "Point", "coordinates": [ -74.845886, 11.059504 ] } },
{ "type": "Feature", "properties": { "id": null, "NOMBRE": "LAGO DEL CAUJARAL", "UFP": "UFP_1" }, "geometry": { "type": "Point", "coordinates": [ -74.885655, 11.026529 ] } },
{ "type": "Feature", "properties": { "id": null, "NOMBRE": "LAGO DEL CISNE", "UFP": "UFP_1" }, "geometry": { "type": "Point", "coordinates": [ -74.892882, 11.016452 ] } },
{ "type": "Feature", "properties": { "id": null, "NOMBRE": "BASE NAVAL", "UFP": "UFP_1" }, "geometry": { "type": "Point", "coordinates": [ -74.783844, 11.006931 ] } },
{ "type": "Feature", "properties": { "id": null, "NOMBRE": "AEROPUERTO INTERNACIONAL ERNESTO CORTISSOS", "UFP": "UFP_1" }, "geometry": { "type": "Point", "coordinates": [ -74.780404, 10.890422 ] } },
{ "type": "Feature", "properties": { "id": null, "NOMBRE": "TERMINAL DE TRANSMETRO", "UFP": "UFP_1" }, "geometry": { "type": "Point", "coordinates": [ -74.801244, 10.907465 ] } },
{ "type": "Feature", "properties": { "id": null, "NOMBRE": "TERMINAL DE TRANSPORTES", "UFP": "UFP_1" }, "geometry": { "type": "Point", "coordinates": [ -74.793851, 10.909681 ] } },
{ "type": "Feature", "properties": { "id": null, "NOMBRE": "POLIDEPORTIVO SELECCION COLOMBIA", "UFP": "UFP_2" }, "geometry": { "type": "Point", "coordinates": [ -74.85261, 10.992988 ] } },
{ "type": "Feature", "properties": { "id": null, "NOMBRE": "CLINICA PORTO AZUL", "UFP": "UFP_1" }, "geometry": { "type": "Point", "coordinates": [ -74.846141, 11.015714 ] } },
{ "type": "Feature", "properties": { "id": null, "NOMBRE": "SUBESTACION NUEVA BARRANQUILLA", "UFP": "UFP_2" }, "geometry": { "type": "Point", "coordinates": [ -74.839832, 10.991776 ] } },
{ "type": "Feature", "properties": { "id": null, "NOMBRE": "MEGA COLEGIO IED VILLAS DE SAN PABLO", "UFP": "UFP_2" }, "geometry": { "type": "Point", "coordinates": [ -74.86041, 10.959088 ] } },
{ "type": "Feature", "properties": { "id": null, "NOMBRE": "PARQUE VILLAS DE SAN PABLO", "UFP": "UFP_2" }, "geometry": { "type": "Point", "coordinates": [ -74.858733, 10.959037 ] } },
{ "type": "Feature", "properties": { "id": null, "NOMBRE": "PARQUE PUERTA DORADA", "UFP": "UFP_2" }, "geometry": { "type": "Point", "coordinates": [ -74.831857, 10.924839 ] } },
{ "type": "Feature", "properties": { "id": null, "NOMBRE": "ZONA FRANCA INTERNACIONAL DEL ATLANTICO", "UFP": "UFP_3" }, "geometry": { "type": "Point", "coordinates": [ -74.855737, 10.930869 ] } },
{ "type": "Feature", "properties": { "id": null, "NOMBRE": "URBANIZACION VILLA OLIMPICA", "UFP": "UFP_3" }, "geometry": { "type": "Point", "coordinates": [ -74.863668, 10.925266 ] } },
{ "type": "Feature", "properties": { "id": null, "NOMBRE": "MUSEO DE GALAPA", "UFP": "UFP_3" }, "geometry": { "type": "Point", "coordinates": [ -74.885691, 10.899963 ] } },
{ "type": "Feature", "properties": { "id": null, "NOMBRE": "CENTRO INDUSTRIAL Y LOGISTICO DEL ATLANTICO", "UFP": "UFP_3" }, "geometry": { "type": "Point", "coordinates": [ -74.889012, 10.876583 ] } },
{ "type": "Feature", "properties": { "id": null, "NOMBRE": "PARQUE INDUSTRIA INDUPARK", "UFP": "UFP_3" }, "geometry": { "type": "Point", "coordinates": [ -74.879165, 10.914358 ] } },
{ "type": "Feature", "properties": { "id": null, "NOMBRE": "PARQUE INDUSTRIAL LA PROSPERIDAD", "UFP": "UFP_3" }, "geometry": { "type": "Point", "coordinates": [ -74.881033, 10.910813 ] } },
{ "type": "Feature", "properties": { "id": null, "NOMBRE": "URBANIZACION MUNDO FELIZ", "UFP": "UFP_3" }, "geometry": { "type": "Point", "coordinates": [ -74.885255, 10.919813 ] } },
{ "type": "Feature", "properties": { "id": null, "NOMBRE": "ZONA FRANCA LA CAYENA", "UFP": "UFP_3" }, "geometry": { "type": "Point", "coordinates": [ -74.909422, 10.954491 ] } },
{ "type": "Feature", "properties": { "id": null, "NOMBRE": "PARQUE INDUSTRIAL ZILOG", "UFP": "UFP_3" }, "geometry": { "type": "Point", "coordinates": [ -74.911707, 10.946673 ] } },
{ "type": "Feature", "properties": { "id": null, "NOMBRE": "PARQUE INDUSTRIAL MALAMBO", "UFP": "UFP_4" }, "geometry": { "type": "Point", "coordinates": [ -74.76674, 10.833874 ] } },
{ "type": "Feature", "properties": { "id": null, "NOMBRE": "SUB ESTACION ELECTRICA MALAMBO", "UFP": "UFP_4" }, "geometry": { "type": "Point", "coordinates": [ -74.769985, 10.839275 ] } },
{ "type": "Feature", "properties": { "id": null, "NOMBRE": "PLANTA DE TRATAMIENTO DE AGUAS RESIDIALES", "UFP": "UFP_4" }, "geometry": { "type": "Point", "coordinates": [ -74.765346, 10.856518 ] } },
{ "type": "Feature", "properties": { "id": null, "NOMBRE": "TERMOBARRANQUILLA TEBSA", "UFP": "UFP_1" }, "geometry": { "type": "Point", "coordinates": [ -74.763971, 10.937163 ] } },
{ "type": "Feature", "properties": { "id": null, "NOMBRE": "ESTACION DE TRATAMIENTO DE AGUA POTABLE", "UFP": "UFP_1" }, "geometry": { "type": "Point", "coordinates": [ -74.763554, 10.948239 ] } },
{ "type": "Feature", "properties": { "id": null, "NOMBRE": "PUERTO DE BARRANQUILLA", "UFP": "UFP_1" }, "geometry": { "type": "Point", "coordinates": [ -74.762746, 10.963849 ] } },
{ "type": "Feature", "properties": { "id": null, "NOMBRE": "CIENAGA DE MALAMBO", "UFP": "UFP_4" }, "geometry": { "type": "Point", "coordinates": [ -74.755827, 10.853847 ] } },
{ "type": "Feature", "properties": { "id": null, "NOMBRE": "CIENAGA LA BAHIA", "UFP": "UFP_4" }, "geometry": { "type": "Point", "coordinates": [ -74.756479, 10.887257 ] } },
{ "type": "Feature", "properties": { "id": null, "NOMBRE": "INSTITUCION EDUCATIVA VILLA CAMPO", "UFP": "UFP_1" }, "geometry": { "type": "Point", "coordinates": [ -74.792686, 10.847689 ] } },
{ "type": "Feature", "properties": { "id": null, "NOMBRE": "URBANIZACION EL CONCORDE", "UFP": "UFP_1" }, "geometry": { "type": "Point", "coordinates": [ -74.776975, 10.869322 ] } },
{ "type": "Feature", "properties": { "id": null, "NOMBRE": "GRAN CENTRAL DE ABASTOS", "UFP": "UFP_2" }, "geometry": { "type": "Point", "coordinates": [ -74.799406, 10.888085 ] } },
{ "type": "Feature", "properties": { "id": null, "NOMBRE": "SUB ESTACION ELECTRICA CARACOLI", "UFP": "UFP_2" }, "geometry": { "type": "Point", "coordinates": [ -74.82915, 10.890084 ] } },
{ "type": "Feature", "properties": { "id": null, "NOMBRE": "COLEGIO NUESTRA SEÑORA DE FATIMA", "UFP": "UFP_2" }, "geometry": { "type": "Point", "coordinates": [ -74.77807, 10.929068 ] } },
{ "type": "Feature", "properties": { "id": null, "NOMBRE": "PARQUE RECREACIONAL MUVDI", "UFP": "UFP_2" }, "geometry": { "type": "Point", "coordinates": [ -74.782526, 10.928134 ] } },
{ "type": "Feature", "properties": { "id": null, "NOMBRE": "HOSPITAL UNIVERSIDAD DEL NORTE", "UFP": "UFP_2" }, "geometry": { "type": "Point", "coordinates": [ -74.780891, 10.929697 ] } },
{ "type": "Feature", "properties": { "id": null, "NOMBRE": "INSTITUCION EDUCATIVA TECNICO INDUSTRIAL", "UFP": "UFP_2" }, "geometry": { "type": "Point", "coordinates": [ -74.780873, 10.931008 ] } },
{ "type": "Feature", "properties": { "id": null, "NOMBRE": "INSTITUCION EDUCATIVA MIGUEL ANTONIO CARO", "UFP": "UFP_2" }, "geometry": { "type": "Point", "coordinates": [ -74.77807, 10.932729 ] } },
{ "type": "Feature", "properties": { "id": null, "NOMBRE": "UNIVERSIDAD DEL NORTE", "UFP": "UFP_1" }, "geometry": { "type": "Point", "coordinates": [ -74.850886, 11.018602 ] } },
{ "type": "Feature", "properties": { "id": null, "NOMBRE": "COLEGIOS", "UFP": "UFP_1" }, "geometry": { "type": "Point", "coordinates": [ -74.843807, 11.018189 ] } },
{ "type": "Feature", "properties": { "id": null, "NOMBRE": "CIUDADDELA UNIVERSITARIA DEL ATLANTICO", "UFP": "UFP_1" }, "geometry": { "type": "Point", "coordinates": [ -74.874135, 11.018387 ] } },
{ "type": "Feature", "properties": { "id": null, "NOMBRE": "BATALLON MILITAR VERGARA Y VELAZCO", "UFP": "UFP_1" }, "geometry": { "type": "Point", "coordinates": [ -74.766762, 10.881114 ] } }
]
}
