{
"type": "FeatureCollection",
"name": "ufps",
"crs": { "type": "name", "properties": { "name": "urn:ogc:def:crs:OGC:1.3:CRS84" } },
"xy_coordinate_resolution": 1e-06,
"features": [
{ "type": "Feature", "properties": { "id": null, "NOMBRE": "UFP_4" }, "geometry": { "type": "Polygon", "coordinates": [ [ [ -74.765565, 10.934602 ], [ -74.764611, 10.934739 ], [ -74.762926, 10.934513 ], [ -74.762898, 10.934849 ], [ -74.762562, 10.934794 ], [ -74.759826, 10.934656 ], [ -74.759743, 10.935543 ], [ -74.759347, 10.935504 ], [ -74.758213, 10.936 ], [ -74.757574, 10.936126 ], [ -74.757326, 10.93638 ], [ -74.757497, 10.936925 ], [ -74.757805, 10.937784 ], [ -74.758124, 10.9384 ], [ -74.758631, 10.939039 ], [ -74.759655, 10.940493 ], [ -74.762298, 10.940746 ], [ -74.762353, 10.941407 ], [ -74.761869, 10.942167 ], [ -74.761637, 10.942706 ], [ -74.761764, 10.942822 ], [ -74.762213, 10.943031 ], [ -74.762361, 10.943136 ], [ -74.762403, 10.943345 ], [ -74.762298, 10.943662 ], [ -74.761965, 10.94378 ], [ -74.761794, 10.943766 ], [ -74.761787, 10.943971 ], [ -74.761691, 10.944258 ], [ -74.761253, 10.944013 ], [ -74.761135, 10.944131 ], [ -74.760858, 10.943944 ], [ -74.76065, 10.943912 ], [ -74.760403, 10.943905 ], [ -74.760034, 10.943958 ], [ -74.759808, 10.944035 ], [ -74.759648, 10.944189 ], [ -74.759723, 10.94445 ], [ -74.759618, 10.944552 ], [ -74.75934, 10.944585 ], [ -74.759122, 10.944728 ], [ -74.759023, 10.944938 ], [ -74.759103, 10.945095 ], [ -74.759241, 10.945166 ], [ -74.759585, 10.945254 ], [ -74.759714, 10.945452 ], [ -74.759868, 10.945546 ], [ -74.76043, 10.945579 ], [ -74.761025, 10.945552 ], [ -74.761432, 10.945717 ], [ -74.76173, 10.946047 ], [ -74.761818, 10.946515 ], [ -74.761779, 10.946609 ], [ -74.761493, 10.946862 ], [ -74.761339, 10.946862 ], [ -74.76103, 10.946774 ], [ -74.760634, 10.946774 ], [ -74.760436, 10.946609 ], [ -74.760215, 10.946383 ], [ -74.759654, 10.946339 ], [ -74.75929, 10.946438 ], [ -74.758872, 10.946857 ], [ -74.758674, 10.94853 ], [ -74.758872, 10.949852 ], [ -74.756688, 10.949852 ], [ -74.754653, 10.945133 ], [ -74.750276, 10.938856 ], [ -74.744805, 10.933443 ], [ -74.740832, 10.92872 ], [ -74.737376, 10.923077 ], [ -74.735649, 10.917376 ], [ -74.734958, 10.911386 ], [ -74.735649, 10.904188 ], [ -74.73611, 10.897162 ], [ -74.738931, 10.880865 ], [ -74.74135, 10.865201 ], [ -74.742271, 10.848155 ], [ -74.743538, 10.833527 ], [ -74.769134, 10.828307 ], [ -74.76982, 10.830011 ], [ -74.770817, 10.832239 ], [ -74.77112, 10.833117 ], [ -74.771246, 10.833837 ], [ -74.771382, 10.834931 ], [ -74.771526, 10.83641 ], [ -74.771526, 10.8369 ], [ -74.771389, 10.837551 ], [ -74.771145, 10.838404 ], [ -74.770889, 10.839444 ], [ -74.770724, 10.840481 ], [ -74.77054, 10.841273 ], [ -74.770457, 10.841827 ], [ -74.770428, 10.842511 ], [ -74.770443, 10.842954 ], [ -74.770425, 10.844397 ], [ -74.770202, 10.845822 ], [ -74.770101, 10.84701 ], [ -74.770404, 10.849964 ], [ -74.769627, 10.849922 ], [ -74.769483, 10.850619 ], [ -74.766747, 10.850731 ], [ -74.766788, 10.851852 ], [ -74.764916, 10.851871 ], [ -74.764831, 10.852774 ], [ -74.765321, 10.854454 ], [ -74.765442, 10.854729 ], [ -74.76684, 10.854701 ], [ -74.76673, 10.855582 ], [ -74.769313, 10.856359 ], [ -74.769924, 10.857686 ], [ -74.769811, 10.858319 ], [ -74.769649, 10.858313 ], [ -74.769825, 10.859384 ], [ -74.769885, 10.859536 ], [ -74.770089, 10.859621 ], [ -74.770006, 10.860073 ], [ -74.76961, 10.85999 ], [ -74.769081, 10.860026 ], [ -74.769018, 10.860521 ], [ -74.769145, 10.860538 ], [ -74.769205, 10.861122 ], [ -74.768757, 10.861144 ], [ -74.768784, 10.861452 ], [ -74.76923, 10.861532 ], [ -74.769514, 10.862165 ], [ -74.769555, 10.862223 ], [ -74.769993, 10.862294 ], [ -74.770444, 10.862283 ], [ -74.770455, 10.862385 ], [ -74.769987, 10.862448 ], [ -74.769772, 10.862537 ], [ -74.769621, 10.862699 ], [ -74.769717, 10.862947 ], [ -74.769682, 10.863137 ], [ -74.76947, 10.863415 ], [ -74.769282, 10.863723 ], [ -74.769266, 10.863855 ], [ -74.769354, 10.863943 ], [ -74.769789, 10.864081 ], [ -74.770196, 10.864111 ], [ -74.771229, 10.864106 ], [ -74.771344, 10.86418 ], [ -74.771325, 10.864257 ], [ -74.77083, 10.864288 ], [ -74.770527, 10.86434 ], [ -74.770386, 10.864466 ], [ -74.770598, 10.865111 ], [ -74.770631, 10.865628 ], [ -74.770808, 10.865953 ], [ -74.771127, 10.866311 ], [ -74.771138, 10.866829 ], [ -74.771011, 10.868387 ], [ -74.770637, 10.869637 ], [ -74.770912, 10.87043 ], [ -74.770538, 10.871503 ], [ -74.767388, 10.870319 ], [ -74.76675, 10.872103 ], [ -74.766783, 10.872946 ], [ -74.768291, 10.873364 ], [ -74.768286, 10.874091 ], [ -74.768743, 10.874895 ], [ -74.768666, 10.87772 ], [ -74.764459, 10.877422 ], [ -74.764514, 10.878083 ], [ -74.762047, 10.877874 ], [ -74.760726, 10.877566 ], [ -74.761629, 10.880374 ], [ -74.762235, 10.881706 ], [ -74.763336, 10.882312 ], [ -74.76349, 10.883061 ], [ -74.763545, 10.883909 ], [ -74.76382, 10.88534 ], [ -74.765725, 10.885318 ], [ -74.766122, 10.885329 ], [ -74.766133, 10.886045 ], [ -74.766562, 10.886023 ], [ -74.766628, 10.886926 ], [ -74.764415, 10.887113 ], [ -74.764635, 10.887796 ], [ -74.765604, 10.887961 ], [ -74.766188, 10.888721 ], [ -74.766331, 10.888842 ], [ -74.767796, 10.888633 ], [ -74.767851, 10.889888 ], [ -74.766915, 10.890097 ], [ -74.766937, 10.891276 ], [ -74.767212, 10.89132 ], [ -74.767664, 10.892498 ], [ -74.767564, 10.893423 ], [ -74.767069, 10.896396 ], [ -74.766463, 10.898059 ], [ -74.766419, 10.899216 ], [ -74.766144, 10.900801 ], [ -74.765472, 10.900581 ], [ -74.764844, 10.901 ], [ -74.764514, 10.902332 ], [ -74.764988, 10.902618 ], [ -74.765076, 10.903202 ], [ -74.765401, 10.903659 ], [ -74.765814, 10.903516 ], [ -74.766122, 10.903441 ], [ -74.765969, 10.904389 ], [ -74.764357, 10.908996 ], [ -74.764105, 10.9101 ], [ -74.763573, 10.909859 ], [ -74.762174, 10.90944 ], [ -74.761601, 10.910685 ], [ -74.761579, 10.911731 ], [ -74.761326, 10.91259 ], [ -74.760875, 10.91368 ], [ -74.76085, 10.915059 ], [ -74.760825, 10.915293 ], [ -74.760737, 10.915426 ], [ -74.760616, 10.915822 ], [ -74.760382, 10.915574 ], [ -74.760225, 10.915635 ], [ -74.760071, 10.915841 ], [ -74.759809, 10.915993 ], [ -74.759035, 10.91613 ], [ -74.758852, 10.916133 ], [ -74.758868, 10.916315 ], [ -74.758273, 10.916327 ], [ -74.758091, 10.9163 ], [ -74.75775, 10.916287 ], [ -74.756932, 10.916319 ], [ -74.756605, 10.916377 ], [ -74.755863, 10.916435 ], [ -74.755355, 10.916561 ], [ -74.754946, 10.916693 ], [ -74.754847, 10.916775 ], [ -74.754609, 10.917077 ], [ -74.754446, 10.917222 ], [ -74.754145, 10.917565 ], [ -74.753962, 10.917734 ], [ -74.753517, 10.918275 ], [ -74.753156, 10.918831 ], [ -74.753711, 10.919412 ], [ -74.754131, 10.919112 ], [ -74.75439, 10.918831 ], [ -74.754792, 10.918491 ], [ -74.755094, 10.918129 ], [ -74.755273, 10.918013 ], [ -74.755791, 10.917611 ], [ -74.756113, 10.917306 ], [ -74.756421, 10.917088 ], [ -74.756534, 10.916981 ], [ -74.756821, 10.916865 ], [ -74.757234, 10.916852 ], [ -74.757553, 10.91689 ], [ -74.757823, 10.916948 ], [ -74.758305, 10.917303 ], [ -74.758417, 10.917355 ], [ -74.758808, 10.917419 ], [ -74.759403, 10.91765 ], [ -74.759992, 10.918024 ], [ -74.760124, 10.918079 ], [ -74.759673, 10.919423 ], [ -74.759238, 10.919329 ], [ -74.75872, 10.919247 ], [ -74.758335, 10.919252 ], [ -74.758082, 10.919324 ], [ -74.75796, 10.919726 ], [ -74.758082, 10.919996 ], [ -74.758285, 10.920133 ], [ -74.758274, 10.920541 ], [ -74.758346, 10.920689 ], [ -74.758357, 10.920866 ], [ -74.758522, 10.920915 ], [ -74.758395, 10.922115 ], [ -74.759344, 10.92221 ], [ -74.759439, 10.922267 ], [ -74.759411, 10.922469 ], [ -74.76122, 10.922715 ], [ -74.761216, 10.922822 ], [ -74.761114, 10.923069 ], [ -74.760288, 10.923465 ], [ -74.759881, 10.923047 ], [ -74.758416, 10.923884 ], [ -74.757987, 10.923201 ], [ -74.75726, 10.923619 ], [ -74.75726, 10.92395 ], [ -74.758075, 10.924269 ], [ -74.75824, 10.924699 ], [ -74.758449, 10.924996 ], [ -74.756941, 10.925987 ], [ -74.757524, 10.92667 ], [ -74.757954, 10.926857 ], [ -74.759121, 10.926218 ], [ -74.760255, 10.92591 ], [ -74.760575, 10.925855 ], [ -74.76074, 10.926813 ], [ -74.760398, 10.927352 ], [ -74.760349, 10.927809 ], [ -74.760531, 10.928151 ], [ -74.760354, 10.92841 ], [ -74.760145, 10.928894 ], [ -74.760101, 10.929114 ], [ -74.760101, 10.929533 ], [ -74.759793, 10.929704 ], [ -74.759611, 10.929907 ], [ -74.759556, 10.930293 ], [ -74.75944, 10.930601 ], [ -74.75938, 10.930915 ], [ -74.759622, 10.931185 ], [ -74.759853, 10.931366 ], [ -74.760101, 10.931614 ], [ -74.760569, 10.931876 ], [ -74.760767, 10.932041 ], [ -74.760872, 10.932253 ], [ -74.761012, 10.932421 ], [ -74.761329, 10.932539 ], [ -74.761814, 10.932638 ], [ -74.76275, 10.933673 ], [ -74.763465, 10.933514 ], [ -74.763724, 10.93336 ], [ -74.764301, 10.933729 ], [ -74.764633, 10.933975 ], [ -74.765565, 10.934602 ] ] ] } },
{ "type": "Feature", "properties": { "id": null, "NOMBRE": "UFP_1" }, "geometry": { "type": "Polygon", "coordinates": [ [ [ -74.758872, 10.949852 ], [ -74.758674, 10.94853 ], [ -74.758872, 10.946857 ], [ -74.75929, 10.946438 ], [ -74.759654, 10.946339 ], [ -74.760215, 10.946383 ], [ -74.760436, 10.946609 ], [ -74.760634, 10.946774 ], [ -74.76103, 10.946774 ], [ -74.761339, 10.946862 ], [ -74.761493, 10.946862 ], [ -74.761779, 10.946609 ], [ -74.761818, 10.946515 ], [ -74.76173, 10.946047 ], [ -74.761432, 10.945717 ], [ -74.761025, 10.945552 ], [ -74.76043, 10.945579 ], [ -74.759868, 10.945546 ], [ -74.759714, 10.945452 ], [ -74.759585, 10.945254 ], [ -74.759241, 10.945166 ], [ -74.759103, 10.945095 ], [ -74.759023, 10.944938 ], [ -74.759122, 10.944728 ], [ -74.75934, 10.944585 ], [ -74.759618, 10.944552 ], [ -74.759723, 10.94445 ], [ -74.759648, 10.944189 ], [ -74.759808, 10.944035 ], [ -74.760034, 10.943958 ], [ -74.760403, 10.943905 ], [ -74.76065, 10.943912 ], [ -74.760858, 10.943944 ], [ -74.761135, 10.944131 ], [ -74.761253, 10.944013 ], [ -74.761691, 10.944258 ], [ -74.761787, 10.943971 ], [ -74.761794, 10.943766 ], [ -74.761965, 10.94378 ], [ -74.762298, 10.943662 ], [ -74.762403, 10.943345 ], [ -74.762361, 10.943136 ], [ -74.762213, 10.943031 ], [ -74.761764, 10.942822 ], [ -74.761637, 10.942706 ], [ -74.761869, 10.942167 ], [ -74.762353, 10.941407 ], [ -74.762298, 10.940746 ], [ -74.759655, 10.940493 ], [ -74.758631, 10.939039 ], [ -74.758124, 10.9384 ], [ -74.757805, 10.937784 ], [ -74.757497, 10.936925 ], [ -74.757326, 10.93638 ], [ -74.757574, 10.936126 ], [ -74.758213, 10.936 ], [ -74.759347, 10.935504 ], [ -74.759743, 10.935543 ], [ -74.759826, 10.934656 ], [ -74.762562, 10.934794 ], [ -74.762898, 10.934849 ], [ -74.762926, 10.934513 ], [ -74.764611, 10.934739 ], [ -74.765565, 10.934602 ], [ -74.766706, 10.936203 ], [ -74.768216, 10.938762 ], [ -74.76862, 10.939508 ], [ -74.769156, 10.940383 ], [ -74.769564, 10.941114 ], [ -74.770897, 10.944478 ], [ -74.771657, 10.945408 ], [ -74.77285, 10.946769 ], [ -74.773038, 10.947065 ], [ -74.773262, 10.947634 ], [ -74.773532, 10.948548 ], [ -74.773777, 10.95 ], [ -74.773769, 10.950715 ], [ -74.773955, 10.954721 ], [ -74.774632, 10.958448 ], [ -74.775132, 10.962477 ], [ -74.775219, 10.963359 ], [ -74.775317, 10.964891 ], [ -74.775312, 10.965151 ], [ -74.775134, 10.966039 ], [ -74.774792, 10.967457 ], [ -74.76995, 10.967388 ], [ -74.769968, 10.968391 ], [ -74.770009, 10.969135 ], [ -74.770004, 10.969475 ], [ -74.769958, 10.969671 ], [ -74.76961, 10.970716 ], [ -74.769459, 10.972273 ], [ -74.76942, 10.973274 ], [ -74.769237, 10.97416 ], [ -74.768937, 10.975054 ], [ -74.769061, 10.976053 ], [ -74.769388, 10.978001 ], [ -74.769589, 10.979672 ], [ -74.769666, 10.980176 ], [ -74.769694, 10.980768 ], [ -74.769676, 10.981664 ], [ -74.769717, 10.98205 ], [ -74.769903, 10.983427 ], [ -74.770218, 10.984278 ], [ -74.770471, 10.98622 ], [ -74.770582, 10.987321 ], [ -74.771367, 10.987329 ], [ -74.771622, 10.987234 ], [ -74.771836, 10.987059 ], [ -74.772842, 10.985416 ], [ -74.773105, 10.985221 ], [ -74.773509, 10.985118 ], [ -74.773879, 10.985128 ], [ -74.776016, 10.985419 ], [ -74.77604, 10.985537 ], [ -74.776107, 10.985696 ], [ -74.776593, 10.98627 ], [ -74.776913, 10.986823 ], [ -74.777125, 10.987109 ], [ -74.777614, 10.987987 ], [ -74.778041, 10.988609 ], [ -74.778886, 10.989366 ], [ -74.779215, 10.989716 ], [ -74.779375, 10.989922 ], [ -74.779552, 10.990198 ], [ -74.779725, 10.990576 ], [ -74.779828, 10.990895 ], [ -74.779959, 10.992293 ], [ -74.780193, 10.992931 ], [ -74.780512, 10.993405 ], [ -74.780811, 10.993894 ], [ -74.781547, 10.99515 ], [ -74.782183, 10.995984 ], [ -74.782463, 10.996393 ], [ -74.782929, 10.997178 ], [ -74.783331, 10.997973 ], [ -74.783717, 10.998841 ], [ -74.783943, 11.000215 ], [ -74.784121, 11.000874 ], [ -74.784353, 11.001366 ], [ -74.784535, 11.001682 ], [ -74.784821, 11.002088 ], [ -74.785176, 11.002489 ], [ -74.785464, 11.002734 ], [ -74.786002, 11.003107 ], [ -74.786368, 11.0034 ], [ -74.78776, 11.004399 ], [ -74.787992, 11.004517 ], [ -74.788373, 11.004798 ], [ -74.788818, 11.005241 ], [ -74.789207, 11.005717 ], [ -74.789683, 11.006456 ], [ -74.791333, 11.009511 ], [ -74.792054, 11.010803 ], [ -74.792908, 11.012479 ], [ -74.793353, 11.013271 ], [ -74.793539, 11.013583 ], [ -74.794234, 11.014543 ], [ -74.79496, 11.013601 ], [ -74.795495, 11.012816 ], [ -74.795984, 11.012185 ], [ -74.799557, 11.007259 ], [ -74.800159, 11.006782 ], [ -74.803334, 11.004529 ], [ -74.80386, 11.004112 ], [ -74.805051, 11.003244 ], [ -74.805749, 11.003466 ], [ -74.808122, 11.00431 ], [ -74.809759, 11.004897 ], [ -74.810747, 11.005278 ], [ -74.811038, 11.005327 ], [ -74.811254, 11.005316 ], [ -74.81135, 11.005339 ], [ -74.811491, 11.005435 ], [ -74.811617, 11.005558 ], [ -74.811738, 11.00562 ], [ -74.814222, 11.006523 ], [ -74.817165, 11.007883 ], [ -74.817364, 11.008058 ], [ -74.818206, 11.0089 ], [ -74.818761, 11.009897 ], [ -74.819051, 11.010377 ], [ -74.819102, 11.010429 ], [ -74.819261, 11.010556 ], [ -74.819447, 11.010655 ], [ -74.820621, 11.011495 ], [ -74.820818, 11.011611 ], [ -74.821459, 11.011888 ], [ -74.822334, 11.012425 ], [ -74.82245, 11.012469 ], [ -74.822591, 11.012516 ], [ -74.823362, 11.012658 ], [ -74.823791, 11.012896 ], [ -74.824094, 11.013017 ], [ -74.826534, 11.013878 ], [ -74.827372, 11.012704 ], [ -74.828404, 11.011187 ], [ -74.828544, 11.011026 ], [ -74.8291, 11.011236 ], [ -74.829875, 11.011434 ], [ -74.830763, 11.011521 ], [ -74.831113, 11.011606 ], [ -74.831476, 11.011727 ], [ -74.832513, 11.012152 ], [ -74.833275, 11.012543 ], [ -74.835659, 11.01418 ], [ -74.836971, 11.014983 ], [ -74.837198, 11.015163 ], [ -74.838644, 11.01574 ], [ -74.840339, 11.011538 ], [ -74.8425, 11.012702 ], [ -74.84421, 11.013648 ], [ -74.848619, 11.015995 ], [ -74.849465, 11.016409 ], [ -74.850152, 11.01665 ], [ -74.851192, 11.016931 ], [ -74.851703, 11.017025 ], [ -74.852459, 11.017118 ], [ -74.853456, 11.017158 ], [ -74.85419, 11.017125 ], [ -74.858758, 11.016531 ], [ -74.86086, 11.016272 ], [ -74.862379, 11.016107 ], [ -74.869491, 11.015185 ], [ -74.870938, 11.01502 ], [ -74.874292, 11.014559 ], [ -74.876485, 11.014312 ], [ -74.877061, 11.016741 ], [ -74.877251, 11.016821 ], [ -74.877311, 11.016825 ], [ -74.877369, 11.016818 ], [ -74.877413, 11.016791 ], [ -74.877566, 11.016595 ], [ -74.87767, 11.016508 ], [ -74.877753, 11.016452 ], [ -74.877843, 11.016421 ], [ -74.88301, 11.015553 ], [ -74.88347, 11.015437 ], [ -74.883921, 11.01528 ], [ -74.884371, 11.015151 ], [ -74.884793, 11.014968 ], [ -74.884953, 11.014863 ], [ -74.885679, 11.014234 ], [ -74.885908, 11.014105 ], [ -74.887656, 11.013353 ], [ -74.888084, 11.01321 ], [ -74.888406, 11.013163 ], [ -74.888882, 11.013201 ], [ -74.889565, 11.013401 ], [ -74.890504, 11.013711 ], [ -74.890841, 11.013774 ], [ -74.891119, 11.013768 ], [ -74.892431, 11.013641 ], [ -74.893202, 11.013421 ], [ -74.893453, 11.013375 ], [ -74.893641, 11.013389 ], [ -74.893922, 11.013502 ], [ -74.894114, 11.013646 ], [ -74.8945, 11.014015 ], [ -74.894988, 11.014292 ], [ -74.895463, 11.014642 ], [ -74.895634, 11.014708 ], [ -74.895823, 11.014749 ], [ -74.896617, 11.014889 ], [ -74.89683, 11.014902 ], [ -74.897319, 11.014884 ], [ -74.899844, 11.014547 ], [ -74.900173, 11.014465 ], [ -74.901485, 11.014072 ], [ -74.901521, 11.01411 ], [ -74.901532, 11.014256 ], [ -74.901537, 11.016607 ], [ -74.901463, 11.018096 ], [ -74.901506, 11.018599 ], [ -74.901596, 11.019 ], [ -74.901794, 11.019605 ], [ -74.902243, 11.020582 ], [ -74.902731, 11.021731 ], [ -74.90334, 11.023066 ], [ -74.903493, 11.023444 ], [ -74.903586, 11.023748 ], [ -74.903638, 11.024115 ], [ -74.903659, 11.024353 ], [ -74.903656, 11.024636 ], [ -74.903557, 11.025174 ], [ -74.903353, 11.026025 ], [ -74.90329, 11.026525 ], [ -74.903299, 11.026852 ], [ -74.904093, 11.030281 ], [ -74.904143, 11.030696 ], [ -74.903626, 11.037686 ], [ -74.903605, 11.038097 ], [ -74.903641, 11.038603 ], [ -74.906273, 11.038683 ], [ -74.907893, 11.038758 ], [ -74.908571, 11.038845 ], [ -74.909629, 11.039051 ], [ -74.911002, 11.039458 ], [ -74.911849, 11.039747 ], [ -74.913811, 11.040678 ], [ -74.914429, 11.040941 ], [ -74.914923, 11.041051 ], [ -74.915246, 11.041085 ], [ -74.915627, 11.041083 ], [ -74.915836, 11.041064 ], [ -74.916123, 11.041002 ], [ -74.916612, 11.040837 ], [ -74.916879, 11.040714 ], [ -74.91714, 11.040548 ], [ -74.918269, 11.0397 ], [ -74.918442, 11.039552 ], [ -74.918755, 11.039171 ], [ -74.919011, 11.038667 ], [ -74.919359, 11.037748 ], [ -74.919461, 11.037215 ], [ -74.920246, 11.037245 ], [ -74.920352, 11.037277 ], [ -74.920661, 11.037569 ], [ -74.921419, 11.038406 ], [ -74.921722, 11.038622 ], [ -74.922492, 11.038594 ], [ -74.922652, 11.038609 ], [ -74.922598, 11.038839 ], [ -74.922351, 11.039209 ], [ -74.922297, 11.039443 ], [ -74.922348, 11.039634 ], [ -74.922526, 11.039974 ], [ -74.922552, 11.040823 ], [ -74.922454, 11.04175 ], [ -74.922382, 11.042779 ], [ -74.922196, 11.0442 ], [ -74.921908, 11.045271 ], [ -74.921548, 11.045611 ], [ -74.920858, 11.045981 ], [ -74.920117, 11.046074 ], [ -74.91918, 11.045971 ], [ -74.918037, 11.045796 ], [ -74.917224, 11.045796 ], [ -74.916235, 11.04526 ], [ -74.915093, 11.044807 ], [ -74.910511, 11.043696 ], [ -74.907072, 11.042995 ], [ -74.905023, 11.042769 ], [ -74.902161, 11.042584 ], [ -74.898908, 11.042295 ], [ -74.895263, 11.042254 ], [ -74.892463, 11.042378 ], [ -74.889848, 11.042378 ], [ -74.884515, 11.042707 ], [ -74.881076, 11.043448 ], [ -74.878522, 11.043757 ], [ -74.876772, 11.044272 ], [ -74.875351, 11.044787 ], [ -74.872572, 11.045631 ], [ -74.870904, 11.046187 ], [ -74.869895, 11.046146 ], [ -74.867223, 11.04561 ], [ -74.866719, 11.04476 ], [ -74.866561, 11.042356 ], [ -74.864977, 11.039549 ], [ -74.86325, 11.03713 ], [ -74.861321, 11.036353 ], [ -74.859219, 11.036497 ], [ -74.857491, 11.036381 ], [ -74.856426, 11.03523 ], [ -74.855043, 11.034135 ], [ -74.853489, 11.033761 ], [ -74.851761, 11.033905 ], [ -74.849976, 11.03451 ], [ -74.849141, 11.035561 ], [ -74.849069, 11.037893 ], [ -74.848723, 11.039275 ], [ -74.848018, 11.040456 ], [ -74.847039, 11.041161 ], [ -74.845743, 11.041104 ], [ -74.845383, 11.040225 ], [ -74.845513, 11.03857 ], [ -74.846348, 11.035863 ], [ -74.845993, 11.035732 ], [ -74.845128, 11.035876 ], [ -74.84414, 11.036 ], [ -74.843769, 11.035691 ], [ -74.843337, 11.034806 ], [ -74.843152, 11.034167 ], [ -74.841587, 11.034373 ], [ -74.839507, 11.03532 ], [ -74.838436, 11.036515 ], [ -74.837551, 11.036659 ], [ -74.83403, 11.039995 ], [ -74.832279, 11.044041 ], [ -74.832176, 11.044324 ], [ -74.831528, 11.044803 ], [ -74.830807, 11.045621 ], [ -74.830498, 11.045858 ], [ -74.829546, 11.046929 ], [ -74.829316, 11.046805 ], [ -74.819756, 11.040211 ], [ -74.815955, 11.037533 ], [ -74.811694, 11.035172 ], [ -74.807807, 11.033156 ], [ -74.804092, 11.0314 ], [ -74.801184, 11.029068 ], [ -74.797441, 11.025785 ], [ -74.795627, 11.023741 ], [ -74.791308, 11.018788 ], [ -74.786182, 11.014239 ], [ -74.780712, 11.010323 ], [ -74.775183, 11.006234 ], [ -74.769539, 11.001454 ], [ -74.767121, 10.99846 ], [ -74.76476, 10.994716 ], [ -74.762341, 10.989764 ], [ -74.760613, 10.985502 ], [ -74.759749, 10.97888 ], [ -74.75926, 10.971278 ], [ -74.759116, 10.961747 ], [ -74.75736, 10.95141 ], [ -74.756688, 10.949852 ], [ -74.758872, 10.949852 ] ] ] } },
{ "type": "Feature", "properties": { "id": null, "NOMBRE": "UFP_1" }, "geometry": { "type": "Polygon", "coordinates": [ [ [ -74.778751, 10.894698 ], [ -74.775482, 10.898487 ], [ -74.775498, 10.898553 ], [ -74.775248, 10.898864 ], [ -74.774991, 10.899182 ], [ -74.774015, 10.900292 ], [ -74.773241, 10.90128 ], [ -74.772933, 10.901564 ], [ -74.772385, 10.9022 ], [ -74.771906, 10.902382 ], [ -74.771488, 10.902673 ], [ -74.771367, 10.902795 ], [ -74.771069, 10.902695 ], [ -74.770579, 10.902596 ], [ -74.769737, 10.902558 ], [ -74.768839, 10.902591 ], [ -74.768316, 10.902668 ], [ -74.767843, 10.903108 ], [ -74.767672, 10.903252 ], [ -74.767468, 10.903384 ], [ -74.767193, 10.903455 ], [ -74.766808, 10.903389 ], [ -74.766516, 10.903367 ], [ -74.765814, 10.903516 ], [ -74.765401, 10.903659 ], [ -74.765076, 10.903202 ], [ -74.764988, 10.902618 ], [ -74.764514, 10.902332 ], [ -74.764844, 10.901 ], [ -74.765472, 10.900581 ], [ -74.766144, 10.900801 ], [ -74.766419, 10.899216 ], [ -74.766463, 10.898059 ], [ -74.767069, 10.896396 ], [ -74.767564, 10.893423 ], [ -74.767664, 10.892498 ], [ -74.767212, 10.89132 ], [ -74.766937, 10.891276 ], [ -74.766915, 10.890097 ], [ -74.767851, 10.889888 ], [ -74.767796, 10.888633 ], [ -74.766331, 10.888842 ], [ -74.766188, 10.888721 ], [ -74.765604, 10.887961 ], [ -74.764635, 10.887796 ], [ -74.764415, 10.887113 ], [ -74.766628, 10.886926 ], [ -74.766562, 10.886023 ], [ -74.766133, 10.886045 ], [ -74.766122, 10.885329 ], [ -74.765725, 10.885318 ], [ -74.76382, 10.88534 ], [ -74.763545, 10.883909 ], [ -74.76349, 10.883061 ], [ -74.763336, 10.882312 ], [ -74.762235, 10.881706 ], [ -74.761629, 10.880374 ], [ -74.760726, 10.877566 ], [ -74.762047, 10.877874 ], [ -74.764514, 10.878083 ], [ -74.764459, 10.877422 ], [ -74.768666, 10.87772 ], [ -74.768743, 10.874895 ], [ -74.768286, 10.874091 ], [ -74.768291, 10.873364 ], [ -74.766783, 10.872946 ], [ -74.76675, 10.872103 ], [ -74.767388, 10.870319 ], [ -74.770538, 10.871503 ], [ -74.770912, 10.87043 ], [ -74.770637, 10.869637 ], [ -74.771011, 10.868387 ], [ -74.771138, 10.866829 ], [ -74.771127, 10.866311 ], [ -74.770808, 10.865953 ], [ -74.770631, 10.865628 ], [ -74.770598, 10.865111 ], [ -74.770386, 10.864466 ], [ -74.770527, 10.86434 ], [ -74.77083, 10.864288 ], [ -74.771325, 10.864257 ], [ -74.771344, 10.86418 ], [ -74.771229, 10.864106 ], [ -74.770196, 10.864111 ], [ -74.769789, 10.864081 ], [ -74.769354, 10.863943 ], [ -74.769266, 10.863855 ], [ -74.769282, 10.863723 ], [ -74.76947, 10.863415 ], [ -74.769682, 10.863137 ], [ -74.769717, 10.862947 ], [ -74.769621, 10.862699 ], [ -74.769772, 10.862537 ], [ -74.769987, 10.862448 ], [ -74.770455, 10.862385 ], [ -74.770444, 10.862283 ], [ -74.769993, 10.862294 ], [ -74.769555, 10.862223 ], [ -74.769514, 10.862165 ], [ -74.76923, 10.861532 ], [ -74.768784, 10.861452 ], [ -74.768757, 10.861144 ], [ -74.769205, 10.861122 ], [ -74.769145, 10.860538 ], [ -74.769018, 10.860521 ], [ -74.769081, 10.860026 ], [ -74.76961, 10.85999 ], [ -74.770006, 10.860073 ], [ -74.770089, 10.859621 ], [ -74.769885, 10.859536 ], [ -74.769825, 10.859384 ], [ -74.769649, 10.858313 ], [ -74.769811, 10.858319 ], [ -74.769924, 10.857686 ], [ -74.769313, 10.856359 ], [ -74.76673, 10.855582 ], [ -74.76684, 10.854701 ], [ -74.765442, 10.854729 ], [ -74.765321, 10.854454 ], [ -74.764831, 10.852774 ], [ -74.764916, 10.851871 ], [ -74.766788, 10.851852 ], [ -74.766747, 10.850731 ], [ -74.769483, 10.850619 ], [ -74.769627, 10.849922 ], [ -74.770404, 10.849964 ], [ -74.770101, 10.84701 ], [ -74.770202, 10.845822 ], [ -74.770425, 10.844397 ], [ -74.770443, 10.842954 ], [ -74.770428, 10.842511 ], [ -74.770457, 10.841827 ], [ -74.77054, 10.841273 ], [ -74.770724, 10.840481 ], [ -74.770889, 10.839444 ], [ -74.771145, 10.838404 ], [ -74.771389, 10.837551 ], [ -74.771526, 10.8369 ], [ -74.771526, 10.83641 ], [ -74.771382, 10.834931 ], [ -74.771246, 10.833837 ], [ -74.77112, 10.833117 ], [ -74.770817, 10.832239 ], [ -74.76982, 10.830011 ], [ -74.769134, 10.828307 ], [ -74.769614, 10.828258 ], [ -74.770161, 10.828393 ], [ -74.770543, 10.828432 ], [ -74.771032, 10.828429 ], [ -74.771532, 10.828386 ], [ -74.777471, 10.8275 ], [ -74.778855, 10.827247 ], [ -74.781308, 10.826928 ], [ -74.782233, 10.826773 ], [ -74.787524, 10.825989 ], [ -74.788348, 10.82592 ], [ -74.788751, 10.825935 ], [ -74.789295, 10.825999 ], [ -74.789673, 10.826075 ], [ -74.79006, 10.826188 ], [ -74.79065, 10.826411 ], [ -74.800537, 10.831288 ], [ -74.801389, 10.831729 ], [ -74.80415, 10.833069 ], [ -74.804747, 10.83339 ], [ -74.805615, 10.833883 ], [ -74.810206, 10.836603 ], [ -74.81142, 10.837266 ], [ -74.812126, 10.837682 ], [ -74.812364, 10.837799 ], [ -74.81302, 10.838175 ], [ -74.814448, 10.839067 ], [ -74.817544, 10.840887 ], [ -74.81831, 10.841414 ], [ -74.819125, 10.842063 ], [ -74.819826, 10.842711 ], [ -74.820524, 10.843457 ], [ -74.820937, 10.843945 ], [ -74.821596, 10.844851 ], [ -74.822295, 10.846012 ], [ -74.822668, 10.846786 ], [ -74.822967, 10.847508 ], [ -74.823231, 10.848224 ], [ -74.823451, 10.849046 ], [ -74.823675, 10.850004 ], [ -74.824211, 10.852387 ], [ -74.82449, 10.853723 ], [ -74.825015, 10.85576 ], [ -74.82566, 10.859014 ], [ -74.828172, 10.870336 ], [ -74.828799, 10.872984 ], [ -74.829053, 10.874251 ], [ -74.829717, 10.877303 ], [ -74.829882, 10.877999 ], [ -74.829972, 10.878293 ], [ -74.830086, 10.878591 ], [ -74.830228, 10.878888 ], [ -74.830531, 10.879342 ], [ -74.830907, 10.879757 ], [ -74.831097, 10.87993 ], [ -74.83143, 10.880178 ], [ -74.831776, 10.880378 ], [ -74.832238, 10.880576 ], [ -74.832642, 10.880706 ], [ -74.836168, 10.881731 ], [ -74.836718, 10.881949 ], [ -74.837184, 10.882195 ], [ -74.838149, 10.882749 ], [ -74.84226, 10.885142 ], [ -74.842155, 10.885872 ], [ -74.84171, 10.885811 ], [ -74.841023, 10.885754 ], [ -74.83989, 10.885596 ], [ -74.83879, 10.885502 ], [ -74.838183, 10.88551 ], [ -74.837863, 10.88554 ], [ -74.835701, 10.885886 ], [ -74.834812, 10.886108 ], [ -74.834074, 10.886386 ], [ -74.833181, 10.886666 ], [ -74.831469, 10.886986 ], [ -74.830957, 10.887266 ], [ -74.830778, 10.887343 ], [ -74.830308, 10.88749 ], [ -74.830041, 10.887602 ], [ -74.829444, 10.887873 ], [ -74.828966, 10.888118 ], [ -74.828505, 10.888295 ], [ -74.827818, 10.888631 ], [ -74.827577, 10.888794 ], [ -74.827481, 10.888893 ], [ -74.827389, 10.889 ], [ -74.827157, 10.889351 ], [ -74.826757, 10.889631 ], [ -74.826181, 10.889957 ], [ -74.825846, 10.890102 ], [ -74.824156, 10.890721 ], [ -74.823557, 10.890914 ], [ -74.822524, 10.890914 ], [ -74.822727, 10.890253 ], [ -74.822953, 10.889216 ], [ -74.822351, 10.888839 ], [ -74.821992, 10.889057 ], [ -74.821522, 10.890914 ], [ -74.820059, 10.890914 ], [ -74.819876, 10.890893 ], [ -74.819284, 10.890746 ], [ -74.818572, 10.890472 ], [ -74.818539, 10.890452 ], [ -74.818607, 10.890053 ], [ -74.818776, 10.889886 ], [ -74.81895, 10.889654 ], [ -74.819546, 10.88906 ], [ -74.819881, 10.888658 ], [ -74.82005, 10.888326 ], [ -74.820332, 10.887509 ], [ -74.820879, 10.886825 ], [ -74.821196, 10.884118 ], [ -74.820994, 10.880375 ], [ -74.819584, 10.87597 ], [ -74.818633, 10.872601 ], [ -74.818129, 10.869865 ], [ -74.817712, 10.867 ], [ -74.817827, 10.865791 ], [ -74.819267, 10.864006 ], [ -74.819814, 10.862825 ], [ -74.819958, 10.861961 ], [ -74.819932, 10.861939 ], [ -74.819363, 10.861876 ], [ -74.815553, 10.861482 ], [ -74.807687, 10.861321 ], [ -74.805296, 10.861288 ], [ -74.800434, 10.861154 ], [ -74.800371, 10.862077 ], [ -74.800341, 10.862949 ], [ -74.800458, 10.865217 ], [ -74.800588, 10.86603 ], [ -74.800788, 10.866783 ], [ -74.801091, 10.867746 ], [ -74.8012, 10.868204 ], [ -74.801326, 10.868913 ], [ -74.801865, 10.87247 ], [ -74.802356, 10.87585 ], [ -74.801921, 10.876829 ], [ -74.800483, 10.876259 ], [ -74.800106, 10.876839 ], [ -74.799345, 10.877544 ], [ -74.798963, 10.876663 ], [ -74.798322, 10.877378 ], [ -74.797837, 10.877666 ], [ -74.797274, 10.878303 ], [ -74.796511, 10.8775 ], [ -74.79562, 10.876271 ], [ -74.795003, 10.875156 ], [ -74.794343, 10.874133 ], [ -74.793559, 10.873213 ], [ -74.792634, 10.87217 ], [ -74.791665, 10.871221 ], [ -74.790564, 10.870012 ], [ -74.789933, 10.869456 ], [ -74.789475, 10.868947 ], [ -74.788851, 10.868372 ], [ -74.787684, 10.867229 ], [ -74.787269, 10.866869 ], [ -74.786969, 10.866753 ], [ -74.78669, 10.867252 ], [ -74.786575, 10.867668 ], [ -74.78773, 10.868001 ], [ -74.787256, 10.869719 ], [ -74.786844, 10.869925 ], [ -74.786986, 10.87085 ], [ -74.786091, 10.87083 ], [ -74.785503, 10.872235 ], [ -74.785136, 10.873326 ], [ -74.784985, 10.874085 ], [ -74.784796, 10.874813 ], [ -74.784685, 10.874947 ], [ -74.783591, 10.875811 ], [ -74.782859, 10.875738 ], [ -74.784442, 10.876839 ], [ -74.784416, 10.876894 ], [ -74.784898, 10.877159 ], [ -74.784814, 10.877619 ], [ -74.785333, 10.878101 ], [ -74.785256, 10.878305 ], [ -74.785007, 10.878284 ], [ -74.784749, 10.879179 ], [ -74.784894, 10.879527 ], [ -74.786053, 10.879249 ], [ -74.787824, 10.877467 ], [ -74.788713, 10.878275 ], [ -74.789073, 10.87832 ], [ -74.789572, 10.878439 ], [ -74.789799, 10.878434 ], [ -74.789883, 10.878378 ], [ -74.790321, 10.877886 ], [ -74.790381, 10.877911 ], [ -74.790794, 10.878242 ], [ -74.790874, 10.878286 ], [ -74.791002, 10.878125 ], [ -74.791391, 10.878442 ], [ -74.791096, 10.878766 ], [ -74.791827, 10.87939 ], [ -74.791821, 10.879433 ], [ -74.791334, 10.880016 ], [ -74.79132, 10.880065 ], [ -74.792097, 10.880492 ], [ -74.791662, 10.881198 ], [ -74.79146, 10.881465 ], [ -74.791063, 10.881295 ], [ -74.790894, 10.881309 ], [ -74.790795, 10.881378 ], [ -74.790495, 10.882117 ], [ -74.790181, 10.882529 ], [ -74.790118, 10.882655 ], [ -74.790012, 10.883142 ], [ -74.789882, 10.883466 ], [ -74.789558, 10.884809 ], [ -74.788719, 10.884408 ], [ -74.787986, 10.883991 ], [ -74.787917, 10.884012 ], [ -74.783985, 10.888586 ], [ -74.783783, 10.888854 ], [ -74.783698, 10.889074 ], [ -74.784082, 10.889221 ], [ -74.784164, 10.889268 ], [ -74.784212, 10.889367 ], [ -74.783738, 10.890834 ], [ -74.783652, 10.890933 ], [ -74.783544, 10.890945 ], [ -74.782222, 10.890901 ], [ -74.781992, 10.890963 ], [ -74.781973, 10.890998 ], [ -74.781984, 10.891115 ], [ -74.781968, 10.891206 ], [ -74.781698, 10.891969 ], [ -74.781358, 10.892594 ], [ -74.781335, 10.892664 ], [ -74.781344, 10.89269 ], [ -74.781397, 10.892719 ], [ -74.782464, 10.893022 ], [ -74.782659, 10.8931 ], [ -74.782677, 10.89316 ], [ -74.781856, 10.895642 ], [ -74.781757, 10.89567 ], [ -74.781646, 10.895637 ], [ -74.778751, 10.894698 ] ], [ [ -74.783673, 10.889106 ], [ -74.783761, 10.88914 ], [ -74.783633, 10.889091 ], [ -74.783673, 10.889106 ] ] ] } },
{ "type": "Feature", "properties": { "id": null, "NOMBRE": "UFP_2" }, "geometry": { "type": "Polygon", "coordinates": [ [ [ -74.781971, 10.891047 ], [ -74.781992, 10.890963 ], [ -74.782222, 10.890901 ], [ -74.783544, 10.890945 ], [ -74.783652, 10.890933 ], [ -74.783738, 10.890834 ], [ -74.784212, 10.889367 ], [ -74.784164, 10.889268 ], [ -74.784082, 10.889221 ], [ -74.783698, 10.889074 ], [ -74.783817, 10.888798 ], [ -74.787917, 10.884012 ], [ -74.787986, 10.883991 ], [ -74.788719, 10.884408 ], [ -74.789558, 10.884809 ], [ -74.789882, 10.883466 ], [ -74.790012, 10.883142 ], [ -74.790118, 10.882655 ], [ -74.790181, 10.882529 ], [ -74.790495, 10.882117 ], [ -74.790795, 10.881378 ], [ -74.790894, 10.881309 ], [ -74.791063, 10.881295 ], [ -74.79146, 10.881465 ], [ -74.791662, 10.881198 ], [ -74.792097, 10.880492 ], [ -74.79132, 10.880065 ], [ -74.791334, 10.880016 ], [ -74.791821, 10.879433 ], [ -74.791827, 10.87939 ], [ -74.791096, 10.878766 ], [ -74.791391, 10.878442 ], [ -74.791002, 10.878125 ], [ -74.790874, 10.878286 ], [ -74.790794, 10.878242 ], [ -74.790381, 10.877911 ], [ -74.790321, 10.877886 ], [ -74.789883, 10.878378 ], [ -74.789799, 10.878434 ], [ -74.789572, 10.878439 ], [ -74.789073, 10.87832 ], [ -74.788713, 10.878275 ], [ -74.787824, 10.877467 ], [ -74.786053, 10.879249 ], [ -74.784894, 10.879527 ], [ -74.784749, 10.879179 ], [ -74.785007, 10.878284 ], [ -74.785256, 10.878305 ], [ -74.785333, 10.878101 ], [ -74.784814, 10.877619 ], [ -74.784898, 10.877159 ], [ -74.784416, 10.876894 ], [ -74.784442, 10.876839 ], [ -74.782859, 10.875738 ], [ -74.783591, 10.875811 ], [ -74.784685, 10.874947 ], [ -74.784796, 10.874813 ], [ -74.784985, 10.874085 ], [ -74.785136, 10.873326 ], [ -74.785503, 10.872235 ], [ -74.786091, 10.87083 ], [ -74.786986, 10.87085 ], [ -74.786844, 10.869925 ], [ -74.787256, 10.869719 ], [ -74.78773, 10.868001 ], [ -74.786575, 10.867668 ], [ -74.78669, 10.867252 ], [ -74.786969, 10.866753 ], [ -74.787269, 10.866869 ], [ -74.787684, 10.867229 ], [ -74.788851, 10.868372 ], [ -74.789475, 10.868947 ], [ -74.789933, 10.869456 ], [ -74.790564, 10.870012 ], [ -74.791665, 10.871221 ], [ -74.792634, 10.87217 ], [ -74.793559, 10.873213 ], [ -74.794343, 10.874133 ], [ -74.795003, 10.875156 ], [ -74.79562, 10.876271 ], [ -74.796511, 10.8775 ], [ -74.797274, 10.878303 ], [ -74.797837, 10.877666 ], [ -74.798322, 10.877378 ], [ -74.798963, 10.876663 ], [ -74.799345, 10.877544 ], [ -74.800106, 10.876839 ], [ -74.800483, 10.876259 ], [ -74.801921, 10.876829 ], [ -74.802356, 10.87585 ], [ -74.801865, 10.87247 ], [ -74.801326, 10.868913 ], [ -74.8012, 10.868204 ], [ -74.801091, 10.867746 ], [ -74.800788, 10.866783 ], [ -74.800588, 10.86603 ], [ -74.800458, 10.865217 ], [ -74.800341, 10.862949 ], [ -74.800371, 10.862077 ], [ -74.800434, 10.861154 ], [ -74.805296, 10.861288 ], [ -74.807687, 10.861321 ], [ -74.815553, 10.861482 ], [ -74.816131, 10.86153 ], [ -74.819932, 10.861939 ], [ -74.819958, 10.861961 ], [ -74.819814, 10.862825 ], [ -74.819267, 10.864006 ], [ -74.817827, 10.865791 ], [ -74.817712, 10.867 ], [ -74.818129, 10.869865 ], [ -74.818633, 10.872601 ], [ -74.819584, 10.87597 ], [ -74.820994, 10.880375 ], [ -74.821196, 10.884118 ], [ -74.820879, 10.886825 ], [ -74.820332, 10.887509 ], [ -74.82005, 10.888326 ], [ -74.819881, 10.888658 ], [ -74.819546, 10.88906 ], [ -74.81895, 10.889654 ], [ -74.818776, 10.889886 ], [ -74.818607, 10.890053 ], [ -74.818539, 10.890452 ], [ -74.819284, 10.890746 ], [ -74.819876, 10.890893 ], [ -74.820059, 10.890914 ], [ -74.821522, 10.890914 ], [ -74.821992, 10.889057 ], [ -74.822351, 10.888839 ], [ -74.822953, 10.889216 ], [ -74.822727, 10.890253 ], [ -74.822524, 10.890914 ], [ -74.823557, 10.890914 ], [ -74.824156, 10.890721 ], [ -74.825846, 10.890102 ], [ -74.826181, 10.889957 ], [ -74.826757, 10.889631 ], [ -74.827157, 10.889351 ], [ -74.827389, 10.889 ], [ -74.827481, 10.888893 ], [ -74.827577, 10.888794 ], [ -74.827818, 10.888631 ], [ -74.828505, 10.888295 ], [ -74.828966, 10.888118 ], [ -74.829444, 10.887873 ], [ -74.830041, 10.887602 ], [ -74.830308, 10.88749 ], [ -74.830778, 10.887343 ], [ -74.830957, 10.887266 ], [ -74.831469, 10.886986 ], [ -74.833181, 10.886666 ], [ -74.834074, 10.886386 ], [ -74.834812, 10.886108 ], [ -74.835701, 10.885886 ], [ -74.837863, 10.88554 ], [ -74.838183, 10.88551 ], [ -74.839013, 10.885501 ], [ -74.83908, 10.885514 ], [ -74.839039, 10.886253 ], [ -74.838994, 10.886674 ], [ -74.83894, 10.886997 ], [ -74.83868, 10.888053 ], [ -74.838627, 10.88838 ], [ -74.83851, 10.888606 ], [ -74.837907, 10.889429 ], [ -74.837758, 10.889838 ], [ -74.83764, 10.890326 ], [ -74.837613, 10.890771 ], [ -74.837505, 10.891766 ], [ -74.837401, 10.892097 ], [ -74.837262, 10.892427 ], [ -74.836554, 10.894579 ], [ -74.836501, 10.894832 ], [ -74.836366, 10.895869 ], [ -74.836255, 10.896467 ], [ -74.836252, 10.896588 ], [ -74.836359, 10.897343 ], [ -74.836553, 10.898084 ], [ -74.836553, 10.898292 ], [ -74.836483, 10.898958 ], [ -74.836401, 10.899425 ], [ -74.836369, 10.899746 ], [ -74.836083, 10.900738 ], [ -74.836022, 10.900805 ], [ -74.835969, 10.90083 ], [ -74.835817, 10.900827 ], [ -74.835675, 10.900877 ], [ -74.835365, 10.901093 ], [ -74.835057, 10.901368 ], [ -74.834637, 10.901805 ], [ -74.834301, 10.902469 ], [ -74.833928, 10.903299 ], [ -74.833808, 10.903524 ], [ -74.833568, 10.903855 ], [ -74.833425, 10.904184 ], [ -74.833318, 10.90433 ], [ -74.833171, 10.904435 ], [ -74.832542, 10.904785 ], [ -74.832358, 10.904976 ], [ -74.8319, 10.905301 ], [ -74.831447, 10.905722 ], [ -74.830707, 10.906272 ], [ -74.830568, 10.906452 ], [ -74.830466, 10.906825 ], [ -74.830416, 10.906941 ], [ -74.830242, 10.907259 ], [ -74.830184, 10.907316 ], [ -74.829808, 10.907474 ], [ -74.829435, 10.90771 ], [ -74.828985, 10.907865 ], [ -74.82859, 10.907925 ], [ -74.82844, 10.908022 ], [ -74.828351, 10.908123 ], [ -74.828187, 10.908369 ], [ -74.828125, 10.908499 ], [ -74.828097, 10.908642 ], [ -74.828075, 10.909538 ], [ -74.828125, 10.909988 ], [ -74.828233, 10.910319 ], [ -74.828427, 10.910762 ], [ -74.828481, 10.910961 ], [ -74.828497, 10.911046 ], [ -74.828467, 10.911166 ], [ -74.828394, 10.911348 ], [ -74.828299, 10.911457 ], [ -74.827944, 10.911727 ], [ -74.827744, 10.911833 ], [ -74.827671, 10.911936 ], [ -74.827539, 10.912157 ], [ -74.827324, 10.912665 ], [ -74.827224, 10.913142 ], [ -74.827174, 10.913299 ], [ -74.827103, 10.913429 ], [ -74.827001, 10.913552 ], [ -74.826714, 10.91383 ], [ -74.826464, 10.914048 ], [ -74.826677, 10.913863 ], [ -74.827619, 10.914464 ], [ -74.827847, 10.91459 ], [ -74.828296, 10.914771 ], [ -74.829401, 10.914856 ], [ -74.830186, 10.915075 ], [ -74.830914, 10.915349 ], [ -74.831741, 10.915557 ], [ -74.832119, 10.915619 ], [ -74.832288, 10.915693 ], [ -74.833106, 10.916513 ], [ -74.833368, 10.916893 ], [ -74.83348, 10.917112 ], [ -74.833617, 10.917187 ], [ -74.83389, 10.917231 ], [ -74.833976, 10.917282 ], [ -74.834001, 10.917329 ], [ -74.834002, 10.917458 ], [ -74.833941, 10.917705 ], [ -74.833918, 10.917918 ], [ -74.833954, 10.918001 ], [ -74.834144, 10.918111 ], [ -74.834623, 10.918327 ], [ -74.835407, 10.918768 ], [ -74.836196, 10.919369 ], [ -74.83685, 10.919779 ], [ -74.837133, 10.919981 ], [ -74.83806, 10.920742 ], [ -74.83866, 10.921119 ], [ -74.839195, 10.921384 ], [ -74.839665, 10.921568 ], [ -74.840038, 10.921686 ], [ -74.840444, 10.921756 ], [ -74.843923, 10.925897 ], [ -74.84552, 10.928165 ], [ -74.847447, 10.930599 ], [ -74.850534, 10.934566 ], [ -74.849394, 10.935406 ], [ -74.849226, 10.935161 ], [ -74.848807, 10.93545 ], [ -74.849801, 10.937663 ], [ -74.851833, 10.936199 ], [ -74.852551, 10.937086 ], [ -74.853262, 10.938057 ], [ -74.853635, 10.938431 ], [ -74.855119, 10.93805 ], [ -74.855334, 10.938372 ], [ -74.85717, 10.939261 ], [ -74.857484, 10.939357 ], [ -74.860053, 10.939812 ], [ -74.860364, 10.93854 ], [ -74.861864, 10.938929 ], [ -74.86361, 10.939201 ], [ -74.867554, 10.939461 ], [ -74.875271, 10.944183 ], [ -74.881145, 10.947005 ], [ -74.887019, 10.948617 ], [ -74.891108, 10.950863 ], [ -74.896348, 10.952821 ], [ -74.896513, 10.953196 ], [ -74.896578, 10.953456 ], [ -74.89703, 10.954639 ], [ -74.897667, 10.956201 ], [ -74.89898, 10.959608 ], [ -74.900326, 10.962869 ], [ -74.900912, 10.964352 ], [ -74.901038, 10.964723 ], [ -74.901171, 10.96545 ], [ -74.901168, 10.966069 ], [ -74.901139, 10.966404 ], [ -74.901046, 10.966774 ], [ -74.90088, 10.967253 ], [ -74.900614, 10.967746 ], [ -74.900318, 10.968146 ], [ -74.89984, 10.968603 ], [ -74.89583, 10.971583 ], [ -74.893951, 10.972908 ], [ -74.893541, 10.973231 ], [ -74.893145, 10.973559 ], [ -74.892566, 10.974185 ], [ -74.892105, 10.974801 ], [ -74.891965, 10.975056 ], [ -74.891615, 10.975809 ], [ -74.891349, 10.976546 ], [ -74.891223, 10.977284 ], [ -74.890892, 10.979959 ], [ -74.890129, 10.985757 ], [ -74.889859, 10.987978 ], [ -74.889722, 10.988863 ], [ -74.889632, 10.989295 ], [ -74.889452, 10.989741 ], [ -74.889316, 10.989986 ], [ -74.885311, 10.996229 ], [ -74.879395, 11.005389 ], [ -74.876708, 11.009591 ], [ -74.876402, 11.010104 ], [ -74.876184, 11.010633 ], [ -74.876087, 11.011003 ], [ -74.876035, 11.011275 ], [ -74.875999, 11.0119 ], [ -74.876024, 11.012251 ], [ -74.876145, 11.012952 ], [ -74.876485, 11.014312 ], [ -74.874292, 11.014559 ], [ -74.870938, 11.01502 ], [ -74.869491, 11.015185 ], [ -74.862379, 11.016107 ], [ -74.86086, 11.016272 ], [ -74.858758, 11.016531 ], [ -74.85419, 11.017125 ], [ -74.853456, 11.017158 ], [ -74.852459, 11.017118 ], [ -74.851703, 11.017025 ], [ -74.851192, 11.016931 ], [ -74.850152, 11.01665 ], [ -74.849465, 11.016409 ], [ -74.848619, 11.015995 ], [ -74.84421, 11.013648 ], [ -74.8425, 11.012702 ], [ -74.840339, 11.011538 ], [ -74.840402, 11.011417 ], [ -74.841585, 11.008191 ], [ -74.841831, 11.00701 ], [ -74.841935, 11.006441 ], [ -74.842043, 11.005663 ], [ -74.842169, 11.005037 ], [ -74.842232, 11.00421 ], [ -74.842026, 11.003186 ], [ -74.841681, 11.0023 ], [ -74.841424, 11.001518 ], [ -74.840178, 10.998146 ], [ -74.839602, 10.99653 ], [ -74.839087, 10.995176 ], [ -74.83849, 10.993503 ], [ -74.838166, 10.992736 ], [ -74.837867, 10.991789 ], [ -74.837105, 10.989827 ], [ -74.836629, 10.988291 ], [ -74.836374, 10.987083 ], [ -74.836294, 10.98662 ], [ -74.836176, 10.9854 ], [ -74.836142, 10.984782 ], [ -74.83616, 10.983076 ], [ -74.836135, 10.981506 ], [ -74.835594, 10.981566 ], [ -74.835082, 10.981686 ], [ -74.834745, 10.981704 ], [ -74.834758, 10.981395 ], [ -74.834892, 10.980304 ], [ -74.834203, 10.980468 ], [ -74.834229, 10.979545 ], [ -74.834205, 10.978415 ], [ -74.834008, 10.978383 ], [ -74.83395, 10.978116 ], [ -74.833665, 10.976098 ], [ -74.833477, 10.97552 ], [ -74.832211, 10.975944 ], [ -74.831956, 10.975274 ], [ -74.830898, 10.973148 ], [ -74.830445, 10.972196 ], [ -74.830213, 10.971105 ], [ -74.830101, 10.9707 ], [ -74.829901, 10.969402 ], [ -74.829219, 10.969576 ], [ -74.829121, 10.968824 ], [ -74.828964, 10.967854 ], [ -74.828839, 10.967413 ], [ -74.828709, 10.967126 ], [ -74.828382, 10.967248 ], [ -74.828262, 10.967269 ], [ -74.828146, 10.96652 ], [ -74.827994, 10.965894 ], [ -74.827904, 10.964849 ], [ -74.827736, 10.964006 ], [ -74.827576, 10.963522 ], [ -74.827536, 10.963347 ], [ -74.827374, 10.962951 ], [ -74.827155, 10.962564 ], [ -74.826712, 10.9616 ], [ -74.826577, 10.961398 ], [ -74.825912, 10.960874 ], [ -74.825245, 10.960609 ], [ -74.825282, 10.960536 ], [ -74.825508, 10.960284 ], [ -74.826133, 10.959702 ], [ -74.825482, 10.958904 ], [ -74.8247, 10.9579 ], [ -74.824375, 10.957375 ], [ -74.823699, 10.956558 ], [ -74.823659, 10.956414 ], [ -74.823632, 10.956102 ], [ -74.823625, 10.955638 ], [ -74.823729, 10.952324 ], [ -74.821735, 10.952236 ], [ -74.821699, 10.95089 ], [ -74.821759, 10.948466 ], [ -74.821784, 10.945741 ], [ -74.818346, 10.946885 ], [ -74.818129, 10.9464 ], [ -74.817934, 10.945889 ], [ -74.817766, 10.945607 ], [ -74.817501, 10.945342 ], [ -74.817809, 10.944915 ], [ -74.817851, 10.944821 ], [ -74.818105, 10.943961 ], [ -74.817712, 10.943863 ], [ -74.817441, 10.943897 ], [ -74.817309, 10.943847 ], [ -74.817068, 10.943683 ], [ -74.817224, 10.94326 ], [ -74.81744, 10.94258 ], [ -74.817489, 10.942516 ], [ -74.817616, 10.942136 ], [ -74.817999, 10.941267 ], [ -74.81764, 10.941072 ], [ -74.817932, 10.940566 ], [ -74.81828, 10.940078 ], [ -74.817559, 10.939556 ], [ -74.816443, 10.938244 ], [ -74.816375, 10.938138 ], [ -74.815739, 10.93736 ], [ -74.814976, 10.936309 ], [ -74.815043, 10.936286 ], [ -74.815603, 10.936233 ], [ -74.815593, 10.936168 ], [ -74.815494, 10.935861 ], [ -74.815286, 10.935478 ], [ -74.81499, 10.935034 ], [ -74.814739, 10.934545 ], [ -74.814647, 10.93444 ], [ -74.814526, 10.934362 ], [ -74.814194, 10.93424 ], [ -74.81406, 10.934172 ], [ -74.813782, 10.934007 ], [ -74.813263, 10.933652 ], [ -74.812549, 10.93329 ], [ -74.811897, 10.932863 ], [ -74.812197, 10.932232 ], [ -74.812468, 10.931785 ], [ -74.812585, 10.931537 ], [ -74.812673, 10.931263 ], [ -74.812841, 10.93092 ], [ -74.813706, 10.929509 ], [ -74.813848, 10.929176 ], [ -74.813854, 10.928492 ], [ -74.813881, 10.928357 ], [ -74.813902, 10.92799 ], [ -74.814342, 10.926793 ], [ -74.814377, 10.926507 ], [ -74.814364, 10.926283 ], [ -74.814396, 10.926035 ], [ -74.814424, 10.925898 ], [ -74.814548, 10.925608 ], [ -74.814875, 10.924974 ], [ -74.815052, 10.92456 ], [ -74.815478, 10.924092 ], [ -74.816382, 10.922787 ], [ -74.81598, 10.922689 ], [ -74.815275, 10.922586 ], [ -74.814343, 10.92256 ], [ -74.813308, 10.922642 ], [ -74.811568, 10.922725 ], [ -74.810921, 10.922783 ], [ -74.807648, 10.922928 ], [ -74.805213, 10.923098 ], [ -74.803479, 10.923176 ], [ -74.801878, 10.923294 ], [ -74.797893, 10.923495 ], [ -74.796514, 10.923618 ], [ -74.79395, 10.924071 ], [ -74.792359, 10.924375 ], [ -74.790625, 10.925163 ], [ -74.788993, 10.926089 ], [ -74.788087, 10.926748 ], [ -74.78559, 10.928946 ], [ -74.784797, 10.929667 ], [ -74.783196, 10.931443 ], [ -74.780983, 10.933368 ], [ -74.780687, 10.934169 ], [ -74.780476, 10.935723 ], [ -74.780023, 10.936892 ], [ -74.779106, 10.938972 ], [ -74.776697, 10.944634 ], [ -74.776018, 10.946137 ], [ -74.775336, 10.947756 ], [ -74.77505, 10.948621 ], [ -74.774937, 10.948822 ], [ -74.774677, 10.949041 ], [ -74.773672, 10.949331 ], [ -74.773487, 10.948357 ], [ -74.773262, 10.947634 ], [ -74.773038, 10.947065 ], [ -74.772957, 10.946916 ], [ -74.772719, 10.946603 ], [ -74.771657, 10.945408 ], [ -74.770897, 10.944478 ], [ -74.769564, 10.941114 ], [ -74.769156, 10.940383 ], [ -74.76862, 10.939508 ], [ -74.768216, 10.938762 ], [ -74.766706, 10.936203 ], [ -74.765565, 10.934602 ], [ -74.764633, 10.933975 ], [ -74.764301, 10.933729 ], [ -74.763724, 10.93336 ], [ -74.763465, 10.933514 ], [ -74.76275, 10.933673 ], [ -74.761814, 10.932638 ], [ -74.761329, 10.932539 ], [ -74.761012, 10.932421 ], [ -74.760872, 10.932253 ], [ -74.760767, 10.932041 ], [ -74.760569, 10.931876 ], [ -74.760101, 10.931614 ], [ -74.759853, 10.931366 ], [ -74.759622, 10.931185 ], [ -74.75938, 10.930915 ], [ -74.75944, 10.930601 ], [ -74.759556, 10.930293 ], [ -74.759611, 10.929907 ], [ -74.759793, 10.929704 ], [ -74.760101, 10.929533 ], [ -74.760101, 10.929114 ], [ -74.760145, 10.928894 ], [ -74.760354, 10.92841 ], [ -74.760531, 10.928151 ], [ -74.760349, 10.927809 ], [ -74.760398, 10.927352 ], [ -74.76074, 10.926813 ], [ -74.760575, 10.925855 ], [ -74.760255, 10.92591 ], [ -74.759121, 10.926218 ], [ -74.757954, 10.926857 ], [ -74.757524, 10.92667 ], [ -74.756941, 10.925987 ], [ -74.758449, 10.924996 ], [ -74.75824, 10.924699 ], [ -74.758075, 10.924269 ], [ -74.75726, 10.92395 ], [ -74.75726, 10.923619 ], [ -74.757987, 10.923201 ], [ -74.758416, 10.923884 ], [ -74.759881, 10.923047 ], [ -74.760288, 10.923465 ], [ -74.761114, 10.923069 ], [ -74.761216, 10.922822 ], [ -74.76122, 10.922715 ], [ -74.759411, 10.922469 ], [ -74.759439, 10.922267 ], [ -74.759344, 10.92221 ], [ -74.758395, 10.922115 ], [ -74.758522, 10.920915 ], [ -74.758357, 10.920866 ], [ -74.758346, 10.920689 ], [ -74.758274, 10.920541 ], [ -74.758285, 10.920133 ], [ -74.758082, 10.919996 ], [ -74.75796, 10.919726 ], [ -74.758082, 10.919324 ], [ -74.758335, 10.919252 ], [ -74.75872, 10.919247 ], [ -74.759238, 10.919329 ], [ -74.759673, 10.919423 ], [ -74.760124, 10.918079 ], [ -74.759992, 10.918024 ], [ -74.759403, 10.91765 ], [ -74.758808, 10.917419 ], [ -74.758417, 10.917355 ], [ -74.758305, 10.917303 ], [ -74.757823, 10.916948 ], [ -74.757553, 10.91689 ], [ -74.757234, 10.916852 ], [ -74.756821, 10.916865 ], [ -74.756534, 10.916981 ], [ -74.756421, 10.917088 ], [ -74.756113, 10.917306 ], [ -74.755791, 10.917611 ], [ -74.755273, 10.918013 ], [ -74.755094, 10.918129 ], [ -74.754792, 10.918491 ], [ -74.75439, 10.918831 ], [ -74.754131, 10.919112 ], [ -74.753711, 10.919412 ], [ -74.753156, 10.918831 ], [ -74.753517, 10.918275 ], [ -74.753962, 10.917734 ], [ -74.754145, 10.917565 ], [ -74.754446, 10.917222 ], [ -74.754609, 10.917077 ], [ -74.754847, 10.916775 ], [ -74.754946, 10.916693 ], [ -74.755355, 10.916561 ], [ -74.755863, 10.916435 ], [ -74.756605, 10.916377 ], [ -74.756932, 10.916319 ], [ -74.75775, 10.916287 ], [ -74.758091, 10.9163 ], [ -74.758273, 10.916327 ], [ -74.758868, 10.916315 ], [ -74.758852, 10.916133 ], [ -74.759035, 10.91613 ], [ -74.759809, 10.915993 ], [ -74.760071, 10.915841 ], [ -74.760225, 10.915635 ], [ -74.760382, 10.915574 ], [ -74.760616, 10.915822 ], [ -74.760737, 10.915426 ], [ -74.760825, 10.915293 ], [ -74.76085, 10.915059 ], [ -74.760875, 10.91368 ], [ -74.761326, 10.91259 ], [ -74.761579, 10.911731 ], [ -74.761601, 10.910685 ], [ -74.762174, 10.90944 ], [ -74.763573, 10.909859 ], [ -74.764105, 10.9101 ], [ -74.764357, 10.908996 ], [ -74.765969, 10.904389 ], [ -74.766122, 10.903441 ], [ -74.766516, 10.903367 ], [ -74.766808, 10.903389 ], [ -74.767193, 10.903455 ], [ -74.767468, 10.903384 ], [ -74.767672, 10.903252 ], [ -74.767843, 10.903108 ], [ -74.768316, 10.902668 ], [ -74.768839, 10.902591 ], [ -74.769737, 10.902558 ], [ -74.770579, 10.902596 ], [ -74.771069, 10.902695 ], [ -74.771367, 10.902795 ], [ -74.771488, 10.902673 ], [ -74.771906, 10.902382 ], [ -74.772385, 10.9022 ], [ -74.772933, 10.901564 ], [ -74.773241, 10.90128 ], [ -74.774015, 10.900292 ], [ -74.774991, 10.899182 ], [ -74.775248, 10.898864 ], [ -74.775498, 10.898553 ], [ -74.775482, 10.898487 ], [ -74.778751, 10.894698 ], [ -74.781646, 10.895637 ], [ -74.781757, 10.89567 ], [ -74.781856, 10.895642 ], [ -74.782677, 10.89316 ], [ -74.782659, 10.8931 ], [ -74.782464, 10.893022 ], [ -74.781397, 10.892719 ], [ -74.781344, 10.89269 ], [ -74.781335, 10.892664 ], [ -74.781358, 10.892594 ], [ -74.781698, 10.891969 ], [ -74.781968, 10.891206 ], [ -74.781984, 10.891115 ], [ -74.781971, 10.891047 ] ] ] } },
{ "type": "Feature", "properties": { "id": null, "NOMBRE": "UFP_3" }, "geometry": { "type": "Polygon", "coordinates": [ [ [ -74.849813, 10.937424 ], [ -74.849456, 10.936895 ], [ -74.848807, 10.93545 ], [ -74.849226, 10.935161 ], [ -74.849394, 10.935406 ], [ -74.850534, 10.934566 ], [ -74.847447, 10.930599 ], [ -74.84552, 10.928165 ], [ -74.843923, 10.925897 ], [ -74.840444, 10.921756 ], [ -74.840038, 10.921686 ], [ -74.839701, 10.92158 ], [ -74.839306, 10.921381 ], [ -74.838893, 10.921239 ], [ -74.83866, 10.921119 ], [ -74.837722, 10.920455 ], [ -74.836985, 10.919873 ], [ -74.836287, 10.919417 ], [ -74.83514, 10.91857 ], [ -74.834771, 10.918408 ], [ -74.834486, 10.918255 ], [ -74.834144, 10.918111 ], [ -74.833954, 10.918001 ], [ -74.833918, 10.917918 ], [ -74.833941, 10.917705 ], [ -74.834002, 10.917458 ], [ -74.834001, 10.917329 ], [ -74.833976, 10.917282 ], [ -74.83389, 10.917231 ], [ -74.833675, 10.917183 ], [ -74.833473, 10.916924 ], [ -74.833022, 10.916418 ], [ -74.832288, 10.915693 ], [ -74.832119, 10.915619 ], [ -74.831741, 10.915557 ], [ -74.830914, 10.915349 ], [ -74.830186, 10.915075 ], [ -74.829401, 10.914856 ], [ -74.828296, 10.914771 ], [ -74.827847, 10.91459 ], [ -74.827619, 10.914464 ], [ -74.826677, 10.913863 ], [ -74.827075, 10.913494 ], [ -74.827164, 10.913357 ], [ -74.827297, 10.912781 ], [ -74.827415, 10.912473 ], [ -74.827562, 10.912176 ], [ -74.827739, 10.911919 ], [ -74.827914, 10.911742 ], [ -74.828299, 10.911457 ], [ -74.828394, 10.911348 ], [ -74.828467, 10.911166 ], [ -74.828497, 10.911046 ], [ -74.828481, 10.910961 ], [ -74.828427, 10.910762 ], [ -74.828233, 10.910319 ], [ -74.828125, 10.909988 ], [ -74.828075, 10.909538 ], [ -74.828097, 10.908642 ], [ -74.828125, 10.908499 ], [ -74.828257, 10.908275 ], [ -74.828438, 10.908061 ], [ -74.828743, 10.907901 ], [ -74.828985, 10.907865 ], [ -74.829435, 10.90771 ], [ -74.829808, 10.907474 ], [ -74.830184, 10.907316 ], [ -74.830242, 10.907259 ], [ -74.830416, 10.906941 ], [ -74.830466, 10.906825 ], [ -74.830568, 10.906452 ], [ -74.83063, 10.906357 ], [ -74.830781, 10.906203 ], [ -74.831387, 10.90577 ], [ -74.831696, 10.905486 ], [ -74.832129, 10.905177 ], [ -74.832129, 10.90522 ], [ -74.832424, 10.905006 ], [ -74.832824, 10.904759 ], [ -74.833316, 10.904423 ], [ -74.833416, 10.904301 ], [ -74.833473, 10.904128 ], [ -74.83357, 10.903975 ], [ -74.833826, 10.903647 ], [ -74.834379, 10.902441 ], [ -74.834492, 10.902138 ], [ -74.834741, 10.901773 ], [ -74.834999, 10.901506 ], [ -74.835164, 10.901433 ], [ -74.835914, 10.900982 ], [ -74.836076, 10.900822 ], [ -74.836369, 10.899746 ], [ -74.836459, 10.899229 ], [ -74.836527, 10.8986 ], [ -74.836553, 10.898084 ], [ -74.836368, 10.897372 ], [ -74.836376, 10.896667 ], [ -74.836453, 10.895683 ], [ -74.836591, 10.894758 ], [ -74.836673, 10.894373 ], [ -74.836684, 10.894215 ], [ -74.83702, 10.893168 ], [ -74.837349, 10.892294 ], [ -74.837505, 10.891766 ], [ -74.837613, 10.890771 ], [ -74.837636, 10.890398 ], [ -74.837707, 10.890158 ], [ -74.837967, 10.889531 ], [ -74.838362, 10.888868 ], [ -74.838627, 10.88838 ], [ -74.838664, 10.888149 ], [ -74.838966, 10.887009 ], [ -74.83906, 10.886382 ], [ -74.839111, 10.885832 ], [ -74.839116, 10.885528 ], [ -74.83989, 10.885596 ], [ -74.841023, 10.885754 ], [ -74.84171, 10.885811 ], [ -74.842155, 10.885872 ], [ -74.84226, 10.885142 ], [ -74.839926, 10.883794 ], [ -74.840395, 10.883505 ], [ -74.84089, 10.883294 ], [ -74.841148, 10.882957 ], [ -74.841237, 10.883023 ], [ -74.841337, 10.882941 ], [ -74.841518, 10.882677 ], [ -74.841999, 10.881635 ], [ -74.842541, 10.880809 ], [ -74.84265, 10.880689 ], [ -74.842922, 10.880455 ], [ -74.844183, 10.879256 ], [ -74.844533, 10.878795 ], [ -74.844828, 10.878274 ], [ -74.844954, 10.877951 ], [ -74.845104, 10.877358 ], [ -74.844861, 10.877192 ], [ -74.844728, 10.877019 ], [ -74.84463, 10.876804 ], [ -74.844599, 10.876433 ], [ -74.84455, 10.876349 ], [ -74.844405, 10.876278 ], [ -74.844308, 10.876254 ], [ -74.843885, 10.876243 ], [ -74.843588, 10.876208 ], [ -74.843401, 10.876143 ], [ -74.842989, 10.875965 ], [ -74.842825, 10.875857 ], [ -74.842734, 10.87578 ], [ -74.842637, 10.875607 ], [ -74.84257, 10.875356 ], [ -74.84258, 10.874674 ], [ -74.84285, 10.873597 ], [ -74.842812, 10.873304 ], [ -74.842758, 10.873209 ], [ -74.842643, 10.873095 ], [ -74.842382, 10.872911 ], [ -74.842025, 10.87272 ], [ -74.841831, 10.872649 ], [ -74.841401, 10.872518 ], [ -74.841159, 10.872423 ], [ -74.840324, 10.872348 ], [ -74.839785, 10.872224 ], [ -74.83924, 10.872046 ], [ -74.838909, 10.871891 ], [ -74.838854, 10.871806 ], [ -74.839581, 10.871264 ], [ -74.840027, 10.870838 ], [ -74.840685, 10.870155 ], [ -74.841343, 10.869567 ], [ -74.842019, 10.869039 ], [ -74.842617, 10.868631 ], [ -74.843203, 10.868325 ], [ -74.843698, 10.86809 ], [ -74.844218, 10.867874 ], [ -74.844381, 10.867795 ], [ -74.844592, 10.867657 ], [ -74.844888, 10.867537 ], [ -74.84513, 10.867483 ], [ -74.845723, 10.867403 ], [ -74.845832, 10.867373 ], [ -74.846315, 10.867193 ], [ -74.847028, 10.866868 ], [ -74.847306, 10.866837 ], [ -74.847445, 10.866843 ], [ -74.847809, 10.86692 ], [ -74.848123, 10.866961 ], [ -74.848559, 10.866918 ], [ -74.848958, 10.866813 ], [ -74.848966, 10.866757 ], [ -74.849088, 10.866774 ], [ -74.849254, 10.866725 ], [ -74.850148, 10.86634 ], [ -74.851169, 10.865811 ], [ -74.851882, 10.865528 ], [ -74.852481, 10.865371 ], [ -74.852765, 10.865347 ], [ -74.853067, 10.86528 ], [ -74.853744, 10.865009 ], [ -74.853925, 10.864973 ], [ -74.854318, 10.864942 ], [ -74.854796, 10.864875 ], [ -74.855891, 10.864591 ], [ -74.855937, 10.86466 ], [ -74.85631, 10.86454 ], [ -74.856974, 10.864246 ], [ -74.857518, 10.864029 ], [ -74.85805, 10.863753 ], [ -74.858442, 10.863501 ], [ -74.858726, 10.86335 ], [ -74.859204, 10.863128 ], [ -74.859439, 10.863056 ], [ -74.859772, 10.862989 ], [ -74.86034, 10.862987 ], [ -74.860915, 10.863052 ], [ -74.861042, 10.863051 ], [ -74.861205, 10.862991 ], [ -74.861501, 10.862829 ], [ -74.861731, 10.862619 ], [ -74.861827, 10.862505 ], [ -74.862086, 10.861984 ], [ -74.86241, 10.860979 ], [ -74.864085, 10.860969 ], [ -74.866554, 10.860998 ], [ -74.86685, 10.860986 ], [ -74.866989, 10.860913 ], [ -74.867164, 10.860799 ], [ -74.867381, 10.86059 ], [ -74.867526, 10.86038 ], [ -74.867742, 10.859931 ], [ -74.867978, 10.859631 ], [ -74.868128, 10.859475 ], [ -74.868593, 10.85911 ], [ -74.869167, 10.858725 ], [ -74.8693, 10.858695 ], [ -74.869535, 10.858587 ], [ -74.869614, 10.858521 ], [ -74.869801, 10.858269 ], [ -74.869903, 10.858066 ], [ -74.869999, 10.857784 ], [ -74.870161, 10.857407 ], [ -74.870335, 10.856893 ], [ -74.87063, 10.856336 ], [ -74.870787, 10.85612 ], [ -74.87095, 10.85594 ], [ -74.871125, 10.855653 ], [ -74.87125, 10.85521 ], [ -74.87125, 10.854959 ], [ -74.871279, 10.854678 ], [ -74.871363, 10.854492 ], [ -74.871478, 10.854343 ], [ -74.87161, 10.854091 ], [ -74.871664, 10.853924 ], [ -74.871717, 10.853272 ], [ -74.871824, 10.853104 ], [ -74.874622, 10.852937 ], [ -74.876144, 10.852888 ], [ -74.88071, 10.852966 ], [ -74.882115, 10.852442 ], [ -74.883864, 10.851857 ], [ -74.88568, 10.85137 ], [ -74.88804, 10.850589 ], [ -74.889005, 10.85025 ], [ -74.889493, 10.850136 ], [ -74.891207, 10.849829 ], [ -74.891957, 10.850017 ], [ -74.892366, 10.850072 ], [ -74.892787, 10.850251 ], [ -74.892958, 10.850767 ], [ -74.89346, 10.85163 ], [ -74.894053, 10.85228 ], [ -74.894349, 10.852795 ], [ -74.89536, 10.852658 ], [ -74.895117, 10.851255 ], [ -74.895376, 10.850368 ], [ -74.896032, 10.849232 ], [ -74.899515, 10.843643 ], [ -74.899764, 10.843867 ], [ -74.901008, 10.845205 ], [ -74.901228, 10.845392 ], [ -74.901565, 10.845608 ], [ -74.901796, 10.845804 ], [ -74.901976, 10.846168 ], [ -74.902022, 10.846464 ], [ -74.902034, 10.847159 ], [ -74.901996, 10.847927 ], [ -74.901974, 10.848189 ], [ -74.901908, 10.848601 ], [ -74.901894, 10.848971 ], [ -74.901929, 10.849049 ], [ -74.902133, 10.849174 ], [ -74.902475, 10.849264 ], [ -74.902615, 10.84927 ], [ -74.902861, 10.849224 ], [ -74.902963, 10.849187 ], [ -74.903107, 10.849211 ], [ -74.903205, 10.849247 ], [ -74.903471, 10.849399 ], [ -74.903784, 10.849491 ], [ -74.904442, 10.849521 ], [ -74.905076, 10.849441 ], [ -74.905216, 10.849495 ], [ -74.905964, 10.84859 ], [ -74.906206, 10.848406 ], [ -74.906703, 10.84798 ], [ -74.907052, 10.847768 ], [ -74.907224, 10.847719 ], [ -74.907502, 10.847682 ], [ -74.907715, 10.847541 ], [ -74.907874, 10.847372 ], [ -74.908077, 10.847211 ], [ -74.908778, 10.846816 ], [ -74.909865, 10.846153 ], [ -74.910291, 10.84571 ], [ -74.910443, 10.845494 ], [ -74.910737, 10.84496 ], [ -74.910863, 10.844911 ], [ -74.911207, 10.844874 ], [ -74.911881, 10.844938 ], [ -74.912242, 10.844889 ], [ -74.91238, 10.844907 ], [ -74.912508, 10.844961 ], [ -74.912661, 10.845114 ], [ -74.912786, 10.845387 ], [ -74.912918, 10.845555 ], [ -74.91305, 10.845688 ], [ -74.913367, 10.845934 ], [ -74.913378, 10.84597 ], [ -74.913643, 10.845947 ], [ -74.913926, 10.845897 ], [ -74.913987, 10.845864 ], [ -74.914097, 10.845953 ], [ -74.914217, 10.846091 ], [ -74.914267, 10.846268 ], [ -74.914288, 10.846494 ], [ -74.91421, 10.846985 ], [ -74.914266, 10.84745 ], [ -74.91446, 10.847589 ], [ -74.914991, 10.84771 ], [ -74.917307, 10.847669 ], [ -74.918173, 10.847701 ], [ -74.919129, 10.847874 ], [ -74.919695, 10.848099 ], [ -74.920137, 10.848203 ], [ -74.920898, 10.848446 ], [ -74.921001, 10.848678 ], [ -74.920927, 10.848973 ], [ -74.920348, 10.849771 ], [ -74.920221, 10.849912 ], [ -74.920125, 10.850185 ], [ -74.920125, 10.850354 ], [ -74.920215, 10.850494 ], [ -74.920328, 10.850612 ], [ -74.9205, 10.850943 ], [ -74.92059, 10.851076 ], [ -74.920687, 10.851179 ], [ -74.920762, 10.851296 ], [ -74.921173, 10.85173 ], [ -74.921435, 10.851951 ], [ -74.921817, 10.852333 ], [ -74.922026, 10.852443 ], [ -74.92216, 10.852561 ], [ -74.922377, 10.852671 ], [ -74.922766, 10.852942 ], [ -74.922958, 10.853176 ], [ -74.923295, 10.853691 ], [ -74.923453, 10.854133 ], [ -74.923484, 10.854354 ], [ -74.923492, 10.854612 ], [ -74.923433, 10.854974 ], [ -74.923464, 10.855313 ], [ -74.923569, 10.855556 ], [ -74.923704, 10.855688 ], [ -74.923779, 10.855791 ], [ -74.924631, 10.856357 ], [ -74.924892, 10.856444 ], [ -74.925302, 10.856495 ], [ -74.925645, 10.856494 ], [ -74.926272, 10.856389 ], [ -74.926741, 10.856336 ], [ -74.927054, 10.856247 ], [ -74.927658, 10.856112 ], [ -74.928135, 10.855927 ], [ -74.928306, 10.855808 ], [ -74.928433, 10.855646 ], [ -74.928477, 10.855447 ], [ -74.928491, 10.855262 ], [ -74.928393, 10.854894 ], [ -74.928322, 10.85475 ], [ -74.928198, 10.854575 ], [ -74.928197, 10.854296 ], [ -74.928391, 10.854015 ], [ -74.928832, 10.85377 ], [ -74.929221, 10.853611 ], [ -74.929793, 10.853422 ], [ -74.931218, 10.853448 ], [ -74.931518, 10.853413 ], [ -74.932505, 10.853426 ], [ -74.932688, 10.853679 ], [ -74.9328, 10.853766 ], [ -74.932943, 10.853822 ], [ -74.933173, 10.853952 ], [ -74.933446, 10.854167 ], [ -74.933787, 10.854359 ], [ -74.934762, 10.854656 ], [ -74.935042, 10.854918 ], [ -74.935218, 10.855203 ], [ -74.935507, 10.855525 ], [ -74.935974, 10.85625 ], [ -74.936157, 10.856741 ], [ -74.936477, 10.857006 ], [ -74.936674, 10.857107 ], [ -74.936957, 10.857426 ], [ -74.93709, 10.857487 ], [ -74.937262, 10.8575 ], [ -74.938164, 10.857467 ], [ -74.938347, 10.8575 ], [ -74.938691, 10.857447 ], [ -74.938815, 10.857447 ], [ -74.93895, 10.857487 ], [ -74.939159, 10.857584 ], [ -74.939327, 10.857691 ], [ -74.939481, 10.857838 ], [ -74.939573, 10.857876 ], [ -74.939727, 10.85788 ], [ -74.939855, 10.857955 ], [ -74.940294, 10.858389 ], [ -74.940379, 10.858429 ], [ -74.94057, 10.858434 ], [ -74.940647, 10.85832 ], [ -74.940737, 10.858293 ], [ -74.941524, 10.858336 ], [ -74.941655, 10.858411 ], [ -74.942472, 10.858498 ], [ -74.942657, 10.858342 ], [ -74.942765, 10.858305 ], [ -74.942937, 10.858316 ], [ -74.943179, 10.858234 ], [ -74.943307, 10.858254 ], [ -74.943422, 10.858353 ], [ -74.94379, 10.858291 ], [ -74.943905, 10.858305 ], [ -74.944015, 10.858343 ], [ -74.944337, 10.858308 ], [ -74.944814, 10.85842 ], [ -74.944816, 10.858511 ], [ -74.944873, 10.858733 ], [ -74.944996, 10.859546 ], [ -74.94409, 10.860634 ], [ -74.943735, 10.860709 ], [ -74.943434, 10.860923 ], [ -74.942968, 10.861154 ], [ -74.942752, 10.861585 ], [ -74.942632, 10.862016 ], [ -74.942246, 10.862232 ], [ -74.941957, 10.862759 ], [ -74.941982, 10.863118 ], [ -74.941959, 10.863572 ], [ -74.942102, 10.863808 ], [ -74.942322, 10.864036 ], [ -74.94242, 10.864288 ], [ -74.942433, 10.864541 ], [ -74.942324, 10.864842 ], [ -74.941693, 10.865127 ], [ -74.940585, 10.865509 ], [ -74.94032, 10.865873 ], [ -74.939668, 10.866329 ], [ -74.939213, 10.866633 ], [ -74.93888, 10.866793 ], [ -74.938412, 10.866979 ], [ -74.938219, 10.867147 ], [ -74.937592, 10.867794 ], [ -74.937374, 10.867962 ], [ -74.936723, 10.868586 ], [ -74.936385, 10.868802 ], [ -74.936022, 10.868946 ], [ -74.935815, 10.868995 ], [ -74.935522, 10.868957 ], [ -74.935248, 10.868781 ], [ -74.93486, 10.868758 ], [ -74.934449, 10.868807 ], [ -74.934111, 10.868952 ], [ -74.933846, 10.869359 ], [ -74.933629, 10.869742 ], [ -74.93343, 10.869955 ], [ -74.934018, 10.870387 ], [ -74.934309, 10.870625 ], [ -74.934697, 10.871007 ], [ -74.93494, 10.871317 ], [ -74.935258, 10.87205 ], [ -74.935258, 10.872369 ], [ -74.935065, 10.87268 ], [ -74.934848, 10.872944 ], [ -74.934632, 10.873471 ], [ -74.934415, 10.873926 ], [ -74.934222, 10.874165 ], [ -74.933981, 10.874381 ], [ -74.933546, 10.874502 ], [ -74.932723, 10.874481 ], [ -74.932384, 10.874372 ], [ -74.932079, 10.874447 ], [ -74.931853, 10.874698 ], [ -74.931509, 10.874973 ], [ -74.930728, 10.875429 ], [ -74.930806, 10.875675 ], [ -74.930673, 10.875734 ], [ -74.930309, 10.876281 ], [ -74.93014, 10.876592 ], [ -74.929823, 10.877389 ], [ -74.929841, 10.877747 ], [ -74.929902, 10.878028 ], [ -74.92983, 10.878291 ], [ -74.929564, 10.878804 ], [ -74.92951, 10.879135 ], [ -74.929479, 10.879693 ], [ -74.929472, 10.880038 ], [ -74.92957, 10.880373 ], [ -74.929586, 10.880597 ], [ -74.929553, 10.880722 ], [ -74.929645, 10.881066 ], [ -74.929476, 10.881521 ], [ -74.929332, 10.881761 ], [ -74.929398, 10.882012 ], [ -74.929569, 10.882499 ], [ -74.929965, 10.88329 ], [ -74.930039, 10.8836 ], [ -74.930048, 10.883851 ], [ -74.929778, 10.884752 ], [ -74.929825, 10.885042 ], [ -74.929927, 10.885327 ], [ -74.930065, 10.885525 ], [ -74.930088, 10.885759 ], [ -74.929988, 10.88629 ], [ -74.930155, 10.886176 ], [ -74.930315, 10.886163 ], [ -74.930572, 10.886213 ], [ -74.931016, 10.886363 ], [ -74.931762, 10.886383 ], [ -74.931962, 10.886539 ], [ -74.93219, 10.886794 ], [ -74.932612, 10.887592 ], [ -74.932842, 10.888678 ], [ -74.932843, 10.889158 ], [ -74.932747, 10.88951 ], [ -74.932037, 10.890088 ], [ -74.931488, 10.890473 ], [ -74.931296, 10.890953 ], [ -74.931169, 10.891945 ], [ -74.93077, 10.892459 ], [ -74.930139, 10.893013 ], [ -74.929634, 10.893327 ], [ -74.92952, 10.893911 ], [ -74.92951, 10.894255 ], [ -74.92941, 10.894492 ], [ -74.929031, 10.894726 ], [ -74.92837, 10.895319 ], [ -74.928244, 10.895685 ], [ -74.928127, 10.896479 ], [ -74.927986, 10.897804 ], [ -74.927955, 10.898285 ], [ -74.928064, 10.89875 ], [ -74.928146, 10.899407 ], [ -74.928122, 10.899917 ], [ -74.924532, 10.935102 ], [ -74.923759, 10.936249 ], [ -74.923802, 10.936277 ], [ -74.923639, 10.936521 ], [ -74.923157, 10.937142 ], [ -74.922931, 10.937541 ], [ -74.922769, 10.937937 ], [ -74.922752, 10.938371 ], [ -74.922807, 10.939226 ], [ -74.922824, 10.940342 ], [ -74.922887, 10.941814 ], [ -74.922845, 10.942211 ], [ -74.922626, 10.942552 ], [ -74.921732, 10.943533 ], [ -74.921238, 10.944031 ], [ -74.921102, 10.944128 ], [ -74.919188, 10.945035 ], [ -74.9184, 10.945287 ], [ -74.919941, 10.946966 ], [ -74.920024, 10.947271 ], [ -74.92, 10.947493 ], [ -74.919917, 10.947704 ], [ -74.919882, 10.947874 ], [ -74.919864, 10.948062 ], [ -74.919888, 10.94822 ], [ -74.919941, 10.948413 ], [ -74.920042, 10.948612 ], [ -74.920196, 10.948999 ], [ -74.920392, 10.949708 ], [ -74.920428, 10.949907 ], [ -74.920861, 10.950241 ], [ -74.92111, 10.950545 ], [ -74.921169, 10.950733 ], [ -74.921228, 10.950844 ], [ -74.921335, 10.950932 ], [ -74.921561, 10.951078 ], [ -74.921768, 10.951166 ], [ -74.922106, 10.951218 ], [ -74.922278, 10.951289 ], [ -74.922456, 10.951505 ], [ -74.922604, 10.951623 ], [ -74.923013, 10.951734 ], [ -74.923209, 10.951816 ], [ -74.923434, 10.95195 ], [ -74.923606, 10.952097 ], [ -74.924181, 10.952747 ], [ -74.924916, 10.950837 ], [ -74.925438, 10.950901 ], [ -74.92622, 10.951159 ], [ -74.926451, 10.951194 ], [ -74.92673, 10.951188 ], [ -74.927424, 10.951082 ], [ -74.92785, 10.951053 ], [ -74.928337, 10.95107 ], [ -74.928799, 10.951164 ], [ -74.929155, 10.951275 ], [ -74.92954, 10.951433 ], [ -74.929854, 10.95162 ], [ -74.930068, 10.951884 ], [ -74.930269, 10.952042 ], [ -74.930483, 10.952183 ], [ -74.930667, 10.952212 ], [ -74.930815, 10.9523 ], [ -74.93094, 10.952417 ], [ -74.931129, 10.952493 ], [ -74.930768, 10.952882 ], [ -74.930359, 10.953158 ], [ -74.930164, 10.953345 ], [ -74.929796, 10.95396 ], [ -74.92929, 10.954687 ], [ -74.928966, 10.955523 ], [ -74.928745, 10.956249 ], [ -74.928477, 10.957343 ], [ -74.928317, 10.958792 ], [ -74.928418, 10.959863 ], [ -74.928829, 10.960816 ], [ -74.929359, 10.9618 ], [ -74.929438, 10.962066 ], [ -74.929399, 10.962425 ], [ -74.929225, 10.962761 ], [ -74.927701, 10.964271 ], [ -74.928393, 10.964809 ], [ -74.928562, 10.965028 ], [ -74.928689, 10.965392 ], [ -74.928773, 10.96584 ], [ -74.928752, 10.966246 ], [ -74.928489, 10.966892 ], [ -74.928141, 10.967444 ], [ -74.926676, 10.96682 ], [ -74.926149, 10.966632 ], [ -74.925327, 10.966674 ], [ -74.924895, 10.966622 ], [ -74.924557, 10.966664 ], [ -74.924199, 10.966768 ], [ -74.923883, 10.96707 ], [ -74.923472, 10.967529 ], [ -74.923093, 10.967852 ], [ -74.92264, 10.968091 ], [ -74.922239, 10.968237 ], [ -74.922056, 10.968377 ], [ -74.921784, 10.96868 ], [ -74.921435, 10.969201 ], [ -74.921232, 10.969744 ], [ -74.920956, 10.970354 ], [ -74.920094, 10.971533 ], [ -74.919491, 10.972218 ], [ -74.920812, 10.972544 ], [ -74.921479, 10.972786 ], [ -74.921786, 10.972937 ], [ -74.922049, 10.973173 ], [ -74.922216, 10.973427 ], [ -74.922177, 10.973668 ], [ -74.918232, 10.975943 ], [ -74.913222, 10.978448 ], [ -74.908269, 10.978505 ], [ -74.906556, 10.981154 ], [ -74.90634, 10.984408 ], [ -74.903763, 10.98461 ], [ -74.903806, 10.985646 ], [ -74.905087, 10.988698 ], [ -74.904843, 10.990512 ], [ -74.903187, 10.992312 ], [ -74.901258, 10.99296 ], [ -74.89835, 10.997812 ], [ -74.888607, 10.991082 ], [ -74.889316, 10.989986 ], [ -74.889452, 10.989741 ], [ -74.889632, 10.989295 ], [ -74.889722, 10.988863 ], [ -74.889859, 10.987978 ], [ -74.890129, 10.985757 ], [ -74.890892, 10.979959 ], [ -74.891223, 10.977284 ], [ -74.891349, 10.976546 ], [ -74.891615, 10.975809 ], [ -74.891965, 10.975056 ], [ -74.892105, 10.974801 ], [ -74.892566, 10.974185 ], [ -74.893145, 10.973559 ], [ -74.893541, 10.973231 ], [ -74.893951, 10.972908 ], [ -74.89583, 10.971583 ], [ -74.89984, 10.968603 ], [ -74.900318, 10.968146 ], [ -74.900614, 10.967746 ], [ -74.90088, 10.967253 ], [ -74.901046, 10.966774 ], [ -74.901139, 10.966404 ], [ -74.901168, 10.966069 ], [ -74.901171, 10.96545 ], [ -74.901038, 10.964723 ], [ -74.900912, 10.964352 ], [ -74.900326, 10.962869 ], [ -74.89898, 10.959608 ], [ -74.897667, 10.956201 ], [ -74.89703, 10.954639 ], [ -74.896578, 10.953456 ], [ -74.896513, 10.953196 ], [ -74.896348, 10.952821 ], [ -74.891108, 10.950863 ], [ -74.887019, 10.948617 ], [ -74.881145, 10.947005 ], [ -74.875271, 10.944183 ], [ -74.867554, 10.939461 ], [ -74.86361, 10.939201 ], [ -74.861864, 10.938929 ], [ -74.860364, 10.93854 ], [ -74.860053, 10.939812 ], [ -74.857484, 10.939357 ], [ -74.85717, 10.939261 ], [ -74.855334, 10.938372 ], [ -74.855119, 10.93805 ], [ -74.853635, 10.938431 ], [ -74.853262, 10.938057 ], [ -74.852551, 10.937086 ], [ -74.851833, 10.936199 ], [ -74.849871, 10.937613 ], [ -74.849813, 10.937424 ] ] ] } }
]
}
