{
"type": "FeatureCollection",
"name": "vectores_de_dinamica_y_presion_territorial",
"crs": { "type": "name", "properties": { "name": "urn:ogc:def:crs:OGC:1.3:CRS84" } },
"xy_coordinate_resolution": 1e-06,
"features": [
{ "type": "Feature", "properties": { "id": 1, "nombre": "Expansión Metropolitana GAMV", "tipo": "Presión Urbana Residencial", "corredor": "Autopista Troncal Sur (Ruta 60-CH)", "origen": "Quilpué - Villa Alemana", "destino": "Limache", "intensidad": "Muy Alta" }, "geometry": { "type": "LineString", "coordinates": [ [ -71.399587, -33.073537 ], [ -71.334883, -33.056732 ], [ -71.26974, -33.021865 ], [ -71.226489, -33.004609 ] ] } },
{ "type": "Feature", "properties": { "id": 2, "nombre": "Presión Inmobiliaria Parcelaciones de Agrado", "tipo": "Suburbanización Rural (DL 3.516)", "corredor": "Ruta F-62 / F-100-G", "origen": "Limache", "destino": "Olmué - La Dormida", "intensidad": "Alta" }, "geometry": { "type": "LineString", "coordinates": [ [ -71.226943, -33.022637 ], [ -71.173334, -33.019073 ], [ -71.109028, -33.015668 ], [ -71.055844, -33.030083 ] ] } },
{ "type": "Feature", "properties": { "id": 3, "nombre": "Corredor Agroexportador hacia Puerto Valparaíso", "tipo": "Flujo Logístico Frutícola", "corredor": "Ruta 60-CH / Autopista Los Andes", "origen": "San Felipe - Quillota", "destino": "Puerto de Valparaíso", "intensidad": "Estratégica Regional" }, "geometry": { "type": "LineString", "coordinates": [ [ -70.836111, -32.758443 ], [ -70.943987, -32.810927 ], [ -71.137219, -32.852866 ], [ -71.266974, -32.913705 ], [ -71.408328, -33.001232 ] ] } },
{ "type": "Feature", "properties": { "id": 4, "nombre": "Eje Periurbano Conexión Sur Ruta 68 - F-50", "tipo": "Suburbanización de Bajo Costo", "corredor": "Ruta F-50 (Lo Orozco)", "origen": "Ruta 68 (Casablanca)", "destino": "Quilpué / Villa Alemana", "intensidad": "Media-Alta" }, "geometry": { "type": "LineString", "coordinates": [ [ -71.383052, -33.254194 ], [ -71.336313, -33.110808 ], [ -71.31395, -33.075157 ] ] } }
]
}
