{
"type": "FeatureCollection",
"name": "world_map_disputed_borders",
"crs": { "type": "name", "properties": { "name": "urn:ogc:def:crs:OGC:1.3:CRS84" } },
"xy_coordinate_resolution": 0.0001,
"features": [
{ "type": "Feature", "properties": { "name": "Japanese claim", "adm0_left": "Russia", "adm0_right": "Russia", "adm0_a3_l": "RUS", "adm0_a3_r": "RUS" }, "geometry": { "type": "LineString", "coordinates": [ [ 149.3593, 45.1827 ], [ 149.1858, 45.4127 ], [ 149.103, 45.7136 ], [ 149.0181, 45.9516 ], [ 148.8975, 46.1708 ] ] } },
{ "type": "Feature", "properties": { "name": "Former USSR oblast in 1991", "adm0_left": "Azerbaijan", "adm0_right": "Azerbaijan", "adm0_a3_l": "AZE", "adm0_a3_r": "AZE" }, "geometry": { "type": "LineString", "coordinates": [ [ 47.1821, 39.8536 ], [ 47.1964, 39.872 ], [ 47.234, 39.8689 ], [ 47.2434, 39.847 ], [ 47.3197, 39.8135 ], [ 47.2932, 39.7729 ], [ 47.234, 39.7557 ] ] } },
{ "type": "Feature", "properties": { "name": "Former USSR oblast in 1991", "adm0_left": "Azerbaijan", "adm0_right": "Azerbaijan", "adm0_a3_l": "AZE", "adm0_a3_r": "AZE" }, "geometry": { "type": "LineString", "coordinates": [ [ 46.7288, 40.4128 ], [ 46.7969, 40.4183 ], [ 46.843, 40.3792 ], [ 46.8922, 40.3846 ], [ 46.9069, 40.3503 ], [ 46.9475, 40.3347 ], [ 46.9054, 40.3051 ] ] } },
{ "type": "Feature", "properties": { "name": "Lebanese claim", "adm0_left": "Lebanon", "adm0_right": "Lebanon", "adm0_a3_l": "LBN", "adm0_a3_r": "LBN" }, "geometry": { "type": "LineString", "coordinates": [ [ 35.6247, 33.273 ], [ 35.6247, 33.2729 ] ] } },
{ "type": "Feature", "properties": { "name": "Chinese claim", "adm0_left": "Bhutan", "adm0_right": "Bhutan", "adm0_a3_l": "BTN", "adm0_a3_r": "BTN" }, "geometry": { "type": "LineString", "coordinates": [ [ 88.983, 27.4926 ], [ 89.1018, 27.522 ], [ 89.1515, 27.5574 ], [ 89.1606, 27.5831 ], [ 89.1247, 27.6149 ] ] } },
{ "type": "Feature", "properties": { "name": "Bolivian claim", "adm0_left": "Chile", "adm0_right": "Chile", "adm0_a3_l": "CHL", "adm0_a3_r": "CHL" }, "geometry": { "type": "LineString", "coordinates": [ [ -70.4945, -23.8376 ], [ -67.2848, -23.8341 ] ] } },
{ "type": "Feature", "properties": { "name": "Moldovan claim", "adm0_left": "Moldova", "adm0_right": "Moldova", "adm0_a3_l": "MDA", "adm0_a3_r": "MDA" }, "geometry": { "type": "MultiLineString", "coordinates": [ [ [ 28.5177, 48.1206 ], [ 28.6299, 48.0917 ], [ 28.6276, 48.063 ] ], [ [ 28.5011, 48.1129 ], [ 28.5177, 48.1206 ] ], [ [ 28.6276, 48.063 ], [ 28.6073, 48.0671 ] ], [ [ 28.6073, 48.0671 ], [ 28.5328, 48.0198 ], [ 28.5381, 47.9938 ] ], [ [ 28.6313, 48.0335 ], [ 28.652, 48.0191 ] ], [ [ 28.5381, 47.9938 ], [ 28.6313, 48.0335 ] ], [ [ 28.6818, 48.0307 ], [ 28.7542, 47.9789 ] ], [ [ 28.652, 48.0191 ], [ 28.6818, 48.0307 ] ], [ [ 28.7852, 47.9826 ], [ 28.8306, 47.9408 ], [ 28.8293, 47.9168 ], [ 29.0187, 47.8533 ], [ 28.976, 47.7432 ], [ 28.9958, 47.6507 ], [ 28.9868, 47.622 ], [ 29.0162, 47.5819 ], [ 29.0336, 47.5184 ], [ 29.111, 47.4637 ], [ 29.0829, 47.4062 ], [ 29.1652, 47.3477 ], [ 29.1231, 47.3291 ] ], [ [ 28.7542, 47.9789 ], [ 28.7852, 47.9826 ] ], [ [ 29.1231, 47.3291 ], [ 29.0886, 47.3513 ] ], [ [ 29.0886, 47.3513 ], [ 29.0805, 47.3323 ], [ 29.1794, 47.1968 ], [ 29.0695, 47.1013 ], [ 29.1247, 47.0739 ] ], [ [ 29.2006, 47.1628 ], [ 29.221, 47.149 ] ], [ [ 29.1797, 47.1093 ], [ 29.1943, 47.1236 ], [ 29.1794, 47.1558 ], [ 29.2006, 47.1628 ] ], [ [ 29.237, 47.1622 ], [ 29.3717, 47.0784 ], [ 29.3811, 47.0287 ] ], [ [ 29.221, 47.149 ], [ 29.237, 47.1622 ] ], [ [ 29.1565, 47.1134 ], [ 29.1797, 47.1093 ] ], [ [ 29.1247, 47.0739 ], [ 29.1565, 47.1134 ] ], [ [ 29.3811, 47.0287 ], [ 29.3704, 47.0329 ] ], [ [ 29.3704, 47.0329 ], [ 29.3738, 47.0113 ] ], [ [ 29.378, 47.0125 ], [ 29.3705, 47.0025 ] ], [ [ 29.3738, 47.0113 ], [ 29.378, 47.0125 ] ], [ [ 29.3705, 47.0025 ], [ 29.3669, 47.0027 ] ], [ [ 29.3669, 47.0027 ], [ 29.3093, 46.9881 ] ], [ [ 29.3093, 46.9881 ], [ 29.2955, 46.992 ] ], [ [ 29.2955, 46.992 ], [ 29.3327, 46.9452 ], [ 29.3762, 46.9349 ] ], [ [ 29.4361, 46.9572 ], [ 29.4712, 46.9414 ], [ 29.4981, 46.8013 ], [ 29.5308, 46.7825 ] ], [ [ 29.3762, 46.9349 ], [ 29.4361, 46.9572 ] ], [ [ 29.6148, 46.8405 ], [ 29.6281, 46.8132 ] ], [ [ 29.5627, 46.7869 ], [ 29.6148, 46.8405 ] ], [ [ 29.6472, 46.8144 ], [ 29.6981, 46.7276 ], [ 29.6666, 46.676 ] ], [ [ 29.6281, 46.8132 ], [ 29.6472, 46.8144 ] ], [ [ 29.5494, 46.7933 ], [ 29.5627, 46.7869 ] ], [ [ 29.5308, 46.7825 ], [ 29.5494, 46.7933 ] ], [ [ 29.6858, 46.6767 ], [ 29.7035, 46.6646 ] ], [ [ 29.6666, 46.676 ], [ 29.6858, 46.6767 ] ], [ [ 29.7282, 46.6698 ], [ 29.7589, 46.6585 ], [ 29.7759, 46.6289 ], [ 29.7282, 46.5941 ], [ 29.7759, 46.5804 ] ], [ [ 29.7035, 46.6646 ], [ 29.7282, 46.6698 ] ], [ [ 29.8236, 46.601 ], [ 29.8988, 46.5531 ] ], [ [ 29.7759, 46.5804 ], [ 29.8236, 46.601 ] ] ] } },
{ "type": "Feature", "properties": { "name": "Georgian claim", "adm0_left": "Georgia", "adm0_right": "Georgia", "adm0_a3_l": "GEO", "adm0_a3_r": "GEO" }, "geometry": { "type": "LineString", "coordinates": [ [ 41.5512, 42.4065 ], [ 41.6292, 42.4384 ], [ 41.6649, 42.4714 ], [ 41.8037, 42.5222 ], [ 41.9384, 42.618 ], [ 41.9404, 42.679 ], [ 41.9122, 42.7146 ], [ 41.8915, 42.8201 ], [ 41.9309, 42.8606 ], [ 41.8845, 42.9646 ], [ 41.908, 42.9872 ], [ 42.0573, 43.0169 ], [ 42.1335, 43.1114 ], [ 42.1293, 43.1679 ], [ 42.1543, 43.2175 ] ] } },
{ "type": "Feature", "properties": { "name": "Georgian claim", "adm0_left": "Georgia", "adm0_right": "Georgia", "adm0_a3_l": "GEO", "adm0_a3_r": "GEO" }, "geometry": { "type": "MultiLineString", "coordinates": [ [ [ 43.7825, 42.7532 ], [ 43.7545, 42.6899 ], [ 43.7085, 42.6899 ], [ 43.6889, 42.6546 ], [ 43.6344, 42.6446 ], [ 43.5594, 42.5844 ], [ 43.5837, 42.5297 ], [ 43.564, 42.38 ], [ 43.5992, 42.355 ], [ 43.5743, 42.3301 ], [ 43.5837, 42.3097 ], [ 43.6539, 42.2895 ], [ 43.5944, 42.2301 ], [ 43.5992, 42.1701 ], [ 43.6187, 42.1249 ], [ 43.6936, 42.0803 ] ], [ [ 44.2633, 42.5798 ], [ 44.2114, 42.6396 ] ], [ [ 44.4093, 42.4299 ], [ 44.3546, 42.4549 ], [ 44.3943, 42.4799 ], [ 44.2992, 42.5844 ] ], [ [ 44.2992, 42.5844 ], [ 44.2633, 42.5798 ] ], [ [ 44.5739, 42.3495 ], [ 44.5146, 42.3746 ], [ 44.4341, 42.4401 ] ], [ [ 44.4341, 42.4401 ], [ 44.4093, 42.4299 ] ], [ [ 44.4638, 41.9899 ], [ 44.5146, 42.0 ], [ 44.5832, 42.0694 ], [ 44.5988, 42.0944 ], [ 44.5894, 42.1147 ], [ 44.644, 42.1397 ], [ 44.644, 42.2247 ], [ 44.5988, 42.2801 ], [ 44.6293, 42.3301 ], [ 44.5942, 42.3495 ] ], [ [ 44.5942, 42.3495 ], [ 44.5739, 42.3495 ] ], [ [ 44.0588, 42.1896 ], [ 44.1142, 42.1451 ], [ 44.1596, 42.0546 ] ], [ [ 43.9496, 42.1451 ], [ 43.9793, 42.1451 ], [ 44.0588, 42.1896 ] ], [ [ 43.9145, 42.1545 ], [ 43.9496, 42.1451 ] ], [ [ 43.8989, 42.0999 ], [ 43.9145, 42.1545 ] ], [ [ 43.7085, 42.1147 ], [ 43.7842, 42.11 ], [ 43.7842, 42.0803 ], [ 43.8091, 42.0546 ] ], [ [ 43.6936, 42.0803 ], [ 43.7085, 42.1147 ] ], [ [ 43.8544, 42.1053 ], [ 43.8989, 42.0999 ] ], [ [ 43.8091, 42.0546 ], [ 43.8638, 42.0803 ], [ 43.8544, 42.1053 ] ], [ [ 44.2039, 42.0999 ], [ 44.2843, 42.0601 ], [ 44.2937, 42.0101 ], [ 44.364, 41.9899 ] ], [ [ 44.1596, 42.0546 ], [ 44.2039, 42.0999 ] ], [ [ 44.4443, 42.0101 ], [ 44.4638, 41.9899 ] ], [ [ 44.364, 41.9899 ], [ 44.4443, 42.0101 ] ] ] } },
{ "type": "Feature", "properties": { "name": "Suriname claim", "adm0_left": "Guyana", "adm0_right": "Guyana", "adm0_a3_l": "GUY", "adm0_a3_r": "GUY" }, "geometry": { "type": "MultiLineString", "coordinates": [ [ [ -57.5962, 3.3671 ], [ -57.5998, 3.2666 ], [ -57.6257, 3.2256 ], [ -57.6203, 3.1729 ], [ -57.5885, 3.0781 ], [ -57.4689, 2.958 ], [ -57.4928, 2.8838 ] ], [ [ -57.4479, 2.8848 ], [ -57.4342, 2.8701 ], [ -57.423, 2.7744 ], [ -57.4899, 2.7187 ] ], [ [ -57.4928, 2.8838 ], [ -57.4479, 2.8848 ] ], [ [ -57.4899, 2.7187 ], [ -57.5383, 2.7197 ] ], [ [ -57.5383, 2.7197 ], [ -57.5915, 2.668 ] ], [ [ -57.5915, 2.668 ], [ -57.6428, 2.6934 ] ], [ [ -57.6428, 2.6934 ], [ -57.6296, 2.6416 ], [ -57.6398, 2.6299 ], [ -57.7116, 2.6211 ], [ -57.7355, 2.5898 ] ], [ [ -57.7355, 2.5898 ], [ -57.7697, 2.5928 ] ], [ [ -57.7697, 2.5928 ], [ -57.7912, 2.5664 ], [ -57.7736, 2.5176 ], [ -57.7912, 2.4346 ] ], [ [ -57.7912, 2.4346 ], [ -57.8527, 2.4512 ] ], [ [ -57.8527, 2.4512 ], [ -57.8595, 2.4248 ], [ -57.9162, 2.3994 ], [ -57.9274, 2.375 ], [ -57.9016, 2.3594 ] ], [ [ -57.8551, 2.3867 ], [ -57.8488, 2.3662 ], [ -57.8966, 2.3174 ], [ -57.9069, 2.2861 ], [ -57.8898, 2.2715 ], [ -57.9235, 2.2617 ], [ -57.9337, 2.2197 ], [ -57.9162, 2.1904 ], [ -57.9289, 2.1553 ], [ -57.9094, 2.1426 ], [ -57.9235, 2.126 ], [ -57.9074, 2.0459 ], [ -57.943, 2.0234 ], [ -57.9367, 2.0029 ], [ -57.9064, 1.9961 ], [ -57.8942, 1.8789 ], [ -57.9157, 1.7949 ], [ -57.965, 1.7813 ] ], [ [ -57.9016, 2.3594 ], [ -57.8551, 2.3867 ] ], [ [ -58.0202, 1.7744 ], [ -58.1208, 1.8125 ] ], [ [ -58.1208, 1.8125 ], [ -58.1813, 1.7774 ] ], [ [ -58.1813, 1.7774 ], [ -58.214, 1.7861 ] ], [ [ -58.214, 1.7861 ], [ -58.2282, 1.708 ], [ -58.2804, 1.666 ], [ -58.3278, 1.6524 ], [ -58.4284, 1.5615 ], [ -58.4264, 1.4698 ] ], [ [ -57.965, 1.7813 ], [ -57.9933, 1.7822 ] ], [ [ -57.9933, 1.7822 ], [ -58.0202, 1.7744 ] ] ] } },
{ "type": "Feature", "properties": { "name": "Suriname claim", "adm0_left": "France", "adm0_right": "France", "adm0_a3_l": "FRA", "adm0_a3_r": "FRA" }, "geometry": { "type": "MultiLineString", "coordinates": [ [ [ -54.0837, 3.1973 ], [ -54.0808, 3.3093 ] ], [ [ -54.0148, 3.0312 ], [ -53.9958, 3.0654 ], [ -54.0046, 3.1113 ], [ -54.0837, 3.1621 ], [ -54.0471, 3.1855 ], [ -54.0578, 3.2021 ] ], [ [ -54.0578, 3.2021 ], [ -54.0837, 3.1973 ] ], [ [ -54.0271, 3.0322 ], [ -54.0148, 3.0312 ] ], [ [ -54.1115, 2.1143 ], [ -54.1462, 2.166 ], [ -54.1389, 2.1885 ], [ -54.0969, 2.2012 ], [ -54.1525, 2.2295 ], [ -54.1662, 2.25 ], [ -54.1535, 2.2676 ], [ -54.1613, 2.292 ], [ -54.1559, 2.3184 ], [ -54.0681, 2.4248 ], [ -54.0197, 2.5322 ], [ -54.0236, 2.5644 ], [ -53.9953, 2.6006 ], [ -54.0153, 2.7822 ], [ -53.9904, 2.8291 ], [ -53.9729, 2.835 ], [ -54.0046, 2.9189 ], [ -53.9919, 2.999 ], [ -54.0271, 3.0322 ] ] ] } },
{ "type": "Feature", "properties": { "name": "Chinese claim", "adm0_left": "India", "adm0_right": "India", "adm0_a3_l": "IND", "adm0_a3_r": "IND" }, "geometry": { "type": "MultiLineString", "coordinates": [ [ [ 78.8487, 31.2909 ], [ 78.9263, 31.1896 ], [ 78.9523, 31.1076 ], [ 79.0318, 31.0898 ] ], [ [ 79.1458, 31.1045 ], [ 79.2381, 31.0747 ] ], [ [ 79.0318, 31.0898 ], [ 79.1458, 31.1045 ] ], [ [ 79.2381, 31.0747 ], [ 79.3826, 31.0783 ] ] ] } },
{ "type": "Feature", "properties": { "name": "Chinese claim", "adm0_left": "India", "adm0_right": "India", "adm0_a3_l": "IND", "adm0_a3_r": "IND" }, "geometry": { "type": "LineString", "coordinates": [ [ 79.9194, 30.8812 ], [ 79.9435, 30.831 ], [ 80.001, 30.7996 ], [ 80.0092, 30.6897 ], [ 80.0766, 30.6783 ], [ 80.1798, 30.5595 ] ] } },
{ "type": "Feature", "properties": { "name": "Chinese claim", "adm0_left": "India", "adm0_right": "India", "adm0_a3_l": "IND", "adm0_a3_r": "IND" }, "geometry": { "type": "MultiLineString", "coordinates": [ [ [ 78.469, 32.2265 ], [ 78.3818, 32.1825 ], [ 78.4417, 32.1227 ] ], [ [ 78.4714, 32.1409 ], [ 78.5335, 32.0599 ], [ 78.6818, 31.9509 ], [ 78.7142, 31.883 ] ], [ [ 78.4417, 32.1227 ], [ 78.4714, 32.1409 ] ] ] } },
{ "type": "Feature", "properties": { "name": "Indian claim", "adm0_left": "China", "adm0_right": "China", "adm0_a3_l": "CHN", "adm0_a3_r": "CHN" }, "geometry": { "type": "MultiLineString", "coordinates": [ [ [ 75.9811, 36.4454 ], [ 76.1493, 36.4245 ], [ 76.239, 36.3199 ] ], [ [ 76.3186, 36.3301 ], [ 76.3889, 36.3098 ], [ 76.4286, 36.2395 ], [ 76.5683, 36.1904 ] ], [ [ 76.239, 36.3199 ], [ 76.3186, 36.3301 ] ], [ [ 76.6689, 36.1904 ], [ 76.7188, 36.1599 ], [ 76.7587, 36.11 ], [ 76.7789, 36.0398 ], [ 76.7789, 35.9103 ], [ 76.8391, 35.8595 ], [ 77.0086, 35.8197 ], [ 77.0686, 35.7799 ], [ 77.0896, 35.7402 ], [ 77.209, 35.7097 ] ], [ [ 76.5683, 36.1904 ], [ 76.6689, 36.1904 ] ], [ [ 77.3486, 35.7198 ], [ 77.4214, 35.6402 ] ], [ [ 77.209, 35.7097 ], [ 77.3486, 35.7198 ] ], [ [ 77.4689, 35.6519 ], [ 77.5087, 35.5802 ], [ 77.5196, 35.4774 ] ], [ [ 77.4214, 35.6402 ], [ 77.4689, 35.6519 ] ] ] } },
{ "type": "Feature", "properties": { "name": "Indian claim", "adm0_left": "Pakistan", "adm0_right": "Pakistan", "adm0_a3_l": "PAK", "adm0_a3_r": "PAK" }, "geometry": { "type": "MultiLineString", "coordinates": [ [ [ 73.7118, 36.8941 ], [ 73.7203, 36.8511 ], [ 73.7989, 36.828 ], [ 73.8873, 36.7705 ], [ 73.8881, 36.7199 ], [ 73.874, 36.711 ] ], [ [ 73.5199, 36.7307 ], [ 73.416, 36.7521 ] ], [ [ 73.416, 36.7521 ], [ 73.2875, 36.7172 ] ], [ [ 73.6283, 36.7098 ], [ 73.5951, 36.7355 ] ], [ [ 73.5951, 36.7355 ], [ 73.571, 36.7277 ] ], [ [ 73.2179, 36.7124 ], [ 73.1765, 36.7349 ] ], [ [ 73.1765, 36.7349 ], [ 73.0734, 36.6985 ], [ 73.0945, 36.6033 ], [ 73.055, 36.5396 ], [ 72.983, 36.5113 ], [ 72.9883, 36.4762 ], [ 72.956, 36.4681 ] ], [ [ 73.571, 36.7277 ], [ 73.5414, 36.7328 ] ], [ [ 73.5414, 36.7328 ], [ 73.5199, 36.7307 ] ], [ [ 73.874, 36.711 ], [ 73.7909, 36.7292 ] ], [ [ 73.7909, 36.7292 ], [ 73.7616, 36.7161 ] ], [ [ 73.7616, 36.7161 ], [ 73.7212, 36.7271 ] ], [ [ 73.7212, 36.7271 ], [ 73.6786, 36.704 ] ], [ [ 73.2875, 36.7172 ], [ 73.2708, 36.7185 ] ], [ [ 73.2708, 36.7185 ], [ 73.2179, 36.7124 ] ], [ [ 73.6786, 36.704 ], [ 73.6549, 36.7106 ] ], [ [ 73.6549, 36.7106 ], [ 73.6283, 36.7098 ] ], [ [ 72.956, 36.4681 ], [ 72.926, 36.4684 ] ], [ [ 72.926, 36.4684 ], [ 72.8899, 36.4571 ], [ 72.8769, 36.3843 ], [ 72.8302, 36.3704 ], [ 72.687, 36.2692 ] ], [ [ 72.687, 36.2692 ], [ 72.6429, 36.279 ] ], [ [ 72.6429, 36.279 ], [ 72.6075, 36.2727 ], [ 72.5649, 36.2301 ], [ 72.5514, 36.1736 ], [ 72.5621, 36.15 ], [ 72.5291, 36.0975 ], [ 72.5891, 36.0161 ], [ 72.5156, 35.904 ], [ 72.6559, 35.8541 ], [ 72.7924, 35.8376 ] ], [ [ 72.9716, 35.8781 ], [ 73.0422, 35.8561 ] ], [ [ 72.7924, 35.8376 ], [ 72.8646, 35.8728 ], [ 72.9716, 35.8781 ] ], [ [ 73.0853, 35.8765 ], [ 73.1547, 35.8249 ], [ 73.1285, 35.7963 ], [ 73.1292, 35.7202 ], [ 73.3292, 35.5955 ] ], [ [ 73.0422, 35.8561 ], [ 73.0853, 35.8765 ] ], [ [ 73.3489, 35.5972 ], [ 73.3883, 35.584 ], [ 73.4097, 35.5478 ] ], [ [ 73.3292, 35.5955 ], [ 73.3489, 35.5972 ] ], [ [ 73.4426, 35.5618 ], [ 73.5048, 35.5339 ] ], [ [ 73.4097, 35.5478 ], [ 73.4426, 35.5618 ] ], [ [ 73.6295, 35.543 ], [ 73.7584, 35.527 ], [ 73.7779, 35.5057 ], [ 73.7842, 35.4471 ], [ 73.7275, 35.4176 ], [ 73.6902, 35.3574 ], [ 73.6874, 35.3101 ], [ 73.7184, 35.2641 ], [ 73.7155, 35.2251 ], [ 73.7357, 35.2093 ] ], [ [ 73.5048, 35.5339 ], [ 73.6295, 35.543 ] ], [ [ 73.7763, 35.2351 ], [ 73.8211, 35.2302 ], [ 73.8644, 35.2023 ] ], [ [ 73.7357, 35.2093 ], [ 73.7763, 35.2351 ] ], [ [ 73.8878, 35.2081 ], [ 73.9607, 35.1692 ] ], [ [ 73.8644, 35.2023 ], [ 73.8878, 35.2081 ] ], [ [ 73.9923, 35.1753 ], [ 74.0315, 35.1468 ], [ 74.0793, 35.1416 ] ], [ [ 73.9607, 35.1692 ], [ 73.9923, 35.1753 ] ], [ [ 74.0981, 35.1419 ], [ 74.1247, 35.0995 ] ], [ [ 74.0793, 35.1416 ], [ 74.0981, 35.1419 ] ] ] } },
{ "type": "Feature", "properties": { "name": "Sudanese claim", "adm0_left": "Kenya", "adm0_right": "Kenya", "adm0_a3_l": "KEN", "adm0_a3_r": "KEN" }, "geometry": { "type": "LineString", "coordinates": [ [ 35.9208, 4.6193 ], [ 35.7058, 4.6194 ] ] } },
{ "type": "Feature", "properties": { "name": "Sudanese claim", "adm0_left": "Kenya", "adm0_right": "Kenya", "adm0_a3_l": "KEN", "adm0_a3_r": "KEN" }, "geometry": { "type": "LineString", "coordinates": [ [ 35.6121, 4.6195 ], [ 34.3812, 4.6202 ] ] } },
{ "type": "Feature", "properties": { "name": "Kenyan claim", "adm0_left": "South Sudan", "adm0_right": "South Sudan", "adm0_a3_l": "SDS", "adm0_a3_r": "SDS" }, "geometry": { "type": "LineString", "coordinates": [ [ 35.7058, 4.6194 ], [ 35.6121, 4.6195 ] ] } },
{ "type": "Feature", "properties": { "name": "Chinese claim", "adm0_left": "India", "adm0_right": "India", "adm0_a3_l": "IND", "adm0_a3_r": "IND" }, "geometry": { "type": "MultiLineString", "coordinates": [ [ [ 95.9885, 28.163 ], [ 95.8832, 28.2216 ], [ 95.8422, 28.2625 ] ], [ [ 95.8422, 28.2625 ], [ 95.7895, 28.2567 ], [ 95.2862, 28.0752 ], [ 95.2745, 27.9874 ], [ 95.2335, 27.9055 ], [ 94.9467, 27.7826 ], [ 94.8824, 27.7358 ], [ 94.6834, 27.6538 ], [ 94.4844, 27.5953 ], [ 94.1976, 27.5427 ], [ 94.0923, 27.4022 ], [ 93.9752, 27.3261 ], [ 93.905, 27.2442 ], [ 93.8055, 27.1681 ], [ 93.7762, 27.1154 ], [ 93.7704, 27.0276 ], [ 93.7236, 26.9866 ], [ 93.5889, 26.9281 ], [ 93.4251, 26.9164 ], [ 93.3724, 26.8871 ] ], [ [ 96.3338, 28.1162 ], [ 96.2753, 28.1396 ], [ 96.2519, 28.1923 ], [ 96.1817, 28.2157 ] ], [ [ 96.1817, 28.2157 ], [ 96.1407, 28.1923 ], [ 96.0646, 28.1923 ], [ 95.9885, 28.163 ] ], [ [ 97.0362, 27.7429 ], [ 97.0362, 27.7885 ], [ 96.9542, 27.8236 ], [ 96.9542, 27.847 ], [ 96.8664, 27.888 ], [ 96.7845, 27.8997 ], [ 96.7552, 27.9406 ], [ 96.6557, 27.9582 ], [ 96.5679, 28.0518 ], [ 96.4918, 28.0869 ], [ 96.4041, 28.163 ] ], [ [ 96.4041, 28.163 ], [ 96.3748, 28.1513 ], [ 96.3689, 28.1221 ], [ 96.3338, 28.1162 ] ], [ [ 92.7696, 26.8813 ], [ 92.6408, 26.9691 ] ], [ [ 92.6408, 26.9691 ], [ 92.5823, 26.9691 ], [ 92.4594, 26.9047 ], [ 92.3833, 26.8871 ], [ 92.1316, 26.8521 ] ], [ [ 93.3724, 26.8871 ], [ 93.2963, 26.893 ] ], [ [ 93.2963, 26.893 ], [ 93.1032, 26.8637 ] ], [ [ 93.1032, 26.8637 ], [ 92.8924, 26.8871 ] ], [ [ 92.8924, 26.8871 ], [ 92.7696, 26.8813 ] ], [ [ 92.1316, 26.8521 ], [ 92.0359, 26.8548 ] ] ] } },
{ "type": "Feature", "properties": { "name": "Indian claim", "adm0_left": "China", "adm0_right": "China", "adm0_a3_l": "CHN", "adm0_a3_r": "CHN" }, "geometry": { "type": "MultiLineString", "coordinates": [ [ [ 79.4764, 35.8468 ], [ 79.4337, 35.8557 ], [ 79.4239, 35.9398 ], [ 79.4002, 35.962 ], [ 79.3237, 35.98 ] ], [ [ 79.3237, 35.98 ], [ 78.9094, 35.8914 ] ], [ [ 78.9094, 35.8914 ], [ 78.7725, 35.9213 ] ], [ [ 78.7725, 35.9213 ], [ 78.703, 35.9073 ], [ 78.6523, 35.8409 ], [ 78.5453, 35.7811 ], [ 78.4352, 35.761 ], [ 78.2758, 35.6947 ], [ 78.2294, 35.6475 ], [ 78.1619, 35.6236 ], [ 78.1016, 35.5383 ] ], [ [ 79.8337, 35.561 ], [ 79.8143, 35.5685 ], [ 79.7946, 35.6188 ], [ 79.6651, 35.6548 ], [ 79.611, 35.7588 ], [ 79.6406, 35.8016 ], [ 79.5457, 35.8646 ] ], [ [ 79.5457, 35.8646 ], [ 79.4764, 35.8468 ] ], [ [ 80.0398, 35.4005 ], [ 79.9932, 35.4412 ], [ 79.964, 35.5374 ], [ 79.9099, 35.613 ] ], [ [ 79.9099, 35.613 ], [ 79.8337, 35.561 ] ], [ [ 78.1016, 35.5383 ], [ 77.9845, 35.5633 ] ], [ [ 77.9845, 35.5633 ], [ 77.9548, 35.5617 ], [ 77.9152, 35.4942 ], [ 77.8898, 35.4818 ] ], [ [ 80.2825, 35.4987 ], [ 80.2224, 35.5475 ], [ 80.1862, 35.5546 ] ], [ [ 80.1862, 35.5546 ], [ 80.1264, 35.4514 ], [ 80.0398, 35.4005 ] ], [ [ 79.9958, 34.6475 ], [ 80.0497, 34.6731 ], [ 80.0856, 34.7766 ], [ 80.1699, 34.8706 ], [ 80.1738, 35.0719 ], [ 80.1832, 35.1032 ], [ 80.2662, 35.1942 ], [ 80.2736, 35.2277 ], [ 80.2555, 35.3127 ], [ 80.3628, 35.4249 ], [ 80.3576, 35.5021 ], [ 80.3294, 35.517 ] ], [ [ 80.3294, 35.517 ], [ 80.2825, 35.4987 ] ], [ [ 77.8898, 35.4818 ], [ 77.8003, 35.4954 ] ], [ [ 79.9073, 34.6619 ], [ 79.9958, 34.6475 ] ], [ [ 79.6696, 34.4074 ], [ 79.7127, 34.4153 ], [ 79.738, 34.4447 ], [ 79.7017, 34.5003 ], [ 79.7136, 34.5348 ], [ 79.8134, 34.5654 ], [ 79.8521, 34.6444 ], [ 79.9073, 34.6619 ] ], [ [ 79.5436, 34.4287 ], [ 79.6696, 34.4074 ] ], [ [ 79.5139, 34.183 ], [ 79.5516, 34.2096 ], [ 79.5095, 34.3922 ], [ 79.523, 34.4261 ], [ 79.5436, 34.4287 ] ], [ [ 79.498, 34.1864 ], [ 79.5139, 34.183 ] ], [ [ 79.376, 34.0114 ], [ 79.4055, 34.0219 ], [ 79.495, 34.1059 ], [ 79.498, 34.1864 ] ], [ [ 79.1323, 34.0265 ], [ 79.376, 34.0114 ] ], [ [ 79.0624, 33.9953 ], [ 79.1323, 34.0265 ] ], [ [ 78.9351, 34.0072 ], [ 79.0624, 33.9953 ] ], [ [ 79.0025, 33.6193 ], [ 79.0113, 33.658 ], [ 78.9913, 33.7519 ], [ 78.9454, 33.7998 ], [ 78.8875, 33.9465 ], [ 78.9028, 33.9832 ], [ 78.9351, 34.0072 ] ], [ [ 78.9454, 33.6341 ], [ 79.0025, 33.6193 ] ], [ [ 78.9159, 33.3877 ], [ 78.8852, 33.5918 ], [ 78.896, 33.6201 ], [ 78.9454, 33.6341 ] ] ] } },
{ "type": "Feature", "properties": { "name": "Syrian claim", "adm0_left": "Israel", "adm0_right": "Israel", "adm0_a3_l": "ISR", "adm0_a3_r": "ISR" }, "geometry": { "type": "MultiLineString", "coordinates": [ [ [ 35.6345, 33.2487 ], [ 35.6501, 33.2459 ], [ 35.6488, 33.1619 ], [ 35.6276, 33.0709 ], [ 35.5708, 33.0121 ], [ 35.6002, 32.8968 ], [ 35.6414, 32.8648 ], [ 35.6414, 32.7721 ], [ 35.5997, 32.7174 ] ], [ [ 35.608, 33.2392 ], [ 35.6345, 33.2487 ] ], [ [ 35.6039, 33.2401 ], [ 35.608, 33.2392 ] ], [ [ 35.5997, 32.7174 ], [ 35.5774, 32.72 ] ], [ [ 35.5774, 32.72 ], [ 35.6122, 32.6815 ] ] ] } },
{ "type": "Feature", "properties": { "name": "Pakistani claim", "adm0_left": "India", "adm0_right": "India", "adm0_a3_l": "IND", "adm0_a3_r": "IND" }, "geometry": { "type": "MultiLineString", "coordinates": [ [ [ 76.5424, 33.2329 ], [ 76.6259, 33.1893 ] ], [ [ 75.9436, 32.8981 ], [ 76.1008, 33.013 ], [ 76.237, 33.0635 ], [ 76.2943, 33.1479 ], [ 76.3967, 33.1977 ], [ 76.5424, 33.2329 ] ], [ [ 76.7398, 33.1974 ], [ 76.7687, 33.1868 ], [ 76.9401, 33.0343 ], [ 77.0885, 32.9502 ], [ 77.3713, 32.867 ] ], [ [ 76.6259, 33.1893 ], [ 76.7398, 33.1974 ] ], [ [ 77.7123, 33.0145 ], [ 77.8579, 32.873 ], [ 77.9289, 32.7624 ], [ 77.9385, 32.6953 ], [ 78.0089, 32.6103 ] ], [ [ 77.3713, 32.867 ], [ 77.394, 32.8899 ], [ 77.5535, 32.9234 ], [ 77.7123, 33.0145 ] ], [ [ 75.846, 32.9422 ], [ 75.9117, 32.9259 ], [ 75.9436, 32.8981 ] ], [ [ 75.8474, 32.5167 ], [ 75.926, 32.6412 ], [ 75.9014, 32.7029 ], [ 75.9093, 32.7727 ], [ 75.8049, 32.8986 ], [ 75.8069, 32.9237 ], [ 75.846, 32.9422 ] ], [ [ 78.3533, 32.7686 ], [ 78.3809, 32.7293 ], [ 78.3806, 32.6692 ], [ 78.3684, 32.6398 ], [ 78.2929, 32.5754 ], [ 78.2704, 32.5042 ], [ 78.303, 32.4707 ] ], [ [ 78.2279, 32.6902 ], [ 78.3143, 32.7354 ], [ 78.3177, 32.7647 ], [ 78.3533, 32.7686 ] ], [ [ 78.2081, 32.6922 ], [ 78.2279, 32.6902 ] ], [ [ 78.0089, 32.6103 ], [ 78.059, 32.6183 ], [ 78.1146, 32.6677 ], [ 78.2081, 32.6922 ] ], [ [ 78.303, 32.4707 ], [ 78.381, 32.528 ] ] ] } },
{ "type": "Feature", "properties": { "name": "Pakistani claim", "adm0_left": "India", "adm0_right": "India", "adm0_a3_l": "IND", "adm0_a3_r": "IND" }, "geometry": { "type": "MultiLineString", "coordinates": [ [ [ 75.8474, 32.5167 ], [ 75.743, 32.4644 ], [ 75.7294, 32.4296 ], [ 75.6983, 32.406 ], [ 75.612, 32.3955 ], [ 75.5733, 32.3746 ], [ 75.5024, 32.3006 ] ], [ [ 75.5024, 32.3006 ], [ 75.4514, 32.324 ], [ 75.4368, 32.3602 ] ], [ [ 75.4368, 32.3602 ], [ 75.3904, 32.3355 ] ], [ [ 75.3904, 32.3355 ], [ 75.3271, 32.34 ] ], [ [ 75.3271, 32.34 ], [ 75.2984, 32.3324 ] ] ] } },
{ "type": "Feature", "properties": { "name": "South Sudanese claim", "adm0_left": "Sudan", "adm0_right": "Sudan", "adm0_a3_l": "SDN", "adm0_a3_r": "SDN" }, "geometry": { "type": "MultiLineString", "coordinates": [ [ [ 28.9895, 9.5871 ], [ 28.9895, 10.1601 ] ], [ [ 28.9895, 10.1601 ], [ 27.8253, 10.1601 ], [ 27.8253, 9.7437 ], [ 27.8951, 9.5954 ] ] ] } },
{ "type": "Feature", "properties": { "name": "Indian claim", "adm0_left": "Pakistan", "adm0_right": "Pakistan", "adm0_a3_l": "PAK", "adm0_a3_r": "PAK" }, "geometry": { "type": "MultiLineString", "coordinates": [ [ [ 74.1247, 35.0992 ], [ 74.0884, 35.085 ], [ 74.0676, 35.0554 ], [ 74.1003, 35.0096 ], [ 74.0669, 34.9818 ], [ 74.0615, 34.9417 ], [ 74.0242, 34.8881 ], [ 73.9544, 34.8627 ], [ 73.884, 34.8107 ] ], [ [ 73.884, 34.8107 ], [ 73.8411, 34.8141 ] ], [ [ 73.8411, 34.8141 ], [ 73.7772, 34.7916 ] ], [ [ 73.7772, 34.7916 ], [ 73.7584, 34.7925 ] ], [ [ 73.7584, 34.7925 ], [ 73.7013, 34.7557 ], [ 73.6508, 34.6767 ], [ 73.6595, 34.6336 ], [ 73.6185, 34.564 ] ], [ [ 73.6185, 34.564 ], [ 73.5832, 34.5884 ] ], [ [ 73.5832, 34.5884 ], [ 73.5289, 34.5711 ] ], [ [ 73.5289, 34.5711 ], [ 73.4989, 34.575 ] ], [ [ 73.4989, 34.575 ], [ 73.4471, 34.558 ], [ 73.4259, 34.4304 ], [ 73.4002, 34.3755 ], [ 73.4741, 34.2692 ], [ 73.5186, 34.0083 ] ] ] } },
{ "type": "Feature", "properties": { "name": "Indian claim", "adm0_left": "Pakistan", "adm0_right": "Pakistan", "adm0_a3_l": "PAK", "adm0_a3_r": "PAK" }, "geometry": { "type": "LineString", "coordinates": [ [ 74.1247, 35.0995 ], [ 74.1247, 35.0992 ] ] } },
{ "type": "Feature", "properties": { "name": "Indian claim", "adm0_left": "Pakistan", "adm0_right": "Pakistan", "adm0_a3_l": "PAK", "adm0_a3_r": "PAK" }, "geometry": { "type": "MultiLineString", "coordinates": [ [ [ 73.5186, 34.0083 ], [ 73.5798, 33.9105 ], [ 73.5672, 33.8034 ], [ 73.6003, 33.7086 ], [ 73.5731, 33.6337 ], [ 73.6147, 33.5931 ], [ 73.635, 33.5408 ], [ 73.6147, 33.5197 ], [ 73.6276, 33.4521 ], [ 73.6042, 33.4416 ], [ 73.5738, 33.3874 ], [ 73.6032, 33.333 ], [ 73.6003, 33.2467 ], [ 73.583, 33.2391 ] ], [ [ 73.583, 33.2391 ], [ 73.5798, 33.2393 ] ], [ [ 73.5798, 33.2393 ], [ 73.5838, 33.2276 ] ], [ [ 73.6095, 33.2325 ], [ 73.6549, 33.1847 ], [ 73.6454, 33.1431 ], [ 73.6225, 33.1245 ], [ 73.6405, 33.1033 ], [ 73.8224, 33.0132 ] ], [ [ 73.5947, 33.2282 ], [ 73.6095, 33.2325 ] ], [ [ 73.5878, 33.2285 ], [ 73.5947, 33.2282 ] ], [ [ 73.5838, 33.2276 ], [ 73.5878, 33.2285 ] ], [ [ 73.9074, 33.0299 ], [ 73.943, 33.0182 ], [ 73.983, 32.9691 ], [ 74.317, 32.8231 ] ], [ [ 73.8224, 33.0132 ], [ 73.9074, 33.0299 ] ] ] } },
{ "type": "Feature", "properties": { "name": "Ceasefire Line 1994", "adm0_left": "Azerbaijan", "adm0_right": "Azerbaijan", "adm0_a3_l": "AZE", "adm0_a3_r": "AZE" }, "geometry": { "type": "MultiLineString", "coordinates": [ [ [ 46.7268, 40.4127 ], [ 46.7805, 40.392 ], [ 46.8713, 40.3126 ], [ 46.9054, 40.3051 ] ], [ [ 46.161, 40.2604 ], [ 46.3147, 40.2435 ] ], [ [ 45.9792, 40.2236 ], [ 46.161, 40.2604 ] ], [ [ 47.0178, 40.2465 ], [ 47.0687, 40.2036 ], [ 47.0801, 40.1242 ], [ 47.1527, 40.0221 ], [ 47.1817, 39.8533 ], [ 47.234, 39.7557 ] ], [ [ 47.234, 39.7557 ], [ 47.3244, 39.4059 ] ] ] } },
{ "type": "Feature", "properties": { "name": "Guatemalan claim", "adm0_left": "Belize", "adm0_right": "Belize", "adm0_a3_l": "BLZ", "adm0_a3_r": "BLZ" }, "geometry": { "type": "MultiLineString", "coordinates": [ [ [ -88.2602, 17.4231 ], [ -88.3069, 17.4376 ] ], [ [ -88.3069, 17.4376 ], [ -88.4185, 17.4116 ], [ -88.4557, 17.3558 ], [ -88.5153, 17.3446 ], [ -88.5227, 17.3037 ], [ -88.5637, 17.2813 ], [ -88.5934, 17.2218 ], [ -88.5972, 17.1622 ], [ -88.653, 17.099 ], [ -88.6679, 16.991 ], [ -88.7051, 16.9389 ], [ -88.6651, 16.8613 ], [ -88.6907, 16.8334 ], [ -88.6734, 16.8134 ], [ -88.7278, 16.7924 ], [ -88.7719, 16.7177 ], [ -88.7742, 16.681 ], [ -88.8178, 16.6562 ], [ -88.8194, 16.6136 ], [ -88.917, 16.5474 ] ], [ [ -88.917, 16.5474 ], [ -88.9218, 16.5482 ] ], [ [ -88.9218, 16.5482 ], [ -88.9565, 16.5133 ], [ -89.0057, 16.4976 ] ], [ [ -89.0057, 16.4976 ], [ -89.0269, 16.5129 ] ], [ [ -89.0269, 16.5129 ], [ -89.0706, 16.4766 ], [ -89.1513, 16.4539 ], [ -89.1931, 16.3926 ] ] ] } },
{ "type": "Feature", "properties": { "name": "Venezuelan claim", "adm0_left": "Guyana", "adm0_right": "Guyana", "adm0_a3_l": "GUY", "adm0_a3_r": "GUY" }, "geometry": { "type": "MultiLineString", "coordinates": [ [ [ -58.7808, 4.7488 ], [ -58.8441, 4.9716 ], [ -58.8207, 5.2291 ], [ -58.8851, 5.3267 ], [ -58.8591, 5.4086 ], [ -58.6931, 5.4376 ], [ -58.6229, 5.5811 ], [ -58.6154, 5.8194 ], [ -58.5704, 5.9374 ], [ -58.5846, 6.0748 ], [ -58.5704, 6.2763 ], [ -58.5977, 6.3415 ], [ -58.6021, 6.4166 ] ], [ [ -58.5636, 4.031 ], [ -58.5889, 4.0521 ], [ -58.4946, 4.1287 ], [ -58.4715, 4.1683 ], [ -58.4673, 4.207 ], [ -58.4946, 4.2926 ], [ -58.4605, 4.3441 ], [ -58.4769, 4.4742 ], [ -58.5344, 4.5346 ], [ -58.5704, 4.5465 ], [ -58.6722, 4.657 ], [ -58.7352, 4.7622 ] ], [ [ -58.7352, 4.7622 ], [ -58.7808, 4.7488 ] ], [ [ -58.2244, 2.6998 ], [ -58.1678, 2.763 ], [ -58.1725, 2.7993 ], [ -58.2141, 2.8265 ], [ -58.2067, 2.8532 ], [ -58.1716, 2.8719 ], [ -58.1885, 2.9374 ], [ -58.1493, 3.003 ], [ -58.1819, 3.0565 ], [ -58.2172, 3.0661 ], [ -58.3057, 3.1361 ], [ -58.2756, 3.1859 ], [ -58.2362, 3.3702 ], [ -58.2668, 3.4188 ], [ -58.2923, 3.5726 ], [ -58.3325, 3.6119 ], [ -58.3301, 3.6688 ], [ -58.4039, 3.7454 ], [ -58.3758, 3.766 ], [ -58.3575, 3.8196 ], [ -58.4121, 3.9258 ], [ -58.4394, 4.0319 ], [ -58.4605, 4.0394 ] ], [ [ -58.4605, 4.0394 ], [ -58.4984, 4.0263 ] ], [ [ -58.4984, 4.0263 ], [ -58.5431, 4.0394 ] ], [ [ -58.5431, 4.0394 ], [ -58.5636, 4.031 ] ], [ [ -58.2414, 2.703 ], [ -58.2244, 2.6998 ] ], [ [ -58.3269, 2.3299 ], [ -58.3512, 2.3536 ], [ -58.337, 2.4082 ], [ -58.3649, 2.4634 ], [ -58.3119, 2.4693 ], [ -58.287, 2.49 ], [ -58.2654, 2.6691 ], [ -58.2414, 2.703 ] ], [ [ -58.337, 2.2443 ], [ -58.2793, 2.3286 ], [ -58.3103, 2.3672 ] ], [ [ -58.3103, 2.3672 ], [ -58.3269, 2.3299 ] ], [ [ -58.3445, 2.2573 ], [ -58.337, 2.2443 ] ], [ [ -58.3661, 2.1932 ], [ -58.3512, 2.2027 ], [ -58.3445, 2.2573 ] ], [ [ -58.3711, 2.2164 ], [ -58.3661, 2.1932 ] ], [ [ -58.4059, 2.0861 ], [ -58.4033, 2.1727 ], [ -58.3711, 2.2164 ] ], [ [ -58.4059, 2.0929 ], [ -58.4059, 2.0861 ] ], [ [ -58.5192, 1.961 ], [ -58.4059, 2.0929 ] ], [ [ -58.523, 1.9622 ], [ -58.5192, 1.961 ] ], [ [ -58.644, 1.5582 ], [ -58.6114, 1.6206 ], [ -58.6102, 1.6798 ], [ -58.5392, 1.7625 ], [ -58.523, 1.9622 ] ], [ [ -58.6702, 1.5591 ], [ -58.644, 1.5582 ] ], [ [ -58.7063, 1.5237 ], [ -58.6702, 1.5591 ] ], [ [ -58.7218, 1.5328 ], [ -58.7063, 1.5237 ] ], [ [ -58.7545, 1.4774 ], [ -58.7218, 1.5328 ] ], [ [ -58.7612, 1.4777 ], [ -58.7545, 1.4774 ] ], [ [ -58.816, 1.1873 ], [ -58.8055, 1.2658 ], [ -58.774, 1.3373 ], [ -58.8038, 1.4561 ], [ -58.7612, 1.4777 ] ] ] } },
{ "type": "Feature", "properties": { "name": "Portuguese claim", "adm0_left": "Spain", "adm0_right": "Spain", "adm0_a3_l": "ESP", "adm0_a3_r": "ESP" }, "geometry": { "type": "MultiLineString", "coordinates": [ [ [ -7.2704, 38.6177 ], [ -7.2066, 38.5922 ], [ -7.1967, 38.5182 ], [ -7.2263, 38.5034 ] ], [ [ -7.2263, 38.5034 ], [ -7.3177, 38.5563 ] ] ] } },
{ "type": "Feature", "properties": { "name": "Western Saharan claim", "adm0_left": "Morocco", "adm0_right": "Morocco", "adm0_a3_l": "MAR", "adm0_a3_r": "MAR" }, "geometry": { "type": "MultiLineString", "coordinates": [ [ [ -12.9668, 27.6624 ], [ -13.0371, 27.6625 ] ], [ [ -13.0371, 27.6625 ], [ -13.1783, 27.6625 ] ], [ [ -12.6859, 27.6624 ], [ -12.8264, 27.6624 ] ], [ [ -12.8264, 27.6624 ], [ -12.9668, 27.6624 ] ], [ [ -12.405, 27.6623 ], [ -12.4752, 27.6624 ] ], [ [ -12.4752, 27.6624 ], [ -12.6859, 27.6624 ] ], [ [ -11.9835, 27.6622 ], [ -12.124, 27.6623 ] ], [ [ -12.124, 27.6623 ], [ -12.405, 27.6623 ] ], [ [ -11.5621, 27.6621 ], [ -11.6323, 27.6622 ] ], [ [ -11.6323, 27.6622 ], [ -11.9835, 27.6622 ] ], [ [ -11.2811, 27.662 ], [ -11.4216, 27.6621 ] ], [ [ -11.4216, 27.6621 ], [ -11.5621, 27.6621 ] ], [ [ -11.0002, 27.662 ], [ -11.0704, 27.662 ] ], [ [ -11.0704, 27.662 ], [ -11.2811, 27.662 ] ], [ [ -10.7192, 27.6619 ], [ -10.8597, 27.662 ] ], [ [ -10.8597, 27.662 ], [ -11.0002, 27.662 ] ], [ [ -10.4383, 27.6618 ], [ -10.5084, 27.6619 ] ], [ [ -10.5084, 27.6619 ], [ -10.7192, 27.6619 ] ], [ [ -10.1573, 27.6617 ], [ -10.2977, 27.6618 ] ], [ [ -10.2977, 27.6618 ], [ -10.4383, 27.6618 ] ], [ [ -9.7359, 27.6617 ], [ -9.8061, 27.6617 ] ], [ [ -9.8061, 27.6617 ], [ -10.1573, 27.6617 ] ], [ [ -9.3144, 27.6616 ], [ -9.4549, 27.6617 ] ], [ [ -9.4549, 27.6617 ], [ -9.7359, 27.6617 ] ], [ [ -9.0335, 27.6615 ], [ -9.1038, 27.6616 ] ], [ [ -9.1038, 27.6616 ], [ -9.3144, 27.6616 ] ], [ [ -8.817, 27.6615 ], [ -8.8931, 27.6615 ] ], [ [ -8.8931, 27.6615 ], [ -9.0335, 27.6615 ] ] ] } },
{ "type": "Feature", "properties": { "name": "Chinese claim", "adm0_left": "Bhutan", "adm0_right": "Bhutan", "adm0_a3_l": "BTN", "adm0_a3_r": "BTN" }, "geometry": { "type": "MultiLineString", "coordinates": [ [ [ 89.796, 28.2402 ], [ 89.8368, 28.2239 ] ], [ [ 89.8591, 28.228 ], [ 89.9008, 28.1822 ] ], [ [ 89.8368, 28.2239 ], [ 89.8591, 28.228 ] ], [ [ 90.1468, 28.1947 ], [ 90.2135, 28.146 ] ], [ [ 90.0884, 28.1516 ], [ 90.1246, 28.1683 ], [ 90.119, 28.1905 ], [ 90.1468, 28.1947 ] ], [ [ 89.9758, 28.1933 ], [ 90.0425, 28.1349 ] ], [ [ 89.9466, 28.1849 ], [ 89.9758, 28.1933 ] ], [ [ 89.9174, 28.1863 ], [ 89.9466, 28.1849 ] ], [ [ 89.9008, 28.1822 ], [ 89.9174, 28.1863 ] ], [ [ 90.2872, 28.1613 ], [ 90.3122, 28.1516 ], [ 90.3873, 28.0612 ] ], [ [ 90.2608, 28.146 ], [ 90.2872, 28.1613 ] ], [ [ 90.2441, 28.1544 ], [ 90.2608, 28.146 ] ], [ [ 90.2135, 28.146 ], [ 90.2441, 28.1544 ] ], [ [ 90.0592, 28.153 ], [ 90.0884, 28.1516 ] ], [ [ 90.0425, 28.1349 ], [ 90.0592, 28.153 ] ], [ [ 90.4331, 28.0654 ], [ 90.4752, 28.0723 ] ], [ [ 90.404, 28.071 ], [ 90.4331, 28.0654 ] ], [ [ 90.3873, 28.0612 ], [ 90.404, 28.071 ] ] ] } },
{ "type": "Feature", "properties": { "name": "Chinese claim", "adm0_left": "India", "adm0_right": "India", "adm0_a3_l": "IND", "adm0_a3_r": "IND" }, "geometry": { "type": "LineString", "coordinates": [ [ 79.1222, 33.2289 ], [ 79.1396, 33.1249 ], [ 79.095, 33.0551 ], [ 79.1093, 33.0079 ], [ 79.1761, 32.9935 ], [ 79.2285, 32.922 ], [ 79.2324, 32.8819 ], [ 79.1736, 32.8225 ], [ 79.2311, 32.7918 ], [ 79.2402, 32.7016 ], [ 79.2195, 32.6219 ], [ 79.2152, 32.5079 ] ] } },
{ "type": "Feature", "properties": { "name": "Indian claim", "adm0_left": "Pakistan", "adm0_right": "Pakistan", "adm0_a3_l": "PAK", "adm0_a3_r": "PAK" }, "geometry": { "type": "MultiLineString", "coordinates": [ [ [ 74.4638, 35.1237 ], [ 74.5207, 35.106 ], [ 74.5489, 35.0802 ], [ 74.6611, 34.9181 ], [ 74.866, 34.8285 ], [ 74.9746, 34.8129 ] ], [ [ 74.2692, 35.0868 ], [ 74.4638, 35.1237 ] ], [ [ 74.1247, 35.0992 ], [ 74.2692, 35.0868 ] ], [ [ 75.1411, 34.8703 ], [ 75.208, 34.8215 ], [ 75.2489, 34.7623 ], [ 75.2517, 34.6969 ], [ 75.2246, 34.6386 ] ], [ [ 74.9746, 34.8129 ], [ 75.0672, 34.8305 ], [ 75.1411, 34.8703 ] ] ] } },
{ "type": "Feature", "properties": { "name": "Former USSR oblast in 1991", "adm0_left": "Azerbaijan", "adm0_right": "Azerbaijan", "adm0_a3_l": "AZE", "adm0_a3_r": "AZE" }, "geometry": { "type": "LineString", "coordinates": [ [ 47.0178, 40.2465 ], [ 46.9289, 40.2521 ], [ 46.9313, 40.2138 ], [ 46.8274, 40.1787 ], [ 46.8298, 40.1545 ], [ 46.7907, 40.1529 ], [ 46.747, 40.0999 ], [ 46.7651, 40.0788 ], [ 46.6775, 40.0436 ], [ 46.6807, 40.0273 ], [ 46.8142, 40.0195 ], [ 46.8447, 39.9775 ], [ 46.8336, 39.9212 ], [ 46.8524, 39.9305 ], [ 46.8555, 39.918 ], [ 46.8961, 39.9548 ], [ 46.9258, 39.9384 ], [ 46.9219, 39.886 ], [ 46.8673, 39.8337 ], [ 46.8727, 39.8213 ], [ 46.9297, 39.8447 ], [ 46.9577, 39.8876 ], [ 46.9997, 39.897 ], [ 47.0904, 39.8899 ], [ 47.1814, 39.8531 ] ] } },
{ "type": "Feature", "properties": { "name": "Former USSR oblast in 1991", "adm0_left": "Azerbaijan", "adm0_right": "Azerbaijan", "adm0_a3_l": "AZE", "adm0_a3_r": "AZE" }, "geometry": { "type": "LineString", "coordinates": [ [ 46.4184, 39.9992 ], [ 46.3904, 40.039 ], [ 46.3373, 40.0413 ], [ 46.3779, 40.103 ], [ 46.3365, 40.0999 ], [ 46.3334, 40.1217 ], [ 46.3131, 40.1248 ], [ 46.317, 40.1615 ], [ 46.2914, 40.1561 ], [ 46.2937, 40.1881 ], [ 46.3178, 40.1998 ], [ 46.3147, 40.2435 ] ] } },
{ "type": "Feature", "properties": { "name": "Lebanese claim", "adm0_left": "Israel", "adm0_right": "Israel", "adm0_a3_l": "ISR", "adm0_a3_r": "ISR" }, "geometry": { "type": "MultiLineString", "coordinates": [ [ [ 35.6543, 33.2622 ], [ 35.7123, 33.3067 ], [ 35.7162, 33.3267 ] ], [ [ 35.6247, 33.2729 ], [ 35.6543, 33.2622 ] ] ] } },
{ "type": "Feature", "properties": { "name": "Ceasefire Line 1994", "adm0_left": "Azerbaijan", "adm0_right": "Azerbaijan", "adm0_a3_l": "AZE", "adm0_a3_r": "AZE" }, "geometry": { "type": "MultiLineString", "coordinates": [ [ [ 46.4475, 40.2786 ], [ 46.523, 40.309 ], [ 46.57, 40.3495 ], [ 46.7268, 40.4127 ] ], [ [ 46.3733, 40.2841 ], [ 46.4475, 40.2786 ] ], [ [ 46.3147, 40.2435 ], [ 46.3733, 40.2841 ] ] ] } },
{ "type": "Feature", "properties": { "name": "Former USSR oblast in 1991", "adm0_left": "Azerbaijan", "adm0_right": "Azerbaijan", "adm0_a3_l": "AZE", "adm0_a3_r": "AZE" }, "geometry": { "type": "MultiLineString", "coordinates": [ [ [ 46.4475, 40.2786 ], [ 46.523, 40.309 ], [ 46.57, 40.3495 ], [ 46.7268, 40.4127 ] ], [ [ 46.3733, 40.2841 ], [ 46.4475, 40.2786 ] ], [ [ 46.3147, 40.2435 ], [ 46.3733, 40.2841 ] ] ] } },
{ "type": "Feature", "properties": { "name": "Ceasefire Line 1994", "adm0_left": "Azerbaijan", "adm0_right": "Azerbaijan", "adm0_a3_l": "AZE", "adm0_a3_r": "AZE" }, "geometry": { "type": "LineString", "coordinates": [ [ 46.9054, 40.3051 ], [ 47.0178, 40.2465 ] ] } },
{ "type": "Feature", "properties": { "name": "Former USSR oblast in 1991", "adm0_left": "Azerbaijan", "adm0_right": "Azerbaijan", "adm0_a3_l": "AZE", "adm0_a3_r": "AZE" }, "geometry": { "type": "LineString", "coordinates": [ [ 46.9054, 40.3051 ], [ 47.0178, 40.2465 ] ] } },
{ "type": "Feature", "properties": { "name": "Chinese claim", "adm0_left": "India", "adm0_right": "India", "adm0_a3_l": "IND", "adm0_a3_r": "IND" }, "geometry": { "type": "LineString", "coordinates": [ [ 80.8839, 30.2104 ], [ 80.976, 30.2552 ] ] } },
{ "type": "Feature", "properties": { "name": "Ukrainian claim", "adm0_left": "Ukraine", "adm0_right": "Ukraine", "adm0_a3_l": "UKR", "adm0_a3_r": "UKR" }, "geometry": { "type": "LineString", "coordinates": [ [ 37.7533, 47.0753 ], [ 37.7718, 47.1195 ], [ 37.7573, 47.2649 ], [ 37.7877, 47.3066 ], [ 37.7841, 47.3619 ], [ 37.665, 47.5016 ], [ 37.5294, 47.6989 ], [ 37.4933, 47.874 ], [ 37.5006, 47.9249 ], [ 37.5341, 47.9772 ], [ 37.5781, 48.0095 ], [ 37.7098, 48.059 ], [ 37.7708, 48.2002 ], [ 37.9595, 48.3834 ], [ 38.3049, 48.4546 ], [ 38.3139, 48.5206 ], [ 38.2622, 48.5403 ], [ 38.27, 48.5736 ], [ 38.2557, 48.6009 ], [ 38.3265, 48.6727 ], [ 38.4169, 48.6933 ], [ 38.5813, 48.6727 ], [ 38.7744, 48.7056 ], [ 38.9511, 48.6316 ], [ 39.1086, 48.6501 ], [ 39.1394, 48.678 ], [ 39.2341, 48.691 ], [ 39.2963, 48.6727 ], [ 39.4566, 48.5823 ], [ 39.5605, 48.5955 ], [ 39.6317, 48.5869 ] ] } },
{ "type": "Feature", "properties": { "name": "Former USSR oblast in 1991", "adm0_left": "Azerbaijan", "adm0_right": "Azerbaijan", "adm0_a3_l": "AZE", "adm0_a3_r": "AZE" }, "geometry": { "type": "LineString", "coordinates": [ [ 47.2319, 39.7542 ], [ 47.1865, 39.7284 ], [ 47.1294, 39.7316 ], [ 47.1059, 39.6926 ], [ 47.0311, 39.6574 ], [ 47.0287, 39.6464 ], [ 47.1059, 39.6379 ], [ 47.113, 39.6191 ], [ 47.0442, 39.6028 ], [ 47.0318, 39.5739 ], [ 47.1217, 39.5825 ], [ 47.1059, 39.5224 ], [ 47.0622, 39.5053 ], [ 47.0834, 39.471 ], [ 47.0053, 39.4858 ], [ 47.0536, 39.4241 ], [ 46.9836, 39.3843 ], [ 46.9132, 39.4428 ], [ 46.9164, 39.46 ], [ 46.8799, 39.4592 ], [ 46.8486, 39.4787 ], [ 46.8149, 39.4507 ], [ 46.8243, 39.4202 ], [ 46.7635, 39.4054 ], [ 46.7557, 39.4678 ], [ 46.7674, 39.5107 ], [ 46.7306, 39.5287 ], [ 46.6791, 39.5208 ], [ 46.6955, 39.5669 ], [ 46.6581, 39.5778 ], [ 46.7439, 39.5934 ], [ 46.7494, 39.6488 ], [ 46.6651, 39.6652 ], [ 46.6558, 39.6106 ], [ 46.6244, 39.5973 ], [ 46.5996, 39.6332 ], [ 46.5669, 39.6332 ], [ 46.5512, 39.7051 ], [ 46.5824, 39.7159 ], [ 46.555, 39.847 ], [ 46.4655, 39.9212 ], [ 46.4583, 39.9657 ], [ 46.4184, 39.9992 ] ] } }
]
}
