{
"type": "FeatureCollection",
"name": "zona_de_actividades_logisticas_zal",
"crs": { "type": "name", "properties": { "name": "urn:ogc:def:crs:OGC:1.3:CRS84" } },
"xy_coordinate_resolution": 1e-06,
"features": [
{ "type": "Feature", "properties": { "id": null, "Texto1": "PROYECTO DE AMPLIACION DE BAHIA NORTE", "Texto2": null, "Area": null }, "geometry": { "type": "Polygon", "coordinates": [ [ [ -96.136473, 19.227525 ], [ -96.136122, 19.217656 ], [ -96.137434, 19.217489 ], [ -96.143967, 19.216982 ], [ -96.14305, 19.221002 ], [ -96.137372, 19.219909 ], [ -96.137502, 19.225434 ], [ -96.144081, 19.226822 ], [ -96.143698, 19.228774 ], [ -96.148102, 19.229103 ], [ -96.149282, 19.230031 ], [ -96.154261, 19.23839 ], [ -96.153118, 19.238877 ], [ -96.148136, 19.230807 ], [ -96.147452, 19.230052 ], [ -96.138422, 19.229712 ], [ -96.137117, 19.228848 ], [ -96.136473, 19.227525 ] ] ] } },
{ "type": "Feature", "properties": { "id": null, "Texto1": "BAHIA SUR O PUERTO ACTUAL", "Texto2": null, "Area": null }, "geometry": { "type": "Polygon", "coordinates": [ [ [ -96.133776, 19.217682 ], [ -96.132102, 19.217619 ], [ -96.130203, 19.217058 ], [ -96.128953, 19.216905 ], [ -96.128604, 19.217164 ], [ -96.128328, 19.217285 ], [ -96.128052, 19.217321 ], [ -96.127842, 19.217214 ], [ -96.127631, 19.216982 ], [ -96.127354, 19.216716 ], [ -96.126258, 19.216463 ], [ -96.12453, 19.214717 ], [ -96.123625, 19.21372 ], [ -96.12332, 19.212738 ], [ -96.123441, 19.208285 ], [ -96.120006, 19.203824 ], [ -96.120388, 19.203565 ], [ -96.123763, 19.208078 ], [ -96.122914, 19.204382 ], [ -96.123549, 19.204361 ], [ -96.124213, 19.207938 ], [ -96.124618, 19.207261 ], [ -96.124866, 19.207236 ], [ -96.125108, 19.20734 ], [ -96.125267, 19.205346 ], [ -96.12568, 19.205354 ], [ -96.125549, 19.207305 ], [ -96.126359, 19.20738 ], [ -96.12666, 19.205215 ], [ -96.127204, 19.205265 ], [ -96.127049, 19.207174 ], [ -96.130522, 19.20783 ], [ -96.129917, 19.209001 ], [ -96.130204, 19.209095 ], [ -96.130822, 19.208241 ], [ -96.132623, 19.20939 ], [ -96.131895, 19.210007 ], [ -96.132192, 19.210279 ], [ -96.133454, 19.209775 ], [ -96.135647, 19.214026 ], [ -96.136207, 19.213943 ], [ -96.135889, 19.212125 ], [ -96.136736, 19.212011 ], [ -96.137085, 19.213802 ], [ -96.13941, 19.213435 ], [ -96.138054, 19.21126 ], [ -96.140438, 19.209919 ], [ -96.139842, 19.209072 ], [ -96.137519, 19.210377 ], [ -96.137087, 19.20976 ], [ -96.139188, 19.208521 ], [ -96.138799, 19.207978 ], [ -96.136708, 19.209184 ], [ -96.136445, 19.208772 ], [ -96.138603, 19.207565 ], [ -96.137996, 19.20664 ], [ -96.135479, 19.20815 ], [ -96.134972, 19.207295 ], [ -96.138024, 19.205526 ], [ -96.137296, 19.204473 ], [ -96.135672, 19.205425 ], [ -96.135179, 19.204708 ], [ -96.136864, 19.203764 ], [ -96.136216, 19.202797 ], [ -96.1344, 19.20389 ], [ -96.134066, 19.203435 ], [ -96.135918, 19.202373 ], [ -96.135423, 19.201585 ], [ -96.132111, 19.203633 ], [ -96.131589, 19.202944 ], [ -96.136263, 19.199995 ], [ -96.139344, 19.204123 ], [ -96.139987, 19.203682 ], [ -96.143724, 19.208733 ], [ -96.143841, 19.208845 ], [ -96.14399, 19.208857 ], [ -96.148358, 19.20773 ], [ -96.149092, 19.207632 ], [ -96.151663, 19.208246 ], [ -96.151876, 19.208655 ], [ -96.152268, 19.208904 ], [ -96.15727, 19.21017 ], [ -96.157071, 19.210447 ], [ -96.156707, 19.210387 ], [ -96.156489, 19.21042 ], [ -96.156015, 19.210712 ], [ -96.15548, 19.212213 ], [ -96.160037, 19.213747 ], [ -96.160616, 19.213596 ], [ -96.16108, 19.213514 ], [ -96.161078, 19.213783 ], [ -96.160943, 19.214199 ], [ -96.160572, 19.21502 ], [ -96.16022, 19.21539 ], [ -96.159698, 19.215669 ], [ -96.158939, 19.215756 ], [ -96.158177, 19.21544 ], [ -96.157052, 19.214888 ], [ -96.156092, 19.214761 ], [ -96.15454, 19.215975 ], [ -96.14082, 19.216309 ], [ -96.133776, 19.217682 ] ] ] } },
{ "type": "Feature", "properties": { "id": null, "Texto1": "PROYECTO DE AMPLIACION DE BAHIA NORTE", "Texto2": null, "Area": null }, "geometry": { "type": "Polygon", "coordinates": [ [ [ -96.154543, 19.2171 ], [ -96.153579, 19.221254 ], [ -96.147545, 19.219794 ], [ -96.14813, 19.216713 ], [ -96.154543, 19.2171 ] ] ] } },
{ "type": "Feature", "properties": { "id": null, "Texto1": "PROYECTO DE AMPLIACION DE BAHIA NORTE", "Texto2": null, "Area": null }, "geometry": { "type": "Polygon", "coordinates": [ [ [ -96.162342, 19.23034 ], [ -96.163229, 19.231808 ], [ -96.162814, 19.232034 ], [ -96.163395, 19.232994 ], [ -96.16381, 19.232767 ], [ -96.165033, 19.23479 ], [ -96.16455, 19.235053 ], [ -96.165669, 19.236903 ], [ -96.166574, 19.238414 ], [ -96.164163, 19.239788 ], [ -96.163734, 19.23911 ], [ -96.161637, 19.240305 ], [ -96.155294, 19.230767 ], [ -96.155318, 19.230029 ], [ -96.155574, 19.229484 ], [ -96.159522, 19.22674 ], [ -96.159906, 19.227374 ], [ -96.160389, 19.227111 ], [ -96.161828, 19.22949 ], [ -96.161445, 19.229699 ], [ -96.161959, 19.230549 ], [ -96.162342, 19.23034 ] ] ] } },
{ "type": "Feature", "properties": { "id": null, "Texto1": "PROYECTO DE AMPLIACION DE BAHIA NORTE", "Texto2": null, "Area": null }, "geometry": { "type": "Polygon", "coordinates": [ [ [ -96.158063, 19.218742 ], [ -96.158681, 19.216078 ], [ -96.164176, 19.217349 ], [ -96.170416, 19.220933 ], [ -96.165941, 19.221833 ], [ -96.158063, 19.218742 ] ] ] } },
{ "type": "Feature", "properties": { "id": null, "Texto1": "Azul", "Texto2": null, "Area": null }, "geometry": { "type": "Polygon", "coordinates": [ [ [ -96.169996, 19.239077 ], [ -96.168763, 19.232825 ], [ -96.171574, 19.232302 ], [ -96.171826, 19.233527 ], [ -96.174348, 19.233161 ], [ -96.176351, 19.240888 ], [ -96.174292, 19.241226 ], [ -96.173707, 19.238387 ], [ -96.169996, 19.239077 ] ] ] } },
{ "type": "Feature", "properties": { "id": null, "Texto1": "amarillo", "Texto2": null, "Area": null }, "geometry": { "type": "Polygon", "coordinates": [ [ [ -96.168763, 19.232825 ], [ -96.168178, 19.229742 ], [ -96.171749, 19.229104 ], [ -96.171836, 19.228965 ], [ -96.171878, 19.228625 ], [ -96.171797, 19.22823 ], [ -96.174601, 19.227709 ], [ -96.17498, 19.23049 ], [ -96.174348, 19.233161 ], [ -96.171826, 19.233527 ], [ -96.171574, 19.232302 ], [ -96.168763, 19.232825 ] ] ] } },
{ "type": "Feature", "properties": { "id": null, "Texto1": "amarillo", "Texto2": null, "Area": null }, "geometry": { "type": "Polygon", "coordinates": [ [ [ -96.175518, 19.246358 ], [ -96.175349, 19.246216 ], [ -96.175195, 19.246054 ], [ -96.174945, 19.245612 ], [ -96.174525, 19.243647 ], [ -96.174525, 19.243313 ], [ -96.175077, 19.243185 ], [ -96.175615, 19.243091 ], [ -96.176164, 19.243075 ], [ -96.176539, 19.243129 ], [ -96.177008, 19.243307 ], [ -96.177264, 19.24357 ], [ -96.177592, 19.24528 ], [ -96.177785, 19.245291 ], [ -96.177974, 19.245355 ], [ -96.178116, 19.245557 ], [ -96.178042, 19.246789 ], [ -96.177164, 19.246712 ], [ -96.176433, 19.24662 ], [ -96.176099, 19.246563 ], [ -96.175843, 19.246495 ], [ -96.175518, 19.246358 ] ] ] } },
{ "type": "Feature", "properties": { "id": null, "Texto1": null, "Texto2": null, "Area": null }, "geometry": { "type": "Polygon", "coordinates": [ [ [ -96.174178, 19.242716 ], [ -96.173594, 19.242272 ], [ -96.172826, 19.238551 ], [ -96.173707, 19.238387 ], [ -96.174292, 19.241226 ], [ -96.175002, 19.24111 ], [ -96.175295, 19.242533 ], [ -96.174178, 19.242716 ] ] ] } },
{ "type": "Feature", "properties": { "id": null, "Texto1": "amarillo", "Texto2": null, "Area": null }, "geometry": { "type": "Polygon", "coordinates": [ [ [ -96.176666, 19.242307 ], [ -96.175295, 19.242533 ], [ -96.175002, 19.24111 ], [ -96.176351, 19.240888 ], [ -96.176666, 19.242307 ] ] ] } },
{ "type": "Feature", "properties": { "id": null, "Texto1": "rojo", "Texto2": null, "Area": null }, "geometry": { "type": "Polygon", "coordinates": [ [ [ -96.17096, 19.24397 ], [ -96.174256, 19.243356 ], [ -96.174839, 19.246298 ], [ -96.175006, 19.24658 ], [ -96.175171, 19.246698 ], [ -96.175445, 19.246768 ], [ -96.17633, 19.246915 ], [ -96.177219, 19.247021 ], [ -96.177183, 19.247546 ], [ -96.171626, 19.2472 ], [ -96.17096, 19.24397 ] ] ] } },
{ "type": "Feature", "properties": { "id": null, "Texto1": "naranja", "Texto2": null, "Area": null }, "geometry": { "type": "Polygon", "coordinates": [ [ [ -96.17096, 19.24397 ], [ -96.169996, 19.239077 ], [ -96.172586, 19.238595 ], [ -96.173379, 19.242437 ], [ -96.173661, 19.242597 ], [ -96.173921, 19.242782 ], [ -96.1741, 19.242919 ], [ -96.174256, 19.243356 ], [ -96.17096, 19.24397 ] ] ] } },
{ "type": "Feature", "properties": { "id": null, "Texto1": "verde", "Texto2": null, "Area": null }, "geometry": { "type": "Polygon", "coordinates": [ [ [ -96.170762, 19.22656 ], [ -96.171262, 19.229191 ], [ -96.168178, 19.229742 ], [ -96.167678, 19.227111 ], [ -96.170762, 19.22656 ] ] ] } },
{ "type": "Feature", "properties": { "id": null, "Texto1": "cafe", "Texto2": null, "Area": null }, "geometry": { "type": "Polygon", "coordinates": [ [ [ -96.170262, 19.223928 ], [ -96.170762, 19.22656 ], [ -96.167678, 19.227111 ], [ -96.167178, 19.224479 ], [ -96.170262, 19.223928 ] ] ] } },
{ "type": "Feature", "properties": { "id": null, "Texto1": "amarillo", "Texto2": null, "Area": null }, "geometry": { "type": "Polygon", "coordinates": [ [ [ -96.174032, 19.225806 ], [ -96.174475, 19.225785 ], [ -96.174654, 19.226925 ], [ -96.174611, 19.227103 ], [ -96.174479, 19.227218 ], [ -96.174159, 19.227295 ], [ -96.172885, 19.227512 ], [ -96.172689, 19.227494 ], [ -96.172531, 19.227416 ], [ -96.172428, 19.227298 ], [ -96.17227, 19.227158 ], [ -96.172006, 19.227083 ], [ -96.171838, 19.226951 ], [ -96.171756, 19.22674 ], [ -96.171682, 19.226382 ], [ -96.172211, 19.22619 ], [ -96.17366, 19.225849 ], [ -96.174032, 19.225806 ] ] ] } },
{ "type": "Feature", "properties": { "id": null, "Texto1": "amarillo", "Texto2": null, "Area": null }, "geometry": { "type": "Polygon", "coordinates": [ [ [ -96.173729, 19.223888 ], [ -96.17394, 19.223882 ], [ -96.174126, 19.223945 ], [ -96.174228, 19.224134 ], [ -96.174478, 19.225743 ], [ -96.173899, 19.225761 ], [ -96.173433, 19.225844 ], [ -96.172251, 19.226132 ], [ -96.171673, 19.226291 ], [ -96.171448, 19.225124 ], [ -96.171532, 19.224936 ], [ -96.171644, 19.224816 ], [ -96.171787, 19.224717 ], [ -96.171872, 19.224569 ], [ -96.171892, 19.22439 ], [ -96.171995, 19.22424 ], [ -96.173729, 19.223888 ] ] ] } },
{ "type": "Feature", "properties": { "id": null, "Texto1": "amarillo", "Texto2": null, "Area": null }, "geometry": { "type": "Polygon", "coordinates": [ [ [ -96.167495, 19.224422 ], [ -96.167208, 19.222908 ], [ -96.167629, 19.222833 ], [ -96.167369, 19.221521 ], [ -96.170416, 19.220933 ], [ -96.171124, 19.220662 ], [ -96.171498, 19.220559 ], [ -96.171932, 19.220589 ], [ -96.172139, 19.220782 ], [ -96.172256, 19.221322 ], [ -96.172928, 19.222748 ], [ -96.173119, 19.222754 ], [ -96.173337, 19.222689 ], [ -96.173562, 19.222707 ], [ -96.173758, 19.222778 ], [ -96.173904, 19.222946 ], [ -96.174006, 19.223104 ], [ -96.174028, 19.223251 ], [ -96.174016, 19.223403 ], [ -96.173917, 19.223548 ], [ -96.173755, 19.223658 ], [ -96.173516, 19.223725 ], [ -96.170334, 19.224304 ], [ -96.170262, 19.223928 ], [ -96.167495, 19.224422 ] ] ] } },
{ "type": "Feature", "properties": { "id": null, "Texto1": "fuccia", "Texto2": null, "Area": null }, "geometry": { "type": "Polygon", "coordinates": [ [ [ -96.187218, 19.248826 ], [ -96.182171, 19.248595 ], [ -96.181882, 19.248528 ], [ -96.181088, 19.248185 ], [ -96.180636, 19.247769 ], [ -96.180204, 19.247298 ], [ -96.179762, 19.246009 ], [ -96.186968, 19.24565 ], [ -96.187241, 19.24586 ], [ -96.187568, 19.248462 ], [ -96.187529, 19.248639 ], [ -96.187398, 19.248789 ], [ -96.187218, 19.248826 ] ] ] } },
{ "type": "Feature", "properties": { "id": null, "Texto1": "fuccia", "Texto2": null, "Area": null }, "geometry": { "type": "Polygon", "coordinates": [ [ [ -96.187187, 19.245502 ], [ -96.179837, 19.245857 ], [ -96.179689, 19.245741 ], [ -96.179606, 19.245558 ], [ -96.179325, 19.239886 ], [ -96.179377, 19.239738 ], [ -96.185898, 19.239268 ], [ -96.186239, 19.239373 ], [ -96.186514, 19.239662 ], [ -96.186777, 19.240306 ], [ -96.187187, 19.245502 ] ], [ [ -96.185516, 19.239507 ], [ -96.18539, 19.239409 ], [ -96.183652, 19.239581 ], [ -96.183533, 19.239659 ], [ -96.183645, 19.24116 ], [ -96.183739, 19.241289 ], [ -96.185593, 19.241146 ], [ -96.185516, 19.239507 ] ], [ [ -96.183471, 19.241267 ], [ -96.1835, 19.241149 ], [ -96.183419, 19.2397 ], [ -96.18334, 19.239636 ], [ -96.181494, 19.239707 ], [ -96.181419, 19.23977 ], [ -96.181509, 19.24131 ], [ -96.181672, 19.241403 ], [ -96.183471, 19.241267 ] ] ] } },
{ "type": "Feature", "properties": { "id": null, "Texto1": "fuccia", "Texto2": null, "Area": null }, "geometry": { "type": "Polygon", "coordinates": [ [ [ -96.186684, 19.23781 ], [ -96.186406, 19.238685 ], [ -96.186123, 19.238969 ], [ -96.185242, 19.239096 ], [ -96.179249, 19.23938 ], [ -96.178532, 19.2393 ], [ -96.178102, 19.23897 ], [ -96.17784, 19.23852 ], [ -96.177537, 19.237291 ], [ -96.177259, 19.237046 ], [ -96.176951, 19.236972 ], [ -96.176115, 19.237093 ], [ -96.175216, 19.233669 ], [ -96.175584, 19.231274 ], [ -96.175809, 19.232038 ], [ -96.175785, 19.232746 ], [ -96.17601, 19.233139 ], [ -96.176144, 19.233792 ], [ -96.176424, 19.234301 ], [ -96.176277, 19.235185 ], [ -96.176372, 19.235948 ], [ -96.176774, 19.236652 ], [ -96.17779, 19.236869 ], [ -96.17862, 19.238204 ], [ -96.179545, 19.238432 ], [ -96.180045, 19.238048 ], [ -96.180056, 19.237746 ], [ -96.180881, 19.236807 ], [ -96.18107, 19.236076 ], [ -96.180601, 19.235169 ], [ -96.180323, 19.234924 ], [ -96.179837, 19.235025 ], [ -96.179619, 19.23456 ], [ -96.179058, 19.234159 ], [ -96.178945, 19.232023 ], [ -96.17878, 19.231604 ], [ -96.178507, 19.231385 ], [ -96.178464, 19.2311 ], [ -96.178522, 19.230924 ], [ -96.178423, 19.230761 ], [ -96.178183, 19.230582 ], [ -96.177977, 19.23001 ], [ -96.178171, 19.229878 ], [ -96.179657, 19.229696 ], [ -96.179891, 19.229083 ], [ -96.181352, 19.229478 ], [ -96.181464, 19.230107 ], [ -96.181927, 19.230662 ], [ -96.182989, 19.231754 ], [ -96.183259, 19.232317 ], [ -96.183744, 19.232772 ], [ -96.184233, 19.232936 ], [ -96.184682, 19.233211 ], [ -96.186407, 19.235069 ], [ -96.186555, 19.235878 ], [ -96.186684, 19.23781 ] ] ] } },
{ "type": "Feature", "properties": { "id": null, "Texto1": "bosque", "Texto2": null, "Area": null }, "geometry": { "type": "Polygon", "coordinates": [ [ [ -96.178423, 19.230761 ], [ -96.178522, 19.230924 ], [ -96.178464, 19.2311 ], [ -96.178507, 19.231385 ], [ -96.17878, 19.231604 ], [ -96.178945, 19.232023 ], [ -96.179058, 19.234159 ], [ -96.179619, 19.23456 ], [ -96.179837, 19.235025 ], [ -96.180323, 19.234924 ], [ -96.180601, 19.235169 ], [ -96.18107, 19.236076 ], [ -96.180881, 19.236807 ], [ -96.180056, 19.237746 ], [ -96.180045, 19.238048 ], [ -96.179545, 19.238432 ], [ -96.17862, 19.238204 ], [ -96.17779, 19.236869 ], [ -96.176774, 19.236652 ], [ -96.176372, 19.235948 ], [ -96.176277, 19.235185 ], [ -96.176424, 19.234301 ], [ -96.176144, 19.233792 ], [ -96.17601, 19.233139 ], [ -96.175785, 19.232746 ], [ -96.175809, 19.232038 ], [ -96.175584, 19.231274 ], [ -96.175787, 19.230593 ], [ -96.175874, 19.229664 ], [ -96.175823, 19.22896 ], [ -96.175914, 19.228084 ], [ -96.176963, 19.226816 ], [ -96.177178, 19.226747 ], [ -96.177432, 19.226763 ], [ -96.177521, 19.226817 ], [ -96.178266, 19.227181 ], [ -96.178687, 19.227448 ], [ -96.180776, 19.227721 ], [ -96.181233, 19.227596 ], [ -96.181337, 19.227702 ], [ -96.181352, 19.229478 ], [ -96.179891, 19.229083 ], [ -96.179657, 19.229696 ], [ -96.178171, 19.229878 ], [ -96.177977, 19.23001 ], [ -96.178183, 19.230582 ], [ -96.178423, 19.230761 ] ] ] } },
{ "type": "Feature", "properties": { "id": null, "Texto1": "bosque", "Texto2": null, "Area": null }, "geometry": { "type": "Polygon", "coordinates": [ [ [ -96.17013, 19.218629 ], [ -96.170103, 19.219271 ], [ -96.169988, 19.22004 ], [ -96.169317, 19.219739 ], [ -96.169108, 19.219767 ], [ -96.168638, 19.219912 ], [ -96.164176, 19.217349 ], [ -96.161915, 19.216072 ], [ -96.160667, 19.214962 ], [ -96.160827, 19.214709 ], [ -96.162018, 19.214448 ], [ -96.162826, 19.214391 ], [ -96.163679, 19.214523 ], [ -96.167198, 19.216315 ], [ -96.17003, 19.218366 ], [ -96.17013, 19.218629 ] ] ] } },
{ "type": "Feature", "properties": { "id": null, "Texto1": "fuccia", "Texto2": null, "Area": null }, "geometry": { "type": "Polygon", "coordinates": [ [ [ -96.186827, 19.235019 ], [ -96.182254, 19.230149 ], [ -96.182185, 19.228344 ], [ -96.182375, 19.228087 ], [ -96.184779, 19.228127 ], [ -96.185147, 19.228339 ], [ -96.186671, 19.230166 ], [ -96.186827, 19.235019 ] ] ] } },
{ "type": "Feature", "properties": { "id": null, "Texto1": "naranjaclaro", "Texto2": null, "Area": null }, "geometry": { "type": "Polygon", "coordinates": [ [ [ -96.18639, 19.225321 ], [ -96.186431, 19.226456 ], [ -96.186285, 19.226401 ], [ -96.186064, 19.226636 ], [ -96.18419, 19.226485 ], [ -96.182704, 19.226554 ], [ -96.181672, 19.226697 ], [ -96.181206, 19.226811 ], [ -96.180698, 19.226832 ], [ -96.179739, 19.226811 ], [ -96.178782, 19.226593 ], [ -96.177962, 19.226179 ], [ -96.177278, 19.225682 ], [ -96.181555, 19.225118 ], [ -96.181747, 19.225878 ], [ -96.18639, 19.225321 ] ] ] } },
{ "type": "Feature", "properties": { "id": null, "Texto1": "aduana", "Texto2": null, "Area": null }, "geometry": { "type": "Polygon", "coordinates": [ [ [ -96.19277, 19.227373 ], [ -96.192767, 19.227916 ], [ -96.191612, 19.229357 ], [ -96.191423, 19.229443 ], [ -96.19125, 19.229438 ], [ -96.191156, 19.229399 ], [ -96.191001, 19.229285 ], [ -96.189451, 19.23068 ], [ -96.188115, 19.2307 ], [ -96.187048, 19.230544 ], [ -96.186671, 19.230166 ], [ -96.185147, 19.228339 ], [ -96.184779, 19.228127 ], [ -96.182375, 19.228087 ], [ -96.183227, 19.227353 ], [ -96.19277, 19.227373 ] ] ] } },
{ "type": "Feature", "properties": { "id": null, "Texto1": "fuccia", "Texto2": null, "Area": null }, "geometry": { "type": "Polygon", "coordinates": [ [ [ -96.179461, 19.245663 ], [ -96.178604, 19.24061 ], [ -96.178054, 19.239912 ], [ -96.178198, 19.239931 ], [ -96.178304, 19.239917 ], [ -96.178492, 19.239828 ], [ -96.178677, 19.239764 ], [ -96.178937, 19.239708 ], [ -96.179005, 19.239717 ], [ -96.179067, 19.239751 ], [ -96.179111, 19.239805 ], [ -96.17913, 19.239867 ], [ -96.179461, 19.245663 ] ] ] } },
{ "type": "Feature", "properties": { "id": null, "Texto1": "fuccia", "Texto2": null, "Area": null }, "geometry": { "type": "Polygon", "coordinates": [ [ [ -96.177812, 19.239606 ], [ -96.17624, 19.237611 ], [ -96.176667, 19.237492 ], [ -96.176888, 19.237489 ], [ -96.17709, 19.237526 ], [ -96.177251, 19.237614 ], [ -96.17739, 19.237773 ], [ -96.177466, 19.237963 ], [ -96.177812, 19.239606 ] ] ] } }
]
}
