{
"type": "FeatureCollection",
"name": "zonificacion_agricola_y_periurbana_odepa_ciren",
"crs": { "type": "name", "properties": { "name": "urn:ogc:def:crs:OGC:1.3:CRS84" } },
"xy_coordinate_resolution": 1e-06,
"features": [
{ "type": "Feature", "properties": { "cat_code": 1, "categoria": "Áreas Agrícolas Activas", "subsector": "Valle del Aconcagua y Limache", "descrip": "Fruticultura de exportación (paltos, cítricos), viñedos y hortalizas", "clase_suel": "Clase I y II (Riego)" }, "geometry": { "type": "MultiPolygon", "coordinates": [ [ [ [ -71.480985, -32.927245 ], [ -71.480013, -32.92734 ], [ -71.478786, -32.927959 ], [ -71.478092, -32.928452 ], [ -71.477477, -32.929014 ], [ -71.47695, -32.929636 ], [ -71.476519, -32.930308 ], [ -71.476185, -32.930701 ], [ -71.475769, -32.931035 ], [ -71.475286, -32.931299 ], [ -71.472976, -32.931979 ], [ -71.470616, -32.932436 ], [ -71.470168, -32.931919 ], [ -71.470116, -32.931679 ], [ -71.470145, -32.931497 ], [ -71.470168, -32.931439 ], [ -71.471236, -32.931162 ], [ -71.47179, -32.929258 ], [ -71.474149, -32.929172 ], [ -71.475351, -32.927807 ], [ -71.474728, -32.925592 ], [ -71.474899, -32.925227 ], [ -71.475414, -32.924699 ], [ -71.476867, -32.92392 ], [ -71.477428, -32.923487 ], [ -71.47768, -32.923197 ], [ -71.477974, -32.923118 ], [ -71.478218, -32.923152 ], [ -71.478681, -32.923469 ], [ -71.479067, -32.923593 ], [ -71.479522, -32.923104 ], [ -71.479962, -32.922882 ], [ -71.480473, -32.922845 ], [ -71.480983, -32.923018 ], [ -71.481222, -32.923305 ], [ -71.4822, -32.926171 ], [ -71.482273, -32.926553 ], [ -71.485747, -32.925817 ], [ -71.485183, -32.924112 ], [ -71.486245, -32.923898 ], [ -71.487193, -32.923856 ], [ -71.487292, -32.922882 ], [ -71.486931, -32.922779 ], [ -71.486103, -32.922365 ], [ -71.48563, -32.921951 ], [ -71.484979, -32.921537 ], [ -71.483795, -32.9213 ], [ -71.481843, -32.921182 ], [ -71.480659, -32.920708 ], [ -71.47938, -32.920285 ], [ -71.479047, -32.920237 ], [ -71.478798, -32.920362 ], [ -71.478334, -32.920398 ], [ -71.477862, -32.920341 ], [ -71.476487, -32.919718 ], [ -71.475346, -32.919419 ], [ -71.474915, -32.919399 ], [ -71.474259, -32.919148 ], [ -71.473743, -32.919039 ], [ -71.473092, -32.919096 ], [ -71.472828, -32.919176 ], [ -71.47244, -32.919467 ], [ -71.471759, -32.920126 ], [ -71.470944, -32.920452 ], [ -71.470102, -32.920533 ], [ -71.469826, -32.9205 ], [ -71.468072, -32.919627 ], [ -71.467379, -32.919523 ], [ -71.466706, -32.919582 ], [ -71.464918, -32.920618 ], [ -71.464751, -32.920861 ], [ -71.464532, -32.921376 ], [ -71.464308, -32.921721 ], [ -71.463989, -32.922055 ], [ -71.463476, -32.922379 ], [ -71.462657, -32.922629 ], [ -71.462137, -32.922663 ], [ -71.461652, -32.922544 ], [ -71.460647, -32.922191 ], [ -71.459723, -32.921729 ], [ -71.45956, -32.921376 ], [ -71.459153, -32.920914 ], [ -71.458745, -32.920533 ], [ -71.45831, -32.920398 ], [ -71.45755, -32.920425 ], [ -71.456218, -32.920778 ], [ -71.455267, -32.921294 ], [ -71.455052, -32.921513 ], [ -71.454927, -32.921762 ], [ -71.454887, -32.922625 ], [ -71.454479, -32.924609 ], [ -71.454126, -32.925804 ], [ -71.453583, -32.927217 ], [ -71.453129, -32.927546 ], [ -71.452822, -32.927598 ], [ -71.452514, -32.927517 ], [ -71.452359, -32.927396 ], [ -71.451844, -32.926456 ], [ -71.451572, -32.926185 ], [ -71.451165, -32.926103 ], [ -71.450485, -32.926103 ], [ -71.449453, -32.926429 ], [ -71.448828, -32.926429 ], [ -71.445894, -32.926049 ], [ -71.44535, -32.925777 ], [ -71.44497, -32.925424 ], [ -71.444567, -32.924887 ], [ -71.444451, -32.924591 ], [ -71.444473, -32.924152 ], [ -71.444345, -32.923549 ], [ -71.443965, -32.923196 ], [ -71.442876, -32.922677 ], [ -71.44299, -32.922405 ], [ -71.443099, -32.921199 ], [ -71.44302, -32.91831 ], [ -71.442781, -32.917412 ], [ -71.442478, -32.916755 ], [ -71.441752, -32.916348 ], [ -71.438287, -32.916235 ], [ -71.437856, -32.916123 ], [ -71.437776, -32.915823 ], [ -71.437909, -32.91546 ], [ -71.438387, -32.914667 ], [ -71.438802, -32.914178 ], [ -71.44042, -32.913303 ], [ -71.440979, -32.912871 ], [ -71.441251, -32.912384 ], [ -71.441229, -32.911601 ], [ -71.441359, -32.911117 ], [ -71.441269, -32.910457 ], [ -71.44083, -32.910044 ], [ -71.439824, -32.909822 ], [ -71.43903, -32.909477 ], [ -71.438809, -32.90924 ], [ -71.438925, -32.908275 ], [ -71.440678, -32.907096 ], [ -71.441807, -32.906653 ], [ -71.443014, -32.906388 ], [ -71.443861, -32.906071 ], [ -71.444419, -32.905578 ], [ -71.44482, -32.904607 ], [ -71.445638, -32.903206 ], [ -71.446101, -32.901872 ], [ -71.446588, -32.901381 ], [ -71.447707, -32.900576 ], [ -71.44852, -32.898995 ], [ -71.448862, -32.898446 ], [ -71.449282, -32.898137 ], [ -71.450352, -32.898116 ], [ -71.450775, -32.897927 ], [ -71.451049, -32.8975 ], [ -71.45104, -32.897199 ], [ -71.450653, -32.896722 ], [ -71.449821, -32.896871 ], [ -71.448279, -32.897284 ], [ -71.445634, -32.895989 ], [ -71.443105, -32.895025 ], [ -71.44048, -32.894263 ], [ -71.437392, -32.893624 ], [ -71.435152, -32.893326 ], [ -71.432812, -32.892681 ], [ -71.430878, -32.892275 ], [ -71.428791, -32.891956 ], [ -71.426555, -32.891747 ], [ -71.424436, -32.891673 ], [ -71.422315, -32.891717 ], [ -71.420203, -32.891881 ], [ -71.417439, -32.89228 ], [ -71.415432, -32.892737 ], [ -71.413362, -32.89249 ], [ -71.410673, -32.892339 ], [ -71.409094, -32.892336 ], [ -71.406404, -32.892474 ], [ -71.404837, -32.89264 ], [ -71.402189, -32.893066 ], [ -71.400659, -32.893398 ], [ -71.398325, -32.894016 ], [ -71.394725, -32.894166 ], [ -71.391833, -32.894501 ], [ -71.388756, -32.894776 ], [ -71.38659, -32.894132 ], [ -71.384031, -32.893485 ], [ -71.3825, -32.893184 ], [ -71.37971, -32.892797 ], [ -71.377049, -32.892614 ], [ -71.374222, -32.892614 ], [ -71.372654, -32.892701 ], [ -71.370006, -32.892989 ], [ -71.367833, -32.893341 ], [ -71.365737, -32.893771 ], [ -71.363286, -32.894398 ], [ -71.36126, -32.895024 ], [ -71.358655, -32.896008 ], [ -71.357859, -32.89639 ], [ -71.355649, -32.896954 ], [ -71.349974, -32.898909 ], [ -71.347697, -32.89988 ], [ -71.345073, -32.901154 ], [ -71.343141, -32.901619 ], [ -71.341188, -32.90221 ], [ -71.339283, -32.902908 ], [ -71.337529, -32.903668 ], [ -71.335267, -32.904842 ], [ -71.333271, -32.905452 ], [ -71.332823, -32.904878 ], [ -71.330516, -32.902317 ], [ -71.329309, -32.900882 ], [ -71.328303, -32.899825 ], [ -71.326208, -32.897921 ], [ -71.325034, -32.896997 ], [ -71.323705, -32.896054 ], [ -71.322426, -32.895237 ], [ -71.320057, -32.89386 ], [ -71.318488, -32.89246 ], [ -71.316345, -32.890099 ], [ -71.314525, -32.88842 ], [ -71.312869, -32.887091 ], [ -71.311768, -32.886295 ], [ -71.309957, -32.885119 ], [ -71.308483, -32.884272 ], [ -71.306516, -32.88244 ], [ -71.305064, -32.881257 ], [ -71.303721, -32.880272 ], [ -71.303221, -32.879641 ], [ -71.302081, -32.877474 ], [ -71.301281, -32.876202 ], [ -71.299694, -32.874063 ], [ -71.29863, -32.87284 ], [ -71.297866, -32.870985 ], [ -71.296699, -32.868828 ], [ -71.295297, -32.866773 ], [ -71.293673, -32.864839 ], [ -71.292617, -32.863802 ], [ -71.292029, -32.862861 ], [ -71.290747, -32.861148 ], [ -71.28882, -32.859025 ], [ -71.286696, -32.857132 ], [ -71.284353, -32.855434 ], [ -71.282721, -32.85448 ], [ -71.281844, -32.853848 ], [ -71.279148, -32.852166 ], [ -71.275287, -32.850194 ], [ -71.272027, -32.848935 ], [ -71.272884, -32.846328 ], [ -71.273362, -32.843893 ], [ -71.273393, -32.8435 ], [ -71.274227, -32.841848 ], [ -71.275046, -32.839863 ], [ -71.275742, -32.83783 ], [ -71.276043, -32.836724 ], [ -71.276515, -32.834334 ], [ -71.276733, -32.832225 ], [ -71.276775, -32.83109 ], [ -71.276703, -32.82882 ], [ -71.276421, -32.826563 ], [ -71.275934, -32.82433 ], [ -71.275203, -32.822032 ], [ -71.275144, -32.820448 ], [ -71.274854, -32.818092 ], [ -71.274467, -32.81615 ], [ -71.273986, -32.814351 ], [ -71.273931, -32.811649 ], [ -71.273583, -32.8092 ], [ -71.273274, -32.807893 ], [ -71.2732, -32.806863 ], [ -71.273464, -32.804131 ], [ -71.273433, -32.802006 ], [ -71.27319, -32.799891 ], [ -71.272771, -32.797416 ], [ -71.272197, -32.795123 ], [ -71.271374, -32.792885 ], [ -71.270308, -32.790721 ], [ -71.26901, -32.78865 ], [ -71.266988, -32.78612 ], [ -71.265118, -32.781926 ], [ -71.264355, -32.780492 ], [ -71.263555, -32.77919 ], [ -71.262705, -32.777969 ], [ -71.260977, -32.77575 ], [ -71.259875, -32.774539 ], [ -71.257739, -32.772529 ], [ -71.256433, -32.771475 ], [ -71.253962, -32.769768 ], [ -71.251832, -32.768524 ], [ -71.24944, -32.767324 ], [ -71.247969, -32.766693 ], [ -71.246465, -32.765383 ], [ -71.244604, -32.763986 ], [ -71.243506, -32.763249 ], [ -71.24169, -32.762151 ], [ -71.240922, -32.761483 ], [ -71.238956, -32.760045 ], [ -71.236866, -32.758783 ], [ -71.234292, -32.757039 ], [ -71.231908, -32.755754 ], [ -71.229391, -32.754666 ], [ -71.22656, -32.753594 ], [ -71.224467, -32.752945 ], [ -71.222426, -32.752444 ], [ -71.220349, -32.752061 ], [ -71.218349, -32.751808 ], [ -71.216232, -32.75166 ], [ -71.214107, -32.751633 ], [ -71.211986, -32.751728 ], [ -71.209775, -32.751957 ], [ -71.207689, -32.752298 ], [ -71.205732, -32.752734 ], [ -71.20437, -32.753119 ], [ -71.202346, -32.753539 ], [ -71.200652, -32.753987 ], [ -71.198278, -32.75383 ], [ -71.196358, -32.753796 ], [ -71.195694, -32.757446 ], [ -71.195379, -32.75744 ], [ -71.19535, -32.756824 ], [ -71.19598, -32.753796 ], [ -71.193755, -32.753871 ], [ -71.191503, -32.754058 ], [ -71.188691, -32.75446 ], [ -71.188044, -32.754499 ], [ -71.184496, -32.755037 ], [ -71.181936, -32.755618 ], [ -71.179447, -32.756388 ], [ -71.177049, -32.757342 ], [ -71.173678, -32.758968 ], [ -71.172371, -32.759766 ], [ -71.169615, -32.760848 ], [ -71.167321, -32.761997 ], [ -71.165158, -32.763314 ], [ -71.162963, -32.764933 ], [ -71.160935, -32.766722 ], [ -71.159125, -32.768671 ], [ -71.158331, -32.769668 ], [ -71.156875, -32.771818 ], [ -71.156224, -32.772971 ], [ -71.155532, -32.774443 ], [ -71.154554, -32.776141 ], [ -71.153543, -32.778441 ], [ -71.153153, -32.779688 ], [ -71.152256, -32.78128 ], [ -71.151731, -32.782361 ], [ -71.150822, -32.783605 ], [ -71.148353, -32.786571 ], [ -71.147641, -32.78755 ], [ -71.14658, -32.789188 ], [ -71.145408, -32.79069 ], [ -71.144236, -32.792378 ], [ -71.145106, -32.792987 ], [ -71.145287, -32.793195 ], [ -71.145411, -32.793711 ], [ -71.145416, -32.794243 ], [ -71.147526, -32.795427 ], [ -71.148042, -32.794321 ], [ -71.148511, -32.794526 ], [ -71.148045, -32.795519 ], [ -71.149104, -32.796016 ], [ -71.148926, -32.796333 ], [ -71.147918, -32.795757 ], [ -71.14762, -32.79659 ], [ -71.148153, -32.797253 ], [ -71.147643, -32.798101 ], [ -71.14814, -32.798372 ], [ -71.148243, -32.798735 ], [ -71.148496, -32.799135 ], [ -71.148779, -32.799397 ], [ -71.149218, -32.799675 ], [ -71.149207, -32.800313 ], [ -71.146076, -32.798662 ], [ -71.145993, -32.802283 ], [ -71.145631, -32.802899 ], [ -71.147841, -32.804109 ], [ -71.147572, -32.804506 ], [ -71.145616, -32.803666 ], [ -71.144611, -32.803115 ], [ -71.143417, -32.802607 ], [ -71.143173, -32.802233 ], [ -71.142687, -32.801192 ], [ -71.141883, -32.80054 ], [ -71.141876, -32.800224 ], [ -71.140665, -32.799592 ], [ -71.140364, -32.799297 ], [ -71.140223, -32.799009 ], [ -71.140164, -32.798592 ], [ -71.140208, -32.798223 ], [ -71.140413, -32.797793 ], [ -71.140685, -32.7975 ], [ -71.141035, -32.797274 ], [ -71.141419, -32.797314 ], [ -71.141893, -32.797242 ], [ -71.142919, -32.796783 ], [ -71.142809, -32.796521 ], [ -71.142844, -32.7963 ], [ -71.14339, -32.795471 ], [ -71.143683, -32.794696 ], [ -71.143734, -32.79423 ], [ -71.143673, -32.793765 ], [ -71.143846, -32.793437 ], [ -71.14382, -32.793031 ], [ -71.142855, -32.793745 ], [ -71.141855, -32.794361 ], [ -71.139579, -32.796091 ], [ -71.137523, -32.798009 ], [ -71.135711, -32.800094 ], [ -71.134161, -32.802325 ], [ -71.132889, -32.804678 ], [ -71.132265, -32.806238 ], [ -71.132049, -32.806571 ], [ -71.131243, -32.807304 ], [ -71.129698, -32.808064 ], [ -71.12789, -32.809137 ], [ -71.125119, -32.811152 ], [ -71.12312, -32.812965 ], [ -71.121187, -32.815125 ], [ -71.119266, -32.816994 ], [ -71.117946, -32.818528 ], [ -71.116934, -32.817966 ], [ -71.114167, -32.816757 ], [ -71.111267, -32.815799 ], [ -71.108264, -32.8151 ], [ -71.105191, -32.814668 ], [ -71.101603, -32.814452 ], [ -71.100615, -32.814483 ], [ -71.098216, -32.813644 ], [ -71.096336, -32.813158 ], [ -71.094646, -32.812476 ], [ -71.092885, -32.811872 ], [ -71.091196, -32.811387 ], [ -71.089589, -32.811005 ], [ -71.087998, -32.810705 ], [ -71.085604, -32.80961 ], [ -71.0834, -32.808731 ], [ -71.081039, -32.807549 ], [ -71.080228, -32.807232 ], [ -71.077382, -32.805865 ], [ -71.074485, -32.804802 ], [ -71.073346, -32.8045 ], [ -71.072313, -32.804131 ], [ -71.068316, -32.803107 ], [ -71.065912, -32.802664 ], [ -71.063075, -32.80185 ], [ -71.06018, -32.801279 ], [ -71.057232, -32.800954 ], [ -71.053572, -32.800889 ], [ -71.050555, -32.801068 ], [ -71.047574, -32.801503 ], [ -71.045449, -32.802004 ], [ -71.042616, -32.802465 ], [ -71.040096, -32.803017 ], [ -71.037246, -32.803827 ], [ -71.034507, -32.804875 ], [ -71.031906, -32.80615 ], [ -71.02947, -32.80764 ], [ -71.02773, -32.808947 ], [ -71.027389, -32.807949 ], [ -71.026303, -32.805647 ], [ -71.026022, -32.805189 ], [ -71.025568, -32.804188 ], [ -71.024255, -32.801972 ], [ -71.022691, -32.799876 ], [ -71.021516, -32.798598 ], [ -71.020243, -32.796926 ], [ -71.017977, -32.794457 ], [ -71.017108, -32.793592 ], [ -71.015949, -32.792585 ], [ -71.015604, -32.793932 ], [ -71.015496, -32.795389 ], [ -71.01592, -32.796669 ], [ -71.016978, -32.798512 ], [ -71.017047, -32.799084 ], [ -71.016887, -32.799468 ], [ -71.016501, -32.799903 ], [ -71.016477, -32.801334 ], [ -71.016608, -32.802143 ], [ -71.016691, -32.803334 ], [ -71.016596, -32.804098 ], [ -71.016106, -32.804917 ], [ -71.015552, -32.805403 ], [ -71.015229, -32.806076 ], [ -71.015045, -32.807939 ], [ -71.015116, -32.809821 ], [ -71.015072, -32.810394 ], [ -71.014799, -32.810828 ], [ -71.013515, -32.811469 ], [ -71.012068, -32.812398 ], [ -71.011349, -32.813077 ], [ -71.009982, -32.815102 ], [ -71.009604, -32.815872 ], [ -71.00934, -32.816686 ], [ -71.009363, -32.817688 ], [ -71.009621, -32.819114 ], [ -71.009567, -32.820474 ], [ -71.009244, -32.821195 ], [ -71.00748, -32.823131 ], [ -71.006659, -32.824289 ], [ -71.006102, -32.824631 ], [ -71.005539, -32.824736 ], [ -71.004536, -32.825324 ], [ -71.003872, -32.825955 ], [ -71.003601, -32.826436 ], [ -71.002061, -32.828656 ], [ -71.000303, -32.823096 ], [ -70.99993, -32.820682 ], [ -70.998993, -32.815565 ], [ -70.998605, -32.81481 ], [ -70.997897, -32.814014 ], [ -70.99714, -32.813399 ], [ -70.996595, -32.812735 ], [ -70.995713, -32.81127 ], [ -70.995223, -32.81074 ], [ -70.994792, -32.810434 ], [ -70.994042, -32.810132 ], [ -70.992091, -32.809513 ], [ -70.990688, -32.80846 ], [ -70.989983, -32.807799 ], [ -70.989223, -32.807004 ], [ -70.988237, -32.805631 ], [ -70.987098, -32.804528 ], [ -70.986451, -32.80409 ], [ -70.985864, -32.80392 ], [ -70.985118, -32.803798 ], [ -70.984477, -32.803584 ], [ -70.983832, -32.803236 ], [ -70.981459, -32.801525 ], [ -70.979533, -32.800794 ], [ -70.978682, -32.800718 ], [ -70.977515, -32.800736 ], [ -70.975274, -32.800189 ], [ -70.972282, -32.79925 ], [ -70.967684, -32.798897 ], [ -70.966093, -32.79888 ], [ -70.962874, -32.808902 ], [ -70.962878, -32.809074 ], [ -70.971586, -32.812859 ], [ -70.972259, -32.813279 ], [ -70.971666, -32.814151 ], [ -70.97106, -32.814462 ], [ -70.970458, -32.814902 ], [ -70.96965, -32.815303 ], [ -70.968889, -32.81553 ], [ -70.968024, -32.81563 ], [ -70.966033, -32.815618 ], [ -70.965371, -32.815672 ], [ -70.962732, -32.81636 ], [ -70.961267, -32.817029 ], [ -70.958766, -32.819352 ], [ -70.957208, -32.821596 ], [ -70.956528, -32.823201 ], [ -70.956232, -32.823637 ], [ -70.954773, -32.824608 ], [ -70.953806, -32.824752 ], [ -70.951609, -32.824657 ], [ -70.949359, -32.824477 ], [ -70.947541, -32.824207 ], [ -70.946936, -32.823351 ], [ -70.946459, -32.822539 ], [ -70.946027, -32.821469 ], [ -70.94575, -32.820482 ], [ -70.945486, -32.817728 ], [ -70.945402, -32.816221 ], [ -70.945038, -32.813554 ], [ -70.944749, -32.812008 ], [ -70.944436, -32.80934 ], [ -70.944568, -32.80839 ], [ -70.945012, -32.807694 ], [ -70.945865, -32.807034 ], [ -70.94667, -32.806504 ], [ -70.947277, -32.806236 ], [ -70.94819, -32.806007 ], [ -70.948441, -32.805787 ], [ -70.948233, -32.801231 ], [ -70.94813, -32.801331 ], [ -70.947826, -32.801964 ], [ -70.947176, -32.802579 ], [ -70.946655, -32.803035 ], [ -70.945969, -32.803225 ], [ -70.945388, -32.803324 ], [ -70.944909, -32.803286 ], [ -70.944267, -32.803027 ], [ -70.943574, -32.802904 ], [ -70.942089, -32.802927 ], [ -70.941085, -32.803121 ], [ -70.938704, -32.803427 ], [ -70.937378, -32.803493 ], [ -70.934814, -32.802681 ], [ -70.932893, -32.802217 ], [ -70.931296, -32.801973 ], [ -70.929046, -32.800977 ], [ -70.927658, -32.800595 ], [ -70.926695, -32.800251 ], [ -70.924162, -32.799685 ], [ -70.923418, -32.799607 ], [ -70.921296, -32.79964 ], [ -70.919909, -32.799303 ], [ -70.918513, -32.798517 ], [ -70.915517, -32.797398 ], [ -70.914552, -32.796964 ], [ -70.91359, -32.796621 ], [ -70.910655, -32.795859 ], [ -70.909426, -32.795429 ], [ -70.908515, -32.79504 ], [ -70.907661, -32.794784 ], [ -70.905583, -32.794412 ], [ -70.903601, -32.794734 ], [ -70.902752, -32.794747 ], [ -70.901852, -32.79485 ], [ -70.900797, -32.795135 ], [ -70.899104, -32.795385 ], [ -70.896983, -32.795462 ], [ -70.895869, -32.795478 ], [ -70.894057, -32.795103 ], [ -70.891859, -32.794015 ], [ -70.890683, -32.79363 ], [ -70.889398, -32.793067 ], [ -70.887589, -32.792825 ], [ -70.885668, -32.792316 ], [ -70.884807, -32.791746 ], [ -70.883626, -32.791137 ], [ -70.881779, -32.790335 ], [ -70.880443, -32.789862 ], [ -70.87879, -32.789484 ], [ -70.87697, -32.788749 ], [ -70.873918, -32.787406 ], [ -70.871874, -32.786092 ], [ -70.871109, -32.785028 ], [ -70.870824, -32.784091 ], [ -70.869904, -32.783208 ], [ -70.869152, -32.782771 ], [ -70.868083, -32.782384 ], [ -70.86701, -32.781817 ], [ -70.865494, -32.780361 ], [ -70.864744, -32.780013 ], [ -70.863879, -32.779264 ], [ -70.861857, -32.777703 ], [ -70.85899, -32.775057 ], [ -70.856414, -32.773616 ], [ -70.855177, -32.772783 ], [ -70.852764, -32.771486 ], [ -70.854393, -32.767944 ], [ -70.855032, -32.766333 ], [ -70.855318, -32.765399 ], [ -70.855736, -32.761931 ], [ -70.855781, -32.761156 ], [ -70.85607, -32.760377 ], [ -70.856423, -32.7597 ], [ -70.857134, -32.758604 ], [ -70.857706, -32.756736 ], [ -70.857874, -32.755959 ], [ -70.857894, -32.753995 ], [ -70.858064, -32.753373 ], [ -70.85865, -32.752125 ], [ -70.858879, -32.751398 ], [ -70.859172, -32.750774 ], [ -70.85951, -32.749374 ], [ -70.859657, -32.74822 ], [ -70.859621, -32.74754 ], [ -70.859436, -32.746639 ], [ -70.858923, -32.745316 ], [ -70.85878, -32.744577 ], [ -70.858768, -32.744022 ], [ -70.859154, -32.743609 ], [ -70.859358, -32.743484 ], [ -70.858333, -32.742797 ], [ -70.854951, -32.741019 ], [ -70.85396, -32.740401 ], [ -70.851576, -32.739127 ], [ -70.849061, -32.738048 ], [ -70.846022, -32.737073 ], [ -70.845368, -32.736525 ], [ -70.843225, -32.735035 ], [ -70.842359, -32.73454 ], [ -70.841802, -32.734092 ], [ -70.840258, -32.733098 ], [ -70.839291, -32.732202 ], [ -70.837032, -32.730389 ], [ -70.835937, -32.729678 ], [ -70.834942, -32.728707 ], [ -70.83278, -32.72687 ], [ -70.830408, -32.72523 ], [ -70.827849, -32.723804 ], [ -70.825131, -32.722608 ], [ -70.819616, -32.720411 ], [ -70.817205, -32.719667 ], [ -70.814728, -32.7191 ], [ -70.811843, -32.718673 ], [ -70.810944, -32.718189 ], [ -70.808587, -32.717184 ], [ -70.806593, -32.716169 ], [ -70.804588, -32.715318 ], [ -70.803182, -32.714506 ], [ -70.802048, -32.713931 ], [ -70.799616, -32.712329 ], [ -70.797048, -32.710973 ], [ -70.796558, -32.71077 ], [ -70.79512, -32.709967 ], [ -70.792395, -32.708766 ], [ -70.789538, -32.707808 ], [ -70.786234, -32.706976 ], [ -70.781424, -32.70611 ], [ -70.778422, -32.705779 ], [ -70.775397, -32.705706 ], [ -70.772378, -32.705892 ], [ -70.769397, -32.706336 ], [ -70.766484, -32.707032 ], [ -70.76562, -32.707321 ], [ -70.763187, -32.707513 ], [ -70.760139, -32.708028 ], [ -70.756238, -32.709098 ], [ -70.75369, -32.710008 ], [ -70.751251, -32.711113 ], [ -70.748157, -32.712891 ], [ -70.74584, -32.714479 ], [ -70.743766, -32.71535 ], [ -70.742231, -32.716106 ], [ -70.740637, -32.716998 ], [ -70.739107, -32.717969 ], [ -70.737548, -32.719092 ], [ -70.736172, -32.720214 ], [ -70.734966, -32.721317 ], [ -70.734166, -32.722136 ], [ -70.733574, -32.722446 ], [ -70.731087, -32.724074 ], [ -70.729034, -32.725739 ], [ -70.728195, -32.726225 ], [ -70.726145, -32.727646 ], [ -70.723962, -32.729471 ], [ -70.722064, -32.731416 ], [ -70.720824, -32.732924 ], [ -70.719709, -32.734501 ], [ -70.718951, -32.73576 ], [ -70.716869, -32.737306 ], [ -70.715228, -32.73875 ], [ -70.715919, -32.738741 ], [ -70.717073, -32.738953 ], [ -70.717573, -32.738538 ], [ -70.717883, -32.738143 ], [ -70.718101, -32.737708 ], [ -70.718236, -32.737212 ], [ -70.720793, -32.737975 ], [ -70.721161, -32.737969 ], [ -70.721757, -32.737772 ], [ -70.723402, -32.736663 ], [ -70.723857, -32.736509 ], [ -70.724341, -32.736443 ], [ -70.72495, -32.736492 ], [ -70.725341, -32.736679 ], [ -70.725787, -32.736728 ], [ -70.726575, -32.737008 ], [ -70.727611, -32.73723 ], [ -70.728918, -32.736965 ], [ -70.729276, -32.736984 ], [ -70.729686, -32.737136 ], [ -70.729887, -32.737288 ], [ -70.730078, -32.737543 ], [ -70.730203, -32.737557 ], [ -70.731074, -32.737489 ], [ -70.731425, -32.737373 ], [ -70.731754, -32.737114 ], [ -70.732201, -32.737071 ], [ -70.732441, -32.737154 ], [ -70.73264, -32.737312 ], [ -70.732906, -32.737927 ], [ -70.733288, -32.738317 ], [ -70.736964, -32.738633 ], [ -70.737256, -32.73692 ], [ -70.737648, -32.73693 ], [ -70.737691, -32.736663 ], [ -70.73949, -32.7368 ], [ -70.739312, -32.73849 ], [ -70.73954, -32.738915 ], [ -70.743734, -32.737468 ], [ -70.744899, -32.737205 ], [ -70.74505, -32.737265 ], [ -70.745053, -32.737387 ], [ -70.744904, -32.737452 ], [ -70.744606, -32.738312 ], [ -70.743987, -32.738645 ], [ -70.743474, -32.739088 ], [ -70.743147, -32.73968 ], [ -70.742238, -32.740689 ], [ -70.741747, -32.741566 ], [ -70.739485, -32.744771 ], [ -70.740623, -32.746373 ], [ -70.738605, -32.746763 ], [ -70.739537, -32.748423 ], [ -70.739363, -32.748995 ], [ -70.739088, -32.749538 ], [ -70.738501, -32.75027 ], [ -70.737788, -32.750849 ], [ -70.7373, -32.750944 ], [ -70.736838, -32.750781 ], [ -70.736438, -32.751516 ], [ -70.736234, -32.752139 ], [ -70.736916, -32.752529 ], [ -70.736416, -32.753392 ], [ -70.736638, -32.753947 ], [ -70.737064, -32.755513 ], [ -70.736653, -32.755998 ], [ -70.736286, -32.756249 ], [ -70.735752, -32.756462 ], [ -70.735314, -32.756925 ], [ -70.736244, -32.757312 ], [ -70.73538, -32.758557 ], [ -70.734256, -32.759726 ], [ -70.733491, -32.760347 ], [ -70.730472, -32.762564 ], [ -70.727427, -32.763405 ], [ -70.726752, -32.763374 ], [ -70.726091, -32.763256 ], [ -70.725308, -32.762992 ], [ -70.724598, -32.762607 ], [ -70.723463, -32.760911 ], [ -70.716036, -32.763276 ], [ -70.714967, -32.76156 ], [ -70.712642, -32.762334 ], [ -70.712384, -32.761824 ], [ -70.710597, -32.762533 ], [ -70.71032, -32.762698 ], [ -70.71123, -32.765102 ], [ -70.707191, -32.76635 ], [ -70.706677, -32.765012 ], [ -70.707197, -32.764694 ], [ -70.708884, -32.764078 ], [ -70.709261, -32.763879 ], [ -70.710179, -32.762788 ], [ -70.710198, -32.762641 ], [ -70.710513, -32.762471 ], [ -70.709292, -32.759122 ], [ -70.708526, -32.756418 ], [ -70.707733, -32.754657 ], [ -70.70377, -32.756217 ], [ -70.699442, -32.758216 ], [ -70.699042, -32.751375 ], [ -70.699141, -32.751394 ], [ -70.694182, -32.750224 ], [ -70.692172, -32.749798 ], [ -70.691527, -32.749719 ], [ -70.691484, -32.749413 ], [ -70.691156, -32.749274 ], [ -70.691603, -32.748235 ], [ -70.691485, -32.748106 ], [ -70.691822, -32.747564 ], [ -70.692543, -32.747961 ], [ -70.692866, -32.747479 ], [ -70.689877, -32.747585 ], [ -70.686625, -32.747779 ], [ -70.682998, -32.748377 ], [ -70.682019, -32.756639 ], [ -70.681591, -32.76508 ], [ -70.681379, -32.766498 ], [ -70.68145, -32.767688 ], [ -70.681715, -32.768874 ], [ -70.682697, -32.772022 ], [ -70.684036, -32.775909 ], [ -70.683126, -32.77612 ], [ -70.681901, -32.776637 ], [ -70.681364, -32.776978 ], [ -70.680636, -32.777656 ], [ -70.680183, -32.77779 ], [ -70.679107, -32.77776 ], [ -70.678666, -32.777974 ], [ -70.678277, -32.778272 ], [ -70.67686, -32.779125 ], [ -70.676221, -32.7793 ], [ -70.675333, -32.779354 ], [ -70.673323, -32.780174 ], [ -70.672734, -32.780349 ], [ -70.671157, -32.780536 ], [ -70.669101, -32.781523 ], [ -70.667234, -32.782091 ], [ -70.665561, -32.782405 ], [ -70.665024, -32.782746 ], [ -70.664387, -32.783047 ], [ -70.663656, -32.783557 ], [ -70.66254, -32.784657 ], [ -70.661613, -32.785295 ], [ -70.66088, -32.785722 ], [ -70.659509, -32.786366 ], [ -70.658872, -32.786625 ], [ -70.658329, -32.786674 ], [ -70.657596, -32.787101 ], [ -70.656726, -32.788114 ], [ -70.656285, -32.788286 ], [ -70.655001, -32.788345 ], [ -70.653143, -32.789371 ], [ -70.652653, -32.789545 ], [ -70.651566, -32.789559 ], [ -70.651123, -32.789648 ], [ -70.650781, -32.789861 ], [ -70.65049, -32.790157 ], [ -70.649699, -32.79144 ], [ -70.649275, -32.792572 ], [ -70.648939, -32.793078 ], [ -70.648503, -32.793542 ], [ -70.647188, -32.794561 ], [ -70.645626, -32.795625 ], [ -70.644744, -32.796012 ], [ -70.64406, -32.796396 ], [ -70.643523, -32.796779 ], [ -70.642793, -32.797373 ], [ -70.641388, -32.798893 ], [ -70.640753, -32.799277 ], [ -70.640064, -32.799411 ], [ -70.639125, -32.799424 ], [ -70.638333, -32.799309 ], [ -70.637686, -32.799067 ], [ -70.63734, -32.799071 ], [ -70.636948, -32.799202 ], [ -70.636173, -32.800088 ], [ -70.635686, -32.80047 ], [ -70.634297, -32.800655 ], [ -70.634395, -32.800695 ], [ -70.637773, -32.805607 ], [ -70.638374, -32.806169 ], [ -70.638733, -32.806401 ], [ -70.639448, -32.806457 ], [ -70.639795, -32.806642 ], [ -70.640546, -32.807878 ], [ -70.640716, -32.808416 ], [ -70.641445, -32.808973 ], [ -70.642125, -32.80995 ], [ -70.642309, -32.809878 ], [ -70.642436, -32.810077 ], [ -70.643018, -32.810511 ], [ -70.643522, -32.81123 ], [ -70.643881, -32.811577 ], [ -70.644233, -32.811772 ], [ -70.6458, -32.812356 ], [ -70.646431, -32.812806 ], [ -70.646815, -32.812991 ], [ -70.647206, -32.81332 ], [ -70.647762, -32.81343 ], [ -70.648546, -32.812984 ], [ -70.648851, -32.813011 ], [ -70.648953, -32.813188 ], [ -70.649198, -32.813071 ], [ -70.649837, -32.813584 ], [ -70.653041, -32.815405 ], [ -70.653524, -32.815601 ], [ -70.654743, -32.815808 ], [ -70.655986, -32.818035 ], [ -70.656319, -32.819023 ], [ -70.659146, -32.818649 ], [ -70.659119, -32.820128 ], [ -70.660683, -32.819284 ], [ -70.663126, -32.817639 ], [ -70.665023, -32.816091 ], [ -70.66673, -32.814428 ], [ -70.669181, -32.81247 ], [ -70.67101, -32.810724 ], [ -70.671278, -32.81057 ], [ -70.672604, -32.8101 ], [ -70.675799, -32.808623 ], [ -70.678019, -32.807397 ], [ -70.680101, -32.806009 ], [ -70.680978, -32.805309 ], [ -70.682076, -32.804949 ], [ -70.684775, -32.803784 ], [ -70.686143, -32.803071 ], [ -70.688195, -32.802488 ], [ -70.691756, -32.801105 ], [ -70.695219, -32.800868 ], [ -70.699058, -32.800338 ], [ -70.703102, -32.799505 ], [ -70.704733, -32.799101 ], [ -70.706951, -32.798425 ], [ -70.710141, -32.798051 ], [ -70.710349, -32.797834 ], [ -70.710638, -32.797707 ], [ -70.711027, -32.797701 ], [ -70.711413, -32.797573 ], [ -70.711652, -32.797323 ], [ -70.711591, -32.796708 ], [ -70.711293, -32.796343 ], [ -70.710507, -32.795902 ], [ -70.710499, -32.795492 ], [ -70.710544, -32.795327 ], [ -70.711023, -32.794951 ], [ -70.711308, -32.794578 ], [ -70.712895, -32.793735 ], [ -70.713125, -32.793076 ], [ -70.712875, -32.79271 ], [ -70.712184, -32.792144 ], [ -70.711984, -32.79186 ], [ -70.71163, -32.791126 ], [ -70.711744, -32.789442 ], [ -70.712024, -32.788863 ], [ -70.712066, -32.788534 ], [ -70.711963, -32.788207 ], [ -70.712007, -32.78796 ], [ -70.712099, -32.787713 ], [ -70.71243, -32.787216 ], [ -70.71291, -32.786922 ], [ -70.715092, -32.789232 ], [ -70.715571, -32.790107 ], [ -70.71602, -32.790717 ], [ -70.71676, -32.791281 ], [ -70.717604, -32.792214 ], [ -70.718049, -32.792618 ], [ -70.71864, -32.79302 ], [ -70.719818, -32.793661 ], [ -70.721648, -32.795427 ], [ -70.724447, -32.794601 ], [ -70.728362, -32.793097 ], [ -70.731607, -32.79148 ], [ -70.732824, -32.790961 ], [ -70.734667, -32.790492 ], [ -70.737469, -32.789616 ], [ -70.73918, -32.78891 ], [ -70.740607, -32.788549 ], [ -70.743336, -32.787671 ], [ -70.746555, -32.786287 ], [ -70.748811, -32.785106 ], [ -70.750934, -32.78376 ], [ -70.752907, -32.782261 ], [ -70.754715, -32.78062 ], [ -70.755308, -32.779975 ], [ -70.757428, -32.777944 ], [ -70.759011, -32.776255 ], [ -70.76121, -32.773476 ], [ -70.761721, -32.772641 ], [ -70.764323, -32.770548 ], [ -70.766298, -32.768568 ], [ -70.769085, -32.765398 ], [ -70.770145, -32.764594 ], [ -70.772099, -32.762873 ], [ -70.773014, -32.762219 ], [ -70.775968, -32.760745 ], [ -70.777991, -32.761482 ], [ -70.778409, -32.761695 ], [ -70.779314, -32.762457 ], [ -70.78137, -32.763901 ], [ -70.784492, -32.765672 ], [ -70.787482, -32.76706 ], [ -70.790639, -32.768151 ], [ -70.793923, -32.768931 ], [ -70.795529, -32.769245 ], [ -70.796856, -32.770335 ], [ -70.79904, -32.771953 ], [ -70.8014, -32.773384 ], [ -70.802694, -32.774017 ], [ -70.80311, -32.774398 ], [ -70.805406, -32.776111 ], [ -70.807773, -32.777723 ], [ -70.808831, -32.778311 ], [ -70.810628, -32.779674 ], [ -70.813332, -32.781371 ], [ -70.81597, -32.782749 ], [ -70.818763, -32.783889 ], [ -70.82168, -32.784777 ], [ -70.823551, -32.785168 ], [ -70.824953, -32.786785 ], [ -70.827011, -32.788709 ], [ -70.829292, -32.790445 ], [ -70.831773, -32.791974 ], [ -70.834426, -32.79328 ], [ -70.837644, -32.794468 ], [ -70.838835, -32.79535 ], [ -70.841098, -32.796831 ], [ -70.842147, -32.797601 ], [ -70.844, -32.798734 ], [ -70.846201, -32.800709 ], [ -70.848715, -32.802483 ], [ -70.849475, -32.80326 ], [ -70.85151, -32.804976 ], [ -70.858415, -32.809847 ], [ -70.860686, -32.811152 ], [ -70.861872, -32.811769 ], [ -70.864643, -32.813044 ], [ -70.867558, -32.814065 ], [ -70.87008, -32.814695 ], [ -70.871214, -32.815322 ], [ -70.873798, -32.816462 ], [ -70.877648, -32.817862 ], [ -70.880106, -32.818512 ], [ -70.882867, -32.81906 ], [ -70.885282, -32.819829 ], [ -70.888411, -32.82051 ], [ -70.891481, -32.820887 ], [ -70.894419, -32.821398 ], [ -70.897508, -32.821658 ], [ -70.900613, -32.821647 ], [ -70.903477, -32.821443 ], [ -70.905195, -32.822153 ], [ -70.90777, -32.823074 ], [ -70.908693, -32.823486 ], [ -70.911318, -32.8244 ], [ -70.914033, -32.825099 ], [ -70.916815, -32.825578 ], [ -70.917409, -32.825631 ], [ -70.919368, -32.82642 ], [ -70.922213, -32.827334 ], [ -70.925154, -32.827998 ], [ -70.928504, -32.828423 ], [ -70.931449, -32.82909 ], [ -70.934159, -32.829473 ], [ -70.9369, -32.829643 ], [ -70.939648, -32.829601 ], [ -70.942379, -32.829345 ], [ -70.943139, -32.829214 ], [ -70.944198, -32.829271 ], [ -70.947009, -32.829199 ], [ -70.950386, -32.828882 ], [ -70.95295, -32.828423 ], [ -70.95753, -32.8272 ], [ -70.960274, -32.826322 ], [ -70.962903, -32.825221 ], [ -70.96408, -32.8246 ], [ -70.965, -32.824665 ], [ -70.966181, -32.824834 ], [ -70.966506, -32.824958 ], [ -70.967326, -32.825412 ], [ -70.968791, -32.826728 ], [ -70.968913, -32.827387 ], [ -70.969571, -32.829607 ], [ -70.970465, -32.831767 ], [ -70.972205, -32.83494 ], [ -70.973502, -32.834353 ], [ -70.973819, -32.834701 ], [ -70.972423, -32.835343 ], [ -70.972974, -32.83636 ], [ -70.973297, -32.83725 ], [ -70.974432, -32.83579 ], [ -70.975745, -32.83773 ], [ -70.974462, -32.8376 ], [ -70.974574, -32.837856 ], [ -70.974853, -32.838019 ], [ -70.976356, -32.840166 ], [ -70.982892, -32.840128 ], [ -70.983662, -32.841986 ], [ -70.976178, -32.842306 ], [ -70.977623, -32.844113 ], [ -70.978367, -32.845603 ], [ -70.979799, -32.847822 ], [ -70.981487, -32.84991 ], [ -70.986967, -32.855424 ], [ -70.989319, -32.857287 ], [ -70.996434, -32.861932 ], [ -70.999066, -32.863339 ], [ -71.001856, -32.864507 ], [ -71.004776, -32.865425 ], [ -71.007793, -32.86608 ], [ -71.011726, -32.866537 ], [ -71.015158, -32.866648 ], [ -71.018519, -32.866486 ], [ -71.021276, -32.866113 ], [ -71.02458, -32.866275 ], [ -71.02745, -32.866153 ], [ -71.029486, -32.865899 ], [ -71.031336, -32.865817 ], [ -71.034494, -32.8655 ], [ -71.037204, -32.865019 ], [ -71.03985, -32.864328 ], [ -71.042409, -32.863433 ], [ -71.044858, -32.862342 ], [ -71.047406, -32.860994 ], [ -71.048902, -32.860485 ], [ -71.051646, -32.85926 ], [ -71.054712, -32.857529 ], [ -71.056302, -32.856707 ], [ -71.058191, -32.855542 ], [ -71.060529, -32.856777 ], [ -71.062646, -32.857691 ], [ -71.064913, -32.858488 ], [ -71.069227, -32.859703 ], [ -71.071389, -32.860166 ], [ -71.074167, -32.86209 ], [ -71.077534, -32.863982 ], [ -71.080175, -32.865128 ], [ -71.082938, -32.866047 ], [ -71.085796, -32.86673 ], [ -71.088719, -32.867171 ], [ -71.091149, -32.86733 ], [ -71.09303, -32.868367 ], [ -71.094482, -32.869039 ], [ -71.096085, -32.86969 ], [ -71.097841, -32.870301 ], [ -71.099404, -32.870761 ], [ -71.10111, -32.871179 ], [ -71.10547, -32.872066 ], [ -71.107086, -32.872326 ], [ -71.10885, -32.87253 ], [ -71.111997, -32.87269 ], [ -71.115283, -32.872583 ], [ -71.118549, -32.872196 ], [ -71.119502, -32.872257 ], [ -71.121687, -32.872271 ], [ -71.123868, -32.872157 ], [ -71.125942, -32.871927 ], [ -71.128085, -32.871562 ], [ -71.130193, -32.871072 ], [ -71.132859, -32.870239 ], [ -71.135839, -32.869505 ], [ -71.138806, -32.8685 ], [ -71.141528, -32.867312 ], [ -71.144096, -32.865916 ], [ -71.146418, -32.864864 ], [ -71.147812, -32.864123 ], [ -71.150112, -32.862696 ], [ -71.151272, -32.862246 ], [ -71.153105, -32.86141 ], [ -71.154869, -32.860472 ], [ -71.156557, -32.859437 ], [ -71.15816, -32.85831 ], [ -71.1596, -32.857157 ], [ -71.161087, -32.855796 ], [ -71.162397, -32.854421 ], [ -71.163705, -32.852822 ], [ -71.16546, -32.851058 ], [ -71.167209, -32.848915 ], [ -71.168693, -32.848005 ], [ -71.170687, -32.846524 ], [ -71.172699, -32.84472 ], [ -71.173271, -32.844104 ], [ -71.174081, -32.843513 ], [ -71.175116, -32.842592 ], [ -71.176455, -32.841744 ], [ -71.177925, -32.84069 ], [ -71.179317, -32.839561 ], [ -71.180553, -32.838433 ], [ -71.182526, -32.836314 ], [ -71.184166, -32.834112 ], [ -71.184912, -32.832835 ], [ -71.187215, -32.83128 ], [ -71.189528, -32.829332 ], [ -71.191576, -32.827182 ], [ -71.194593, -32.823256 ], [ -71.19612, -32.820879 ], [ -71.197202, -32.818701 ], [ -71.198039, -32.816447 ], [ -71.198356, -32.815192 ], [ -71.198896, -32.814498 ], [ -71.200224, -32.812377 ], [ -71.200569, -32.811672 ], [ -71.201803, -32.810065 ], [ -71.203287, -32.808455 ], [ -71.204794, -32.80648 ], [ -71.206319, -32.806466 ], [ -71.208666, -32.806308 ], [ -71.210306, -32.807329 ], [ -71.211093, -32.809018 ], [ -71.211621, -32.809983 ], [ -71.212912, -32.812031 ], [ -71.213091, -32.814172 ], [ -71.213505, -32.816384 ], [ -71.213517, -32.817344 ], [ -71.213666, -32.819031 ], [ -71.213958, -32.820789 ], [ -71.214414, -32.822608 ], [ -71.215196, -32.824806 ], [ -71.215147, -32.825657 ], [ -71.214456, -32.827078 ], [ -71.213911, -32.828402 ], [ -71.213483, -32.829632 ], [ -71.212876, -32.831939 ], [ -71.21244, -32.834745 ], [ -71.212284, -32.836599 ], [ -71.211173, -32.83944 ], [ -71.210503, -32.842223 ], [ -71.210016, -32.844987 ], [ -71.209881, -32.846564 ], [ -71.209447, -32.84936 ], [ -71.209364, -32.851805 ], [ -71.209535, -32.854052 ], [ -71.209939, -32.857044 ], [ -71.210416, -32.85914 ], [ -71.2111, -32.861196 ], [ -71.211411, -32.861997 ], [ -71.212503, -32.86429 ], [ -71.213012, -32.865978 ], [ -71.214124, -32.868504 ], [ -71.215549, -32.870915 ], [ -71.217271, -32.873185 ], [ -71.218454, -32.874429 ], [ -71.219244, -32.876108 ], [ -71.220112, -32.877647 ], [ -71.221149, -32.879212 ], [ -71.222309, -32.880713 ], [ -71.223736, -32.882296 ], [ -71.225483, -32.884421 ], [ -71.227035, -32.885976 ], [ -71.228725, -32.887425 ], [ -71.231008, -32.88905 ], [ -71.231471, -32.88949 ], [ -71.233618, -32.89117 ], [ -71.235949, -32.892664 ], [ -71.237224, -32.89337 ], [ -71.239429, -32.894438 ], [ -71.242091, -32.895497 ], [ -71.237433, -32.88997 ], [ -71.237362, -32.889739 ], [ -71.237431, -32.889598 ], [ -71.236968, -32.888729 ], [ -71.236814, -32.888272 ], [ -71.236681, -32.887649 ], [ -71.236585, -32.886706 ], [ -71.237426, -32.886615 ], [ -71.237183, -32.884488 ], [ -71.236256, -32.884542 ], [ -71.23598, -32.879026 ], [ -71.236917, -32.878948 ], [ -71.2367, -32.877973 ], [ -71.236593, -32.876985 ], [ -71.235663, -32.877014 ], [ -71.235163, -32.879284 ], [ -71.233865, -32.879338 ], [ -71.233582, -32.877284 ], [ -71.233221, -32.87384 ], [ -71.235953, -32.873689 ], [ -71.235931, -32.870745 ], [ -71.237289, -32.87047 ], [ -71.236496, -32.869656 ], [ -71.235726, -32.868615 ], [ -71.235666, -32.868226 ], [ -71.234663, -32.86627 ], [ -71.23248, -32.866747 ], [ -71.232361, -32.866311 ], [ -71.22985, -32.866703 ], [ -71.2297, -32.866832 ], [ -71.229752, -32.866307 ], [ -71.22928, -32.862877 ], [ -71.232374, -32.862513 ], [ -71.232891, -32.86236 ], [ -71.232027, -32.860491 ], [ -71.230976, -32.857999 ], [ -71.23025, -32.858145 ], [ -71.229773, -32.858095 ], [ -71.229357, -32.857962 ], [ -71.228312, -32.855014 ], [ -71.229483, -32.854805 ], [ -71.227907, -32.851217 ], [ -71.226548, -32.848421 ], [ -71.22747, -32.848059 ], [ -71.2271, -32.846456 ], [ -71.227262, -32.844805 ], [ -71.225803, -32.84516 ], [ -71.225314, -32.842709 ], [ -71.224782, -32.838313 ], [ -71.22736, -32.837647 ], [ -71.226997, -32.837165 ], [ -71.226906, -32.836522 ], [ -71.226795, -32.836407 ], [ -71.226526, -32.836281 ], [ -71.226318, -32.836016 ], [ -71.226258, -32.835423 ], [ -71.224342, -32.835936 ], [ -71.224093, -32.833882 ], [ -71.22566, -32.833387 ], [ -71.225484, -32.832966 ], [ -71.225114, -32.832444 ], [ -71.22501, -32.832134 ], [ -71.225053, -32.831734 ], [ -71.225264, -32.831445 ], [ -71.225387, -32.831027 ], [ -71.225419, -32.830636 ], [ -71.225349, -32.830358 ], [ -71.225148, -32.829685 ], [ -71.224246, -32.82777 ], [ -71.22398, -32.827042 ], [ -71.224058, -32.822327 ], [ -71.224118, -32.821761 ], [ -71.225822, -32.821651 ], [ -71.225781, -32.821005 ], [ -71.22493, -32.819889 ], [ -71.224279, -32.818682 ], [ -71.228642, -32.816311 ], [ -71.230316, -32.818262 ], [ -71.231682, -32.817527 ], [ -71.233532, -32.816673 ], [ -71.23375, -32.817136 ], [ -71.23429, -32.817619 ], [ -71.23457, -32.817959 ], [ -71.234826, -32.81854 ], [ -71.235632, -32.819936 ], [ -71.234116, -32.820617 ], [ -71.232506, -32.821123 ], [ -71.230684, -32.8218 ], [ -71.230769, -32.822099 ], [ -71.230008, -32.8225 ], [ -71.230558, -32.823342 ], [ -71.230626, -32.823728 ], [ -71.230482, -32.823839 ], [ -71.229366, -32.822511 ], [ -71.227488, -32.82445 ], [ -71.226852, -32.825001 ], [ -71.22707, -32.825993 ], [ -71.22825, -32.825117 ], [ -71.228513, -32.825435 ], [ -71.227971, -32.825714 ], [ -71.228462, -32.826179 ], [ -71.228764, -32.826557 ], [ -71.229012, -32.826961 ], [ -71.229253, -32.827533 ], [ -71.228105, -32.827826 ], [ -71.228528, -32.828869 ], [ -71.230539, -32.828436 ], [ -71.23072, -32.828519 ], [ -71.230984, -32.82887 ], [ -71.231193, -32.829588 ], [ -71.232442, -32.829255 ], [ -71.233121, -32.830879 ], [ -71.232175, -32.831021 ], [ -71.230803, -32.831376 ], [ -71.228861, -32.831658 ], [ -71.228869, -32.833571 ], [ -71.228477, -32.833718 ], [ -71.228442, -32.834343 ], [ -71.228206, -32.835618 ], [ -71.228191, -32.836049 ], [ -71.228383, -32.836584 ], [ -71.228916, -32.837346 ], [ -71.231648, -32.836654 ], [ -71.234553, -32.836399 ], [ -71.23447, -32.83667 ], [ -71.234524, -32.837272 ], [ -71.235479, -32.837201 ], [ -71.236066, -32.837212 ], [ -71.236464, -32.837302 ], [ -71.237376, -32.837214 ], [ -71.237451, -32.838878 ], [ -71.236213, -32.838933 ], [ -71.234661, -32.838894 ], [ -71.234696, -32.839552 ], [ -71.234551, -32.839878 ], [ -71.234241, -32.840252 ], [ -71.233833, -32.841668 ], [ -71.234124, -32.841673 ], [ -71.23405, -32.842288 ], [ -71.233931, -32.842624 ], [ -71.233795, -32.842788 ], [ -71.233565, -32.842803 ], [ -71.233237, -32.842949 ], [ -71.233189, -32.843069 ], [ -71.233057, -32.844396 ], [ -71.233083, -32.844449 ], [ -71.233364, -32.844444 ], [ -71.233395, -32.84467 ], [ -71.233066, -32.844783 ], [ -71.23298, -32.844892 ], [ -71.233381, -32.845628 ], [ -71.233607, -32.845484 ], [ -71.233985, -32.845811 ], [ -71.235115, -32.845587 ], [ -71.235373, -32.846713 ], [ -71.235881, -32.846607 ], [ -71.235852, -32.846984 ], [ -71.236067, -32.84795 ], [ -71.236027, -32.84852 ], [ -71.234381, -32.848885 ], [ -71.234547, -32.849409 ], [ -71.23371, -32.849586 ], [ -71.233836, -32.850058 ], [ -71.234128, -32.849988 ], [ -71.23435, -32.850199 ], [ -71.234384, -32.850522 ], [ -71.233965, -32.850626 ], [ -71.234048, -32.850872 ], [ -71.234533, -32.850885 ], [ -71.234673, -32.851378 ], [ -71.23396, -32.851522 ], [ -71.234219, -32.852926 ], [ -71.234419, -32.852934 ], [ -71.234988, -32.852719 ], [ -71.236613, -32.85242 ], [ -71.236866, -32.852595 ], [ -71.236737, -32.85328 ], [ -71.236886, -32.853622 ], [ -71.236813, -32.853763 ], [ -71.236687, -32.853808 ], [ -71.236733, -32.854626 ], [ -71.237, -32.855011 ], [ -71.234996, -32.855652 ], [ -71.23582, -32.857919 ], [ -71.238311, -32.857386 ], [ -71.238701, -32.85825 ], [ -71.238549, -32.85854 ], [ -71.239119, -32.859943 ], [ -71.23782, -32.860253 ], [ -71.237179, -32.860344 ], [ -71.237241, -32.860519 ], [ -71.237578, -32.86069 ], [ -71.237658, -32.861011 ], [ -71.23745, -32.861082 ], [ -71.237502, -32.86141 ], [ -71.238717, -32.861212 ], [ -71.238839, -32.861441 ], [ -71.237573, -32.861614 ], [ -71.237603, -32.861695 ], [ -71.237503, -32.861752 ], [ -71.237547, -32.862348 ], [ -71.237751, -32.86268 ], [ -71.238419, -32.86257 ], [ -71.23843, -32.862692 ], [ -71.238784, -32.862668 ], [ -71.238769, -32.862794 ], [ -71.239067, -32.862772 ], [ -71.239107, -32.86321 ], [ -71.239208, -32.863202 ], [ -71.239238, -32.863549 ], [ -71.240093, -32.863375 ], [ -71.24012, -32.86357 ], [ -71.240386, -32.863547 ], [ -71.240581, -32.864092 ], [ -71.240343, -32.864106 ], [ -71.240388, -32.864473 ], [ -71.240909, -32.867115 ], [ -71.241212, -32.867091 ], [ -71.241191, -32.866829 ], [ -71.241716, -32.866759 ], [ -71.241881, -32.867256 ], [ -71.243388, -32.866327 ], [ -71.24393, -32.866317 ], [ -71.244382, -32.866498 ], [ -71.244644, -32.866871 ], [ -71.244624, -32.86695 ], [ -71.244273, -32.86706 ], [ -71.242927, -32.86781 ], [ -71.243024, -32.867906 ], [ -71.242889, -32.868018 ], [ -71.242884, -32.868109 ], [ -71.242443, -32.868282 ], [ -71.24273, -32.868843 ], [ -71.242937, -32.868779 ], [ -71.243281, -32.869528 ], [ -71.243124, -32.869586 ], [ -71.243266, -32.869809 ], [ -71.243074, -32.869897 ], [ -71.243143, -32.870049 ], [ -71.243315, -32.870003 ], [ -71.243482, -32.870067 ], [ -71.245285, -32.869401 ], [ -71.24613, -32.870818 ], [ -71.245902, -32.870944 ], [ -71.246037, -32.871185 ], [ -71.246339, -32.871094 ], [ -71.246424, -32.871312 ], [ -71.246812, -32.871811 ], [ -71.247431, -32.871708 ], [ -71.248977, -32.87115 ], [ -71.249074, -32.871307 ], [ -71.249913, -32.871353 ], [ -71.250176, -32.871178 ], [ -71.250455, -32.871405 ], [ -71.25062, -32.871375 ], [ -71.251386, -32.871857 ], [ -71.252035, -32.871869 ], [ -71.252485, -32.871971 ], [ -71.253267, -32.872316 ], [ -71.253484, -32.872611 ], [ -71.253726, -32.872771 ], [ -71.254593, -32.873085 ], [ -71.254625, -32.873372 ], [ -71.254917, -32.873294 ], [ -71.255301, -32.87335 ], [ -71.255586, -32.873314 ], [ -71.255914, -32.872771 ], [ -71.256162, -32.872731 ], [ -71.256539, -32.872791 ], [ -71.256755, -32.873292 ], [ -71.257186, -32.873605 ], [ -71.257356, -32.873818 ], [ -71.257471, -32.874285 ], [ -71.257827, -32.87416 ], [ -71.260838, -32.878862 ], [ -71.263913, -32.877612 ], [ -71.264278, -32.877796 ], [ -71.264916, -32.8787 ], [ -71.266218, -32.880877 ], [ -71.266635, -32.881698 ], [ -71.26622, -32.88187 ], [ -71.26661, -32.882405 ], [ -71.2662, -32.882597 ], [ -71.266302, -32.882795 ], [ -71.265817, -32.883053 ], [ -71.265945, -32.883264 ], [ -71.265664, -32.883421 ], [ -71.266335, -32.884369 ], [ -71.266579, -32.884612 ], [ -71.266017, -32.884963 ], [ -71.266456, -32.885437 ], [ -71.267954, -32.884447 ], [ -71.268406, -32.885438 ], [ -71.267172, -32.886356 ], [ -71.267885, -32.887111 ], [ -71.267601, -32.887287 ], [ -71.269048, -32.888815 ], [ -71.264874, -32.891395 ], [ -71.264735, -32.891599 ], [ -71.264739, -32.891775 ], [ -71.2652, -32.892273 ], [ -71.266682, -32.891472 ], [ -71.267447, -32.892031 ], [ -71.268367, -32.891557 ], [ -71.269102, -32.89205 ], [ -71.269942, -32.891565 ], [ -71.272201, -32.894608 ], [ -71.266567, -32.89861 ], [ -71.268586, -32.901274 ], [ -71.263035, -32.903727 ], [ -71.262968, -32.903667 ], [ -71.262431, -32.902116 ], [ -71.259779, -32.903249 ], [ -71.258925, -32.901747 ], [ -71.257674, -32.902288 ], [ -71.257399, -32.901994 ], [ -71.256358, -32.898241 ], [ -71.255661, -32.898125 ], [ -71.254966, -32.897766 ], [ -71.254769, -32.897989 ], [ -71.255175, -32.89917 ], [ -71.254445, -32.899427 ], [ -71.254062, -32.898873 ], [ -71.253775, -32.898958 ], [ -71.25368, -32.898624 ], [ -71.253486, -32.898658 ], [ -71.253216, -32.897993 ], [ -71.250601, -32.898668 ], [ -71.250519, -32.898459 ], [ -71.250111, -32.898603 ], [ -71.249961, -32.898368 ], [ -71.249681, -32.89844 ], [ -71.249431, -32.898274 ], [ -71.248003, -32.898653 ], [ -71.246836, -32.898766 ], [ -71.246812, -32.898406 ], [ -71.24614, -32.898464 ], [ -71.24713, -32.899855 ], [ -71.248458, -32.901486 ], [ -71.249167, -32.902725 ], [ -71.249973, -32.903967 ], [ -71.250923, -32.905261 ], [ -71.251882, -32.906422 ], [ -71.253129, -32.907754 ], [ -71.254231, -32.909287 ], [ -71.256054, -32.911404 ], [ -71.257692, -32.913437 ], [ -71.259353, -32.915134 ], [ -71.261176, -32.916706 ], [ -71.262582, -32.91773 ], [ -71.263116, -32.918429 ], [ -71.265574, -32.920911 ], [ -71.268381, -32.923109 ], [ -71.271444, -32.924965 ], [ -71.272176, -32.925303 ], [ -71.273358, -32.926442 ], [ -71.274529, -32.927452 ], [ -71.276421, -32.928875 ], [ -71.278138, -32.930375 ], [ -71.280229, -32.931927 ], [ -71.283343, -32.934049 ], [ -71.284097, -32.935429 ], [ -71.285086, -32.93702 ], [ -71.286033, -32.938375 ], [ -71.287205, -32.939873 ], [ -71.287983, -32.94078 ], [ -71.289605, -32.942408 ], [ -71.291127, -32.944126 ], [ -71.292239, -32.945213 ], [ -71.293504, -32.94632 ], [ -71.294841, -32.947365 ], [ -71.296245, -32.948343 ], [ -71.297712, -32.949252 ], [ -71.299341, -32.950142 ], [ -71.300923, -32.950899 ], [ -71.302442, -32.951537 ], [ -71.304111, -32.952143 ], [ -71.305933, -32.952701 ], [ -71.308898, -32.953386 ], [ -71.310149, -32.954205 ], [ -71.311953, -32.955241 ], [ -71.310109, -32.955992 ], [ -71.308066, -32.957053 ], [ -71.306163, -32.958284 ], [ -71.304418, -32.959672 ], [ -71.302737, -32.961258 ], [ -71.300696, -32.96337 ], [ -71.299397, -32.965051 ], [ -71.298591, -32.966368 ], [ -71.297851, -32.967084 ], [ -71.296966, -32.967249 ], [ -71.294565, -32.967932 ], [ -71.292266, -32.968828 ], [ -71.291778, -32.969075 ], [ -71.289796, -32.969345 ], [ -71.287004, -32.970008 ], [ -71.285306, -32.970559 ], [ -71.28366, -32.971215 ], [ -71.282075, -32.971971 ], [ -71.280629, -32.972783 ], [ -71.278845, -32.973982 ], [ -71.276914, -32.974641 ], [ -71.275507, -32.975238 ], [ -71.274629, -32.975676 ], [ -71.272568, -32.976534 ], [ -71.271036, -32.97732 ], [ -71.269508, -32.978242 ], [ -71.26813, -32.979211 ], [ -71.266581, -32.980483 ], [ -71.265301, -32.981719 ], [ -71.265104, -32.981829 ], [ -71.263922, -32.982059 ], [ -71.265578, -32.982583 ], [ -71.266001, -32.982447 ], [ -71.26616, -32.982527 ], [ -71.266308, -32.982814 ], [ -71.268225, -32.98342 ], [ -71.267834, -32.982777 ], [ -71.268731, -32.982408 ], [ -71.267922, -32.980693 ], [ -71.269006, -32.980328 ], [ -71.269316, -32.980351 ], [ -71.271025, -32.983232 ], [ -71.271568, -32.983007 ], [ -71.270954, -32.9819 ], [ -71.271744, -32.981433 ], [ -71.270262, -32.978731 ], [ -71.270824, -32.978473 ], [ -71.272286, -32.980365 ], [ -71.27275, -32.980092 ], [ -71.274772, -32.978616 ], [ -71.273877, -32.977375 ], [ -71.27442, -32.977117 ], [ -71.276023, -32.979188 ], [ -71.27662, -32.979061 ], [ -71.278218, -32.980888 ], [ -71.277839, -32.981312 ], [ -71.277499, -32.98191 ], [ -71.277344, -32.982424 ], [ -71.277305, -32.98307 ], [ -71.277396, -32.983565 ], [ -71.277651, -32.984151 ], [ -71.278052, -32.984677 ], [ -71.27844, -32.984961 ], [ -71.279238, -32.985345 ], [ -71.280289, -32.985627 ], [ -71.283515, -32.985138 ], [ -71.283658, -32.985346 ], [ -71.283824, -32.985312 ], [ -71.285953, -32.989024 ], [ -71.297576, -32.992697 ], [ -71.301876, -32.994268 ], [ -71.305578, -32.995972 ], [ -71.308327, -32.997482 ], [ -71.318409, -33.003555 ], [ -71.32, -33.003012 ], [ -71.324618, -33.001017 ], [ -71.327399, -32.999412 ], [ -71.329102, -32.998254 ], [ -71.330669, -32.996967 ], [ -71.332088, -32.995563 ], [ -71.333346, -32.994054 ], [ -71.334811, -32.992074 ], [ -71.335535, -32.991316 ], [ -71.336866, -32.990903 ], [ -71.33935, -32.990003 ], [ -71.342155, -32.988703 ], [ -71.342959, -32.988268 ], [ -71.344773, -32.987181 ], [ -71.345832, -32.98641 ], [ -71.347803, -32.985268 ], [ -71.349639, -32.984087 ], [ -71.351329, -32.982761 ], [ -71.352857, -32.981302 ], [ -71.354208, -32.979723 ], [ -71.355368, -32.97804 ], [ -71.356327, -32.97627 ], [ -71.357076, -32.974429 ], [ -71.357607, -32.972534 ], [ -71.357915, -32.970606 ], [ -71.357997, -32.96866 ], [ -71.357853, -32.966718 ], [ -71.357484, -32.964797 ], [ -71.356893, -32.962915 ], [ -71.356086, -32.961092 ], [ -71.355071, -32.959343 ], [ -71.353858, -32.957688 ], [ -71.353078, -32.956826 ], [ -71.354918, -32.955877 ], [ -71.356263, -32.955063 ], [ -71.358456, -32.953538 ], [ -71.359735, -32.952514 ], [ -71.361453, -32.951849 ], [ -71.363161, -32.95108 ], [ -71.364811, -32.950223 ], [ -71.366057, -32.949485 ], [ -71.367356, -32.949058 ], [ -71.369155, -32.948357 ], [ -71.370899, -32.947561 ], [ -71.372866, -32.946505 ], [ -71.374828, -32.945566 ], [ -71.374214, -32.947034 ], [ -71.373663, -32.948924 ], [ -71.373334, -32.950851 ], [ -71.373231, -32.952795 ], [ -71.373354, -32.954738 ], [ -71.373703, -32.956662 ], [ -71.374274, -32.958548 ], [ -71.375062, -32.960378 ], [ -71.376058, -32.962134 ], [ -71.377254, -32.963798 ], [ -71.378637, -32.965357 ], [ -71.380196, -32.966793 ], [ -71.381913, -32.968093 ], [ -71.383774, -32.969246 ], [ -71.38576, -32.970239 ], [ -71.387852, -32.971063 ], [ -71.390029, -32.97171 ], [ -71.392272, -32.972174 ], [ -71.394557, -32.972451 ], [ -71.396864, -32.972537 ], [ -71.39891, -32.972529 ], [ -71.401147, -32.972431 ], [ -71.403405, -32.972171 ], [ -71.405352, -32.971796 ], [ -71.40829, -32.970943 ], [ -71.411073, -32.969776 ], [ -71.413616, -32.968338 ], [ -71.415959, -32.966606 ], [ -71.418017, -32.96463 ], [ -71.419753, -32.962442 ], [ -71.420203, -32.961679 ], [ -71.422432, -32.961395 ], [ -71.424515, -32.96095 ], [ -71.425478, -32.960841 ], [ -71.427468, -32.960466 ], [ -71.429412, -32.959948 ], [ -71.436483, -32.957419 ], [ -71.438459, -32.956499 ], [ -71.441108, -32.955021 ], [ -71.442799, -32.953839 ], [ -71.444387, -32.952498 ], [ -71.446177, -32.952072 ], [ -71.448536, -32.951317 ], [ -71.449843, -32.950799 ], [ -71.452124, -32.949703 ], [ -71.454644, -32.949796 ], [ -71.457577, -32.949662 ], [ -71.460481, -32.949285 ], [ -71.463327, -32.948671 ], [ -71.466088, -32.947824 ], [ -71.468737, -32.946753 ], [ -71.471249, -32.945468 ], [ -71.473599, -32.943982 ], [ -71.475765, -32.942309 ], [ -71.477726, -32.940464 ], [ -71.478902, -32.9392 ], [ -71.480085, -32.937778 ], [ -71.481718, -32.936055 ], [ -71.483319, -32.933978 ], [ -71.48467, -32.931778 ], [ -71.485712, -32.929577 ], [ -71.482353, -32.929661 ], [ -71.481963, -32.927235 ], [ -71.480985, -32.927245 ] ], [ [ -71.405683, -32.894847 ], [ -71.404943, -32.895085 ], [ -71.405102, -32.89503 ], [ -71.405683, -32.894847 ] ], [ [ -71.216043, -32.799361 ], [ -71.217538, -32.800286 ], [ -71.218454, -32.801099 ], [ -71.218843, -32.801543 ], [ -71.219506, -32.802483 ], [ -71.220269, -32.804182 ], [ -71.218282, -32.805019 ], [ -71.217449, -32.804138 ], [ -71.215728, -32.802793 ], [ -71.213793, -32.801722 ], [ -71.20787, -32.798228 ], [ -71.19943, -32.793541 ], [ -71.196898, -32.795985 ], [ -71.194154, -32.798132 ], [ -71.193468, -32.797943 ], [ -71.193068, -32.797714 ], [ -71.19267, -32.797333 ], [ -71.19192, -32.796764 ], [ -71.191409, -32.796238 ], [ -71.190987, -32.795657 ], [ -71.190944, -32.795235 ], [ -71.190985, -32.79467 ], [ -71.191254, -32.793854 ], [ -71.191236, -32.793454 ], [ -71.191152, -32.793162 ], [ -71.190887, -32.792716 ], [ -71.190484, -32.792349 ], [ -71.190126, -32.791835 ], [ -71.189735, -32.791113 ], [ -71.189508, -32.790548 ], [ -71.188953, -32.790092 ], [ -71.188241, -32.790239 ], [ -71.187563, -32.790475 ], [ -71.184464, -32.792061 ], [ -71.184049, -32.792164 ], [ -71.183197, -32.792302 ], [ -71.182115, -32.792342 ], [ -71.18104, -32.792233 ], [ -71.180204, -32.792041 ], [ -71.180922, -32.790708 ], [ -71.182445, -32.787536 ], [ -71.182773, -32.787027 ], [ -71.183081, -32.786677 ], [ -71.183438, -32.786362 ], [ -71.187982, -32.783138 ], [ -71.188936, -32.782361 ], [ -71.189845, -32.78183 ], [ -71.190838, -32.781417 ], [ -71.19138, -32.778221 ], [ -71.19012, -32.77842 ], [ -71.188886, -32.778712 ], [ -71.187687, -32.779093 ], [ -71.186533, -32.779562 ], [ -71.181944, -32.782434 ], [ -71.177978, -32.785371 ], [ -71.177798, -32.785188 ], [ -71.177203, -32.785637 ], [ -71.177011, -32.785481 ], [ -71.17638, -32.786279 ], [ -71.176163, -32.78647 ], [ -71.177711, -32.787879 ], [ -71.179009, -32.789457 ], [ -71.178046, -32.791835 ], [ -71.173471, -32.790959 ], [ -71.172405, -32.790549 ], [ -71.17139, -32.790054 ], [ -71.170437, -32.789479 ], [ -71.169768, -32.788999 ], [ -71.172258, -32.7874 ], [ -71.170726, -32.786251 ], [ -71.174707, -32.783184 ], [ -71.174585, -32.783089 ], [ -71.179062, -32.77947 ], [ -71.179012, -32.779417 ], [ -71.184971, -32.774338 ], [ -71.184331, -32.772984 ], [ -71.18579, -32.769154 ], [ -71.186206, -32.76871 ], [ -71.186753, -32.767732 ], [ -71.187145, -32.76622 ], [ -71.18764, -32.764999 ], [ -71.193834, -32.765209 ], [ -71.194181, -32.763966 ], [ -71.195863, -32.764743 ], [ -71.198253, -32.765545 ], [ -71.198687, -32.765811 ], [ -71.199048, -32.766258 ], [ -71.200275, -32.769163 ], [ -71.199384, -32.769591 ], [ -71.19706, -32.7701 ], [ -71.197353, -32.77122 ], [ -71.195521, -32.771887 ], [ -71.19361, -32.772374 ], [ -71.193575, -32.774723 ], [ -71.195583, -32.774551 ], [ -71.196937, -32.774151 ], [ -71.198284, -32.773865 ], [ -71.199378, -32.775963 ], [ -71.200813, -32.775676 ], [ -71.201849, -32.774533 ], [ -71.202162, -32.774361 ], [ -71.202605, -32.774322 ], [ -71.203363, -32.774506 ], [ -71.203977, -32.774353 ], [ -71.204805, -32.773825 ], [ -71.205935, -32.773768 ], [ -71.206368, -32.773982 ], [ -71.206519, -32.774191 ], [ -71.206572, -32.774431 ], [ -71.207817, -32.77544 ], [ -71.2083, -32.77567 ], [ -71.208479, -32.775893 ], [ -71.208564, -32.776221 ], [ -71.208512, -32.776487 ], [ -71.208359, -32.776723 ], [ -71.207901, -32.776936 ], [ -71.207271, -32.777079 ], [ -71.206749, -32.777089 ], [ -71.205321, -32.77662 ], [ -71.204614, -32.776486 ], [ -71.203746, -32.776514 ], [ -71.202793, -32.776803 ], [ -71.201847, -32.776577 ], [ -71.201057, -32.776695 ], [ -71.199177, -32.777209 ], [ -71.197504, -32.777562 ], [ -71.194524, -32.77796 ], [ -71.194082, -32.780723 ], [ -71.197885, -32.780903 ], [ -71.201692, -32.781006 ], [ -71.202068, -32.781156 ], [ -71.203768, -32.781356 ], [ -71.206475, -32.781193 ], [ -71.209107, -32.780689 ], [ -71.210654, -32.780203 ], [ -71.2132, -32.781762 ], [ -71.212544, -32.782554 ], [ -71.212659, -32.78375 ], [ -71.213329, -32.783903 ], [ -71.213973, -32.783849 ], [ -71.21442, -32.783883 ], [ -71.215137, -32.784147 ], [ -71.218335, -32.786274 ], [ -71.221105, -32.788368 ], [ -71.22073, -32.78867 ], [ -71.221856, -32.789497 ], [ -71.222247, -32.789201 ], [ -71.223658, -32.790298 ], [ -71.223133, -32.790603 ], [ -71.223171, -32.790844 ], [ -71.222937, -32.791036 ], [ -71.223388, -32.791284 ], [ -71.224659, -32.790569 ], [ -71.225886, -32.791911 ], [ -71.226331, -32.791687 ], [ -71.228275, -32.793609 ], [ -71.226352, -32.794584 ], [ -71.216043, -32.799361 ] ], [ [ -70.687551, -32.787959 ], [ -70.68738, -32.787895 ], [ -70.687236, -32.787932 ], [ -70.686892, -32.786791 ], [ -70.687313, -32.786657 ], [ -70.687626, -32.786362 ], [ -70.687861, -32.786019 ], [ -70.687871, -32.785661 ], [ -70.686977, -32.785468 ], [ -70.686462, -32.785692 ], [ -70.685934, -32.786042 ], [ -70.685517, -32.786086 ], [ -70.685114, -32.785985 ], [ -70.684423, -32.786308 ], [ -70.684225, -32.786455 ], [ -70.684856, -32.787549 ], [ -70.682794, -32.788371 ], [ -70.682262, -32.788362 ], [ -70.681931, -32.78796 ], [ -70.679658, -32.789252 ], [ -70.678291, -32.78987 ], [ -70.676875, -32.790405 ], [ -70.676111, -32.78947 ], [ -70.676597, -32.789419 ], [ -70.677057, -32.789277 ], [ -70.677466, -32.789051 ], [ -70.677727, -32.788833 ], [ -70.677329, -32.787521 ], [ -70.678304, -32.787107 ], [ -70.677972, -32.786567 ], [ -70.679201, -32.786093 ], [ -70.679569, -32.785875 ], [ -70.680008, -32.785793 ], [ -70.681454, -32.786019 ], [ -70.682536, -32.78589 ], [ -70.683403, -32.786036 ], [ -70.683681, -32.786181 ], [ -70.68408, -32.786249 ], [ -70.684269, -32.786149 ], [ -70.684196, -32.785854 ], [ -70.68439, -32.785336 ], [ -70.685851, -32.784629 ], [ -70.685336, -32.783376 ], [ -70.68535, -32.783189 ], [ -70.684638, -32.780522 ], [ -70.685226, -32.780213 ], [ -70.684942, -32.779558 ], [ -70.685414, -32.779394 ], [ -70.685564, -32.779557 ], [ -70.685782, -32.779651 ], [ -70.686316, -32.779597 ], [ -70.686812, -32.780736 ], [ -70.687064, -32.781505 ], [ -70.687926, -32.78231 ], [ -70.690189, -32.782068 ], [ -70.690803, -32.782071 ], [ -70.691067, -32.782246 ], [ -70.691528, -32.782777 ], [ -70.692154, -32.784472 ], [ -70.689031, -32.785159 ], [ -70.690118, -32.788851 ], [ -70.690131, -32.789339 ], [ -70.689953, -32.789718 ], [ -70.688865, -32.791145 ], [ -70.688062, -32.791983 ], [ -70.687174, -32.792758 ], [ -70.686415, -32.792038 ], [ -70.688718, -32.7892 ], [ -70.688239, -32.788076 ], [ -70.687718, -32.788312 ], [ -70.687551, -32.787959 ] ], [ [ -70.856688, -32.786026 ], [ -70.853714, -32.784676 ], [ -70.851892, -32.7837 ], [ -70.848881, -32.781766 ], [ -70.846003, -32.77958 ], [ -70.847521, -32.778194 ], [ -70.848691, -32.77956 ], [ -70.849339, -32.780069 ], [ -70.854337, -32.782663 ], [ -70.857184, -32.784215 ], [ -70.856688, -32.786026 ] ], [ [ -70.8418, -32.772364 ], [ -70.841956, -32.772472 ], [ -70.84204, -32.77267 ], [ -70.83948, -32.772065 ], [ -70.83911, -32.772577 ], [ -70.838433, -32.773992 ], [ -70.835966, -32.772182 ], [ -70.83356, -32.770514 ], [ -70.831021, -32.768505 ], [ -70.831375, -32.767966 ], [ -70.829834, -32.766927 ], [ -70.830129, -32.766645 ], [ -70.831248, -32.766982 ], [ -70.831723, -32.766534 ], [ -70.832954, -32.767691 ], [ -70.834306, -32.765956 ], [ -70.835667, -32.76747 ], [ -70.834904, -32.768305 ], [ -70.834872, -32.768428 ], [ -70.834936, -32.768541 ], [ -70.836, -32.769061 ], [ -70.836204, -32.768933 ], [ -70.836317, -32.768621 ], [ -70.836453, -32.768437 ], [ -70.836939, -32.768148 ], [ -70.838566, -32.769366 ], [ -70.838047, -32.770843 ], [ -70.840193, -32.771181 ], [ -70.840485, -32.772002 ], [ -70.8418, -32.772364 ] ] ] ] } },
{ "type": "Feature", "properties": { "cat_code": 1, "categoria": "Áreas Agrícolas Activas", "subsector": "Valle del Aconcagua y Limache", "descrip": "Fruticultura de exportación (paltos, cítricos), viñedos y hortalizas", "clase_suel": "Clase I y II (Riego)" }, "geometry": { "type": "Polygon", "coordinates": [ [ [ -70.703429, -32.745369 ], [ -70.703789, -32.746876 ], [ -70.703806, -32.74726 ], [ -70.703552, -32.747897 ], [ -70.70193, -32.751278 ], [ -70.701897, -32.751391 ], [ -70.701955, -32.751641 ], [ -70.706917, -32.750417 ], [ -70.706487, -32.748286 ], [ -70.711346, -32.747782 ], [ -70.711383, -32.749707 ], [ -70.712693, -32.749381 ], [ -70.712698, -32.748831 ], [ -70.715722, -32.748105 ], [ -70.714305, -32.744442 ], [ -70.713529, -32.744027 ], [ -70.712521, -32.744307 ], [ -70.711998, -32.742812 ], [ -70.710878, -32.743094 ], [ -70.710723, -32.745568 ], [ -70.706422, -32.746616 ], [ -70.706973, -32.74391 ], [ -70.703659, -32.745324 ], [ -70.703429, -32.745369 ] ] ] } },
{ "type": "Feature", "properties": { "cat_code": 2, "categoria": "Predios Subdivididos (Parcelaciones)", "subsector": "Corredor Limache - Olmué", "descrip": "Parcelación predial 5.000 m², lotes de agrado y permisos en trámite", "clase_suel": "Clase III y IV" }, "geometry": { "type": "Polygon", "coordinates": [ [ [ -71.117615, -33.007287 ], [ -71.11256, -33.006065 ], [ -71.108601, -33.004693 ], [ -71.104348, -33.005631 ], [ -71.100466, -33.007567 ], [ -71.095783, -33.01087 ], [ -71.092991, -33.010944 ], [ -71.092455, -33.010579 ], [ -71.091346, -33.012206 ], [ -71.090053, -33.014626 ], [ -71.089048, -33.017142 ], [ -71.08834, -33.019728 ], [ -71.087936, -33.022361 ], [ -71.087841, -33.025014 ], [ -71.088055, -33.027662 ], [ -71.088576, -33.03028 ], [ -71.089399, -33.032842 ], [ -71.090516, -33.035324 ], [ -71.091917, -33.037702 ], [ -71.093588, -33.039953 ], [ -71.095513, -33.042054 ], [ -71.097673, -33.043987 ], [ -71.100048, -33.045732 ], [ -71.102615, -33.047273 ], [ -71.105348, -33.048594 ], [ -71.108223, -33.049683 ], [ -71.11121, -33.050529 ], [ -71.114281, -33.051125 ], [ -71.221766, -33.067291 ], [ -71.224893, -33.067628 ], [ -71.228044, -33.067704 ], [ -71.231189, -33.067521 ], [ -71.234297, -33.067078 ], [ -71.237339, -33.066381 ], [ -71.240284, -33.065437 ], [ -71.243106, -33.064253 ], [ -71.245776, -33.062843 ], [ -71.248269, -33.061219 ], [ -71.250561, -33.059397 ], [ -71.25263, -33.057394 ], [ -71.254455, -33.05523 ], [ -71.25602, -33.052926 ], [ -71.257309, -33.050504 ], [ -71.25831, -33.047987 ], [ -71.258428, -33.047552 ], [ -71.258788, -33.047992 ], [ -71.258973, -33.048817 ], [ -71.259578, -33.050893 ], [ -71.260048, -33.052199 ], [ -71.260801, -33.053979 ], [ -71.262338, -33.056626 ], [ -71.263408, -33.058164 ], [ -71.263907, -33.058752 ], [ -71.264124, -33.060723 ], [ -71.264339, -33.061822 ], [ -71.264827, -33.063725 ], [ -71.265534, -33.065578 ], [ -71.266453, -33.067364 ], [ -71.267576, -33.069065 ], [ -71.268891, -33.070666 ], [ -71.270386, -33.07215 ], [ -71.272047, -33.073504 ], [ -71.273858, -33.074714 ], [ -71.275801, -33.075769 ], [ -71.277857, -33.076658 ], [ -71.280008, -33.077374 ], [ -71.282231, -33.077908 ], [ -71.284505, -33.078256 ], [ -71.286809, -33.078415 ], [ -71.289121, -33.078383 ], [ -71.291418, -33.078161 ], [ -71.293677, -33.07775 ], [ -71.295878, -33.077154 ], [ -71.297999, -33.07638 ], [ -71.30002, -33.075434 ], [ -71.30192, -33.074326 ], [ -71.303683, -33.073066 ], [ -71.30529, -33.071667 ], [ -71.306727, -33.070143 ], [ -71.307979, -33.068506 ], [ -71.309035, -33.066775 ], [ -71.309883, -33.064965 ], [ -71.310518, -33.063093 ], [ -71.310931, -33.061178 ], [ -71.311119, -33.059238 ], [ -71.31108, -33.057292 ], [ -71.310877, -33.055806 ], [ -71.310709, -33.053021 ], [ -71.310378, -33.05126 ], [ -71.310098, -33.050109 ], [ -71.309523, -33.048218 ], [ -71.30912, -33.047122 ], [ -71.308292, -33.04522 ], [ -71.306593, -33.041668 ], [ -71.305758, -33.040127 ], [ -71.304983, -33.038972 ], [ -71.304461, -33.036705 ], [ -71.303646, -33.034545 ], [ -71.303315, -33.033815 ], [ -71.302144, -33.031637 ], [ -71.301246, -33.030203 ], [ -71.300692, -33.028892 ], [ -71.299708, -33.027131 ], [ -71.299153, -33.026347 ], [ -71.299213, -33.024444 ], [ -71.299116, -33.02298 ], [ -71.298798, -33.021045 ], [ -71.29837, -33.019467 ], [ -71.297811, -33.01797 ], [ -71.296466, -33.015396 ], [ -71.295709, -33.014327 ], [ -71.29664, -33.013806 ], [ -71.298975, -33.0121 ], [ -71.299498, -33.011607 ], [ -71.301179, -33.011087 ], [ -71.303253, -33.010244 ], [ -71.30522, -33.009233 ], [ -71.306861, -33.008203 ], [ -71.30826, -33.007712 ], [ -71.309705, -33.007106 ], [ -71.311186, -33.006378 ], [ -71.312296, -33.005745 ], [ -71.314022, -33.005219 ], [ -71.315996, -33.004437 ], [ -71.317092, -33.00393 ], [ -71.318409, -33.003555 ], [ -71.308327, -32.997482 ], [ -71.305578, -32.995972 ], [ -71.301876, -32.994268 ], [ -71.297576, -32.992697 ], [ -71.285953, -32.989024 ], [ -71.286046, -32.989173 ], [ -71.283804, -32.990292 ], [ -71.282544, -32.990463 ], [ -71.281274, -32.990355 ], [ -71.280176, -32.990663 ], [ -71.279135, -32.991089 ], [ -71.276947, -32.991476 ], [ -71.274765, -32.992111 ], [ -71.274903, -32.993485 ], [ -71.275093, -32.994644 ], [ -71.275735, -32.997005 ], [ -71.275759, -32.997469 ], [ -71.275665, -32.997994 ], [ -71.275727, -32.998229 ], [ -71.276886, -32.999418 ], [ -71.27761, -32.999981 ], [ -71.278357, -33.000467 ], [ -71.278778, -33.000829 ], [ -71.278959, -33.001031 ], [ -71.279354, -33.001963 ], [ -71.280128, -33.00178 ], [ -71.280588, -33.002098 ], [ -71.280905, -33.001763 ], [ -71.282028, -33.002953 ], [ -71.283042, -33.002481 ], [ -71.284049, -33.004422 ], [ -71.284899, -33.005558 ], [ -71.28404, -33.006112 ], [ -71.285229, -33.007482 ], [ -71.284984, -33.007904 ], [ -71.284602, -33.008246 ], [ -71.284116, -33.008478 ], [ -71.283248, -33.007551 ], [ -71.282359, -33.007217 ], [ -71.28154, -33.006772 ], [ -71.280854, -33.006818 ], [ -71.277019, -33.001943 ], [ -71.276347, -33.002015 ], [ -71.275596, -33.002274 ], [ -71.275262, -33.002469 ], [ -71.274448, -33.003293 ], [ -71.274278, -33.00358 ], [ -71.274204, -33.00391 ], [ -71.274209, -33.004078 ], [ -71.274908, -33.005673 ], [ -71.27524, -33.006772 ], [ -71.274869, -33.006947 ], [ -71.274443, -33.006936 ], [ -71.27419, -33.006824 ], [ -71.273795, -33.006468 ], [ -71.273462, -33.006341 ], [ -71.272525, -33.006732 ], [ -71.272228, -33.006754 ], [ -71.27201, -33.006671 ], [ -71.271857, -33.006517 ], [ -71.2718, -33.006322 ], [ -71.271829, -33.006172 ], [ -71.271547, -33.006094 ], [ -71.271178, -33.006122 ], [ -71.27081, -33.006328 ], [ -71.271738, -33.007993 ], [ -71.272101, -33.008772 ], [ -71.272422, -33.009781 ], [ -71.272625, -33.010869 ], [ -71.272595, -33.011067 ], [ -71.272466, -33.01131 ], [ -71.271823, -33.011863 ], [ -71.271476, -33.012331 ], [ -71.272022, -33.012949 ], [ -71.271387, -33.013108 ], [ -71.270866, -33.013451 ], [ -71.272777, -33.017838 ], [ -71.269589, -33.019096 ], [ -71.254473, -33.024482 ], [ -71.253671, -33.024611 ], [ -71.252312, -33.023068 ], [ -71.251724, -33.023703 ], [ -71.250422, -33.024639 ], [ -71.250013, -33.025058 ], [ -71.24969, -33.025526 ], [ -71.249045, -33.026009 ], [ -71.248338, -33.026427 ], [ -71.24643, -33.02704 ], [ -71.244247, -33.023449 ], [ -71.244215, -33.023233 ], [ -71.244328, -33.022897 ], [ -71.244276, -33.022584 ], [ -71.244123, -33.022294 ], [ -71.243766, -33.021942 ], [ -71.243687, -33.021536 ], [ -71.243404, -33.021226 ], [ -71.243395, -33.021056 ], [ -71.243501, -33.02082 ], [ -71.243473, -33.020655 ], [ -71.24322, -33.020466 ], [ -71.243104, -33.020079 ], [ -71.242616, -33.019529 ], [ -71.24254, -33.019172 ], [ -71.242631, -33.018819 ], [ -71.242876, -33.018521 ], [ -71.243329, -33.018359 ], [ -71.243726, -33.018114 ], [ -71.244407, -33.017335 ], [ -71.244907, -33.016933 ], [ -71.24551, -33.016647 ], [ -71.246178, -33.016493 ], [ -71.246594, -33.016469 ], [ -71.24752, -33.016599 ], [ -71.249337, -33.016997 ], [ -71.249929, -33.01717 ], [ -71.250396, -33.017773 ], [ -71.250905, -33.017748 ], [ -71.250739, -33.015928 ], [ -71.250557, -33.015474 ], [ -71.250229, -33.015081 ], [ -71.2508, -33.014392 ], [ -71.248539, -33.01091 ], [ -71.247089, -33.009448 ], [ -71.246669, -33.009198 ], [ -71.247066, -33.008804 ], [ -71.247831, -33.008234 ], [ -71.249019, -33.007125 ], [ -71.249595, -33.00636 ], [ -71.24989, -33.006343 ], [ -71.250188, -33.006499 ], [ -71.251293, -33.008012 ], [ -71.252195, -33.007647 ], [ -71.251969, -33.007179 ], [ -71.253467, -33.006555 ], [ -71.252136, -33.004379 ], [ -71.252811, -33.00316 ], [ -71.252924, -33.002795 ], [ -71.252961, -33.002186 ], [ -71.253082, -33.001944 ], [ -71.253286, -33.001746 ], [ -71.253914, -33.002057 ], [ -71.254387, -33.002522 ], [ -71.254702, -33.003171 ], [ -71.254782, -33.004076 ], [ -71.254917, -33.004265 ], [ -71.255123, -33.004395 ], [ -71.255474, -33.004451 ], [ -71.256698, -33.003933 ], [ -71.25578, -33.001816 ], [ -71.256602, -33.001719 ], [ -71.25698, -33.002688 ], [ -71.257934, -33.002389 ], [ -71.259017, -33.00465 ], [ -71.259563, -33.004454 ], [ -71.25791, -33.00104 ], [ -71.259052, -32.999951 ], [ -71.259571, -32.999251 ], [ -71.260098, -32.998728 ], [ -71.262586, -32.997645 ], [ -71.264626, -32.996861 ], [ -71.270799, -32.994857 ], [ -71.272343, -32.99409 ], [ -71.271572, -32.992437 ], [ -71.26988, -32.993101 ], [ -71.269016, -32.991389 ], [ -71.266858, -32.992522 ], [ -71.267925, -32.994766 ], [ -71.267383, -32.995016 ], [ -71.266798, -32.995183 ], [ -71.266508, -32.994891 ], [ -71.266013, -32.994964 ], [ -71.26512, -32.994842 ], [ -71.264562, -32.994648 ], [ -71.264057, -32.99437 ], [ -71.263257, -32.993635 ], [ -71.263143, -32.99336 ], [ -71.263132, -32.99305 ], [ -71.263733, -32.992779 ], [ -71.261819, -32.990031 ], [ -71.260396, -32.990765 ], [ -71.259854, -32.990811 ], [ -71.259342, -32.990655 ], [ -71.259109, -32.989844 ], [ -71.259136, -32.989499 ], [ -71.259228, -32.989251 ], [ -71.260091, -32.988906 ], [ -71.260775, -32.988347 ], [ -71.261042, -32.988213 ], [ -71.261198, -32.987986 ], [ -71.261201, -32.987725 ], [ -71.261128, -32.987579 ], [ -71.260862, -32.987327 ], [ -71.260171, -32.987309 ], [ -71.259447, -32.987825 ], [ -71.259145, -32.987742 ], [ -71.258784, -32.987558 ], [ -71.258491, -32.987302 ], [ -71.258253, -32.986907 ], [ -71.258253, -32.986661 ], [ -71.25842, -32.986516 ], [ -71.258706, -32.986506 ], [ -71.260281, -32.985908 ], [ -71.260534, -32.985837 ], [ -71.261084, -32.98586 ], [ -71.261318, -32.98579 ], [ -71.261487, -32.985489 ], [ -71.261821, -32.985516 ], [ -71.262113, -32.985428 ], [ -71.262247, -32.985277 ], [ -71.26206, -32.984867 ], [ -71.262095, -32.984701 ], [ -71.262406, -32.984596 ], [ -71.262702, -32.984657 ], [ -71.263053, -32.984568 ], [ -71.263635, -32.984292 ], [ -71.264038, -32.983938 ], [ -71.264891, -32.982798 ], [ -71.265202, -32.98266 ], [ -71.265523, -32.983099 ], [ -71.265743, -32.982933 ], [ -71.265578, -32.982583 ], [ -71.263922, -32.982059 ], [ -71.261269, -32.982751 ], [ -71.258911, -32.983597 ], [ -71.256661, -32.984633 ], [ -71.254584, -32.985828 ], [ -71.252771, -32.987123 ], [ -71.251121, -32.988565 ], [ -71.249409, -32.990389 ], [ -71.248098, -32.992157 ], [ -71.247014, -32.994032 ], [ -71.246169, -32.995992 ], [ -71.245573, -32.998015 ], [ -71.245233, -33.000081 ], [ -71.245209, -33.00071 ], [ -71.244061, -33.004572 ], [ -71.243705, -33.006512 ], [ -71.243582, -33.008767 ], [ -71.243249, -33.010879 ], [ -71.24319, -33.012764 ], [ -71.243344, -33.014645 ], [ -71.24375, -33.016692 ], [ -71.243986, -33.017536 ], [ -71.241956, -33.016558 ], [ -71.239082, -33.015472 ], [ -71.236094, -33.014628 ], [ -71.233024, -33.014036 ], [ -71.174773, -33.005285 ], [ -71.17461, -33.005884 ], [ -71.17351, -33.00723 ], [ -71.172448, -33.006669 ], [ -71.172401, -33.006761 ], [ -71.171544, -33.006607 ], [ -71.170424, -33.006328 ], [ -71.169527, -33.005966 ], [ -71.16854, -33.005837 ], [ -71.167822, -33.005897 ], [ -71.166737, -33.006149 ], [ -71.163884, -33.006512 ], [ -71.161077, -33.007076 ], [ -71.160749, -33.006891 ], [ -71.160573, -33.006669 ], [ -71.160497, -33.00641 ], [ -71.160532, -33.006145 ], [ -71.160673, -33.005906 ], [ -71.160838, -33.005761 ], [ -71.161851, -33.005188 ], [ -71.161972, -33.004914 ], [ -71.161922, -33.004624 ], [ -71.161768, -33.004428 ], [ -71.161535, -33.004297 ], [ -71.160604, -33.004315 ], [ -71.160269, -33.004395 ], [ -71.160216, -33.004513 ], [ -71.160049, -33.004581 ], [ -71.159853, -33.004498 ], [ -71.15982, -33.004345 ], [ -71.159902, -33.004239 ], [ -71.160509, -33.003968 ], [ -71.161178, -33.003578 ], [ -71.161897, -33.003347 ], [ -71.124797, -32.997789 ], [ -71.125266, -32.999226 ], [ -71.122123, -33.008558 ], [ -71.117615, -33.007287 ] ] ] } },
{ "type": "Feature", "properties": { "cat_code": 3, "categoria": "Terrenos en Transición Periurbana", "subsector": "Frente Villa Alemana - Limache", "descrip": "Agricultura en retroceso, usos mixtos y suelo en espera inmobiliaria", "clase_suel": "Transición Urbana" }, "geometry": { "type": "Polygon", "coordinates": [ [ [ -71.231561, -32.985003 ], [ -71.231526, -32.988131 ], [ -71.231581, -32.988563 ], [ -71.230933, -32.98931 ], [ -71.229827, -32.990809 ], [ -71.229253, -32.991738 ], [ -71.228261, -32.992797 ], [ -71.227581, -32.993363 ], [ -71.227011, -32.991525 ], [ -71.226133, -32.989506 ], [ -71.225031, -32.987566 ], [ -71.223715, -32.985725 ], [ -71.223149, -32.985081 ], [ -71.22261, -32.983386 ], [ -71.222155, -32.982317 ], [ -71.218191, -32.982897 ], [ -71.214659, -32.983749 ], [ -71.211242, -32.984888 ], [ -71.207975, -32.986305 ], [ -71.204887, -32.987984 ], [ -71.20201, -32.98991 ], [ -71.199371, -32.992064 ], [ -71.196994, -32.994426 ], [ -71.194904, -32.996973 ], [ -71.194207, -32.998031 ], [ -71.194724, -32.99872 ], [ -71.197483, -32.998921 ], [ -71.197913, -32.9989 ], [ -71.198324, -32.99879 ], [ -71.198302, -32.998598 ], [ -71.197742, -32.998714 ], [ -71.19719, -32.998573 ], [ -71.197154, -32.998189 ], [ -71.197244, -32.99789 ], [ -71.197491, -32.997566 ], [ -71.197778, -32.997373 ], [ -71.198939, -32.997654 ], [ -71.199519, -32.997892 ], [ -71.201486, -32.998259 ], [ -71.2007, -33.000696 ], [ -71.195655, -33.000213 ], [ -71.194494, -33.000014 ], [ -71.193126, -32.999671 ], [ -71.191659, -33.002522 ], [ -71.190536, -33.005471 ], [ -71.189761, -33.008498 ], [ -71.189342, -33.011574 ], [ -71.189283, -33.01467 ], [ -71.189585, -33.017757 ], [ -71.190244, -33.020803 ], [ -71.191356, -33.023997 ], [ -71.191807, -33.023637 ], [ -71.193579, -33.023639 ], [ -71.196216, -33.023422 ], [ -71.19808, -33.023109 ], [ -71.200077, -33.023229 ], [ -71.202621, -33.023177 ], [ -71.205148, -33.022921 ], [ -71.207634, -33.022465 ], [ -71.210058, -33.021811 ], [ -71.212397, -33.020966 ], [ -71.21463, -33.019938 ], [ -71.2158, -33.01927 ], [ -71.21592, -33.021485 ], [ -71.216219, -33.023311 ], [ -71.216687, -33.02511 ], [ -71.217321, -33.026873 ], [ -71.218276, -33.028869 ], [ -71.21853, -33.029668 ], [ -71.21946, -33.031937 ], [ -71.22047, -33.033797 ], [ -71.222628, -33.037337 ], [ -71.223929, -33.039238 ], [ -71.225443, -33.041023 ], [ -71.227157, -33.042675 ], [ -71.229053, -33.044179 ], [ -71.231113, -33.045521 ], [ -71.233319, -33.046688 ], [ -71.23565, -33.047669 ], [ -71.238082, -33.048454 ], [ -71.240594, -33.049036 ], [ -71.24316, -33.04941 ], [ -71.245758, -33.049572 ], [ -71.248363, -33.04952 ], [ -71.250949, -33.049255 ], [ -71.253492, -33.04878 ], [ -71.255968, -33.048098 ], [ -71.257876, -33.047485 ], [ -71.260693, -33.046404 ], [ -71.26284, -33.045891 ], [ -71.265067, -33.045199 ], [ -71.280071, -33.039833 ], [ -71.284129, -33.038247 ], [ -71.286467, -33.037202 ], [ -71.288672, -33.035968 ], [ -71.29072, -33.034556 ], [ -71.292593, -33.032981 ], [ -71.294272, -33.031257 ], [ -71.29574, -33.029403 ], [ -71.296274, -33.028559 ], [ -71.297624, -33.027954 ], [ -71.298991, -33.027254 ], [ -71.300492, -33.026378 ], [ -71.301837, -33.025483 ], [ -71.303036, -33.024587 ], [ -71.304251, -33.023566 ], [ -71.305392, -33.022485 ], [ -71.306455, -33.021349 ], [ -71.307434, -33.020159 ], [ -71.308328, -33.018922 ], [ -71.309133, -33.017641 ], [ -71.309844, -33.016322 ], [ -71.310497, -33.014879 ], [ -71.311226, -33.012792 ], [ -71.311717, -33.010606 ], [ -71.302484, -33.005034 ], [ -71.299735, -33.003523 ], [ -71.29684, -33.002222 ], [ -71.293821, -33.001138 ], [ -71.275264, -32.995275 ], [ -71.275735, -32.997005 ], [ -71.275759, -32.997469 ], [ -71.275665, -32.997994 ], [ -71.275727, -32.998229 ], [ -71.276886, -32.999418 ], [ -71.27761, -32.999981 ], [ -71.278357, -33.000467 ], [ -71.278778, -33.000829 ], [ -71.278959, -33.001031 ], [ -71.279354, -33.001963 ], [ -71.280128, -33.00178 ], [ -71.280588, -33.002098 ], [ -71.280905, -33.001763 ], [ -71.282028, -33.002953 ], [ -71.283042, -33.002481 ], [ -71.284049, -33.004422 ], [ -71.284899, -33.005558 ], [ -71.28404, -33.006112 ], [ -71.285229, -33.007482 ], [ -71.284918, -33.00798 ], [ -71.284602, -33.008246 ], [ -71.284116, -33.008478 ], [ -71.283248, -33.007551 ], [ -71.282359, -33.007217 ], [ -71.28154, -33.006772 ], [ -71.280854, -33.006818 ], [ -71.277019, -33.001943 ], [ -71.276347, -33.002015 ], [ -71.275596, -33.002274 ], [ -71.275262, -33.002469 ], [ -71.274448, -33.003293 ], [ -71.274278, -33.00358 ], [ -71.274204, -33.00391 ], [ -71.274209, -33.004078 ], [ -71.274908, -33.005673 ], [ -71.27524, -33.006772 ], [ -71.274869, -33.006947 ], [ -71.274443, -33.006936 ], [ -71.27419, -33.006824 ], [ -71.273795, -33.006468 ], [ -71.273462, -33.006341 ], [ -71.272525, -33.006732 ], [ -71.272228, -33.006754 ], [ -71.27201, -33.006671 ], [ -71.271857, -33.006517 ], [ -71.2718, -33.006322 ], [ -71.271829, -33.006172 ], [ -71.271547, -33.006094 ], [ -71.271178, -33.006122 ], [ -71.27081, -33.006328 ], [ -71.271738, -33.007993 ], [ -71.272101, -33.008772 ], [ -71.272422, -33.009781 ], [ -71.272625, -33.010869 ], [ -71.272595, -33.011067 ], [ -71.272466, -33.01131 ], [ -71.271823, -33.011863 ], [ -71.271476, -33.012331 ], [ -71.272022, -33.012949 ], [ -71.271387, -33.013108 ], [ -71.270866, -33.013451 ], [ -71.272777, -33.017838 ], [ -71.269589, -33.019096 ], [ -71.254473, -33.024482 ], [ -71.253671, -33.024611 ], [ -71.252312, -33.023068 ], [ -71.251724, -33.023703 ], [ -71.250422, -33.024639 ], [ -71.250013, -33.025058 ], [ -71.24969, -33.025526 ], [ -71.249045, -33.026009 ], [ -71.248338, -33.026427 ], [ -71.24643, -33.02704 ], [ -71.244247, -33.023449 ], [ -71.244215, -33.023233 ], [ -71.244328, -33.022897 ], [ -71.244276, -33.022584 ], [ -71.244123, -33.022294 ], [ -71.243766, -33.021942 ], [ -71.243687, -33.021536 ], [ -71.243404, -33.021226 ], [ -71.243395, -33.021056 ], [ -71.243501, -33.02082 ], [ -71.243473, -33.020655 ], [ -71.24322, -33.020466 ], [ -71.243104, -33.020079 ], [ -71.242616, -33.019529 ], [ -71.24254, -33.019172 ], [ -71.242631, -33.018819 ], [ -71.242876, -33.018521 ], [ -71.243329, -33.018359 ], [ -71.243726, -33.018114 ], [ -71.244407, -33.017335 ], [ -71.244907, -33.016933 ], [ -71.24551, -33.016647 ], [ -71.246178, -33.016493 ], [ -71.246594, -33.016469 ], [ -71.24752, -33.016599 ], [ -71.249337, -33.016997 ], [ -71.249929, -33.01717 ], [ -71.250396, -33.017773 ], [ -71.250905, -33.017748 ], [ -71.250739, -33.015928 ], [ -71.250557, -33.015474 ], [ -71.250229, -33.015081 ], [ -71.2508, -33.014392 ], [ -71.248539, -33.01091 ], [ -71.247089, -33.009448 ], [ -71.246669, -33.009198 ], [ -71.247066, -33.008804 ], [ -71.247831, -33.008234 ], [ -71.249019, -33.007125 ], [ -71.249595, -33.00636 ], [ -71.24989, -33.006343 ], [ -71.250188, -33.006499 ], [ -71.251293, -33.008012 ], [ -71.252195, -33.007647 ], [ -71.251969, -33.007179 ], [ -71.253467, -33.006555 ], [ -71.252136, -33.004379 ], [ -71.252811, -33.00316 ], [ -71.252924, -33.002795 ], [ -71.252961, -33.002186 ], [ -71.253082, -33.001944 ], [ -71.253286, -33.001746 ], [ -71.253914, -33.002057 ], [ -71.254387, -33.002522 ], [ -71.254702, -33.003171 ], [ -71.254782, -33.004076 ], [ -71.254917, -33.004265 ], [ -71.255123, -33.004395 ], [ -71.255474, -33.004451 ], [ -71.256698, -33.003933 ], [ -71.25578, -33.001816 ], [ -71.256602, -33.001719 ], [ -71.25698, -33.002688 ], [ -71.257934, -33.002389 ], [ -71.259017, -33.00465 ], [ -71.259563, -33.004454 ], [ -71.25791, -33.00104 ], [ -71.259052, -32.999951 ], [ -71.259571, -32.999251 ], [ -71.260098, -32.998728 ], [ -71.262083, -32.997852 ], [ -71.264112, -32.99705 ], [ -71.266182, -32.996324 ], [ -71.270799, -32.994857 ], [ -71.272025, -32.99425 ], [ -71.26691, -32.992633 ], [ -71.267925, -32.994766 ], [ -71.267383, -32.995016 ], [ -71.266798, -32.995183 ], [ -71.266508, -32.994891 ], [ -71.265862, -32.994958 ], [ -71.264977, -32.994802 ], [ -71.264057, -32.99437 ], [ -71.263257, -32.993635 ], [ -71.263143, -32.99336 ], [ -71.263132, -32.99305 ], [ -71.263733, -32.992779 ], [ -71.262751, -32.991318 ], [ -71.260663, -32.990658 ], [ -71.260128, -32.990814 ], [ -71.259588, -32.990757 ], [ -71.259342, -32.990655 ], [ -71.259199, -32.990195 ], [ -71.239882, -32.984083 ], [ -71.236383, -32.983138 ], [ -71.232791, -32.982487 ], [ -71.232018, -32.982412 ], [ -71.231561, -32.985003 ] ] ] } },
{ "type": "Feature", "properties": { "cat_code": 3, "categoria": "Terrenos en Transición Periurbana", "subsector": "Frente Villa Alemana - Limache", "descrip": "Agricultura en retroceso, usos mixtos y suelo en espera inmobiliaria", "clase_suel": "Transición Urbana" }, "geometry": { "type": "Polygon", "coordinates": [ [ [ -71.324437, -33.023807 ], [ -71.32281, -33.0259 ], [ -71.321419, -33.026806 ], [ -71.319446, -33.028389 ], [ -71.317674, -33.030131 ], [ -71.312738, -33.035663 ], [ -71.311195, -33.037159 ], [ -71.309611, -33.039001 ], [ -71.308256, -33.040968 ], [ -71.307143, -33.043039 ], [ -71.306283, -33.045195 ], [ -71.305686, -33.047413 ], [ -71.305357, -33.04967 ], [ -71.305299, -33.051943 ], [ -71.305428, -33.053302 ], [ -71.305128, -33.055405 ], [ -71.305068, -33.057584 ], [ -71.305258, -33.059758 ], [ -71.305697, -33.061906 ], [ -71.306381, -33.064009 ], [ -71.307302, -33.066046 ], [ -71.308453, -33.067998 ], [ -71.309823, -33.069848 ], [ -71.31036, -33.070437 ], [ -71.310795, -33.071101 ], [ -71.31159, -33.072133 ], [ -71.313356, -33.07409 ], [ -71.315243, -33.07581 ], [ -71.317419, -33.077443 ], [ -71.319888, -33.078949 ], [ -71.322284, -33.080127 ], [ -71.323714, -33.080715 ], [ -71.326416, -33.08162 ], [ -71.327993, -33.082054 ], [ -71.330566, -33.082656 ], [ -71.333197, -33.083038 ], [ -71.334685, -33.083128 ], [ -71.33706, -33.084527 ], [ -71.33956, -33.085666 ], [ -71.340772, -33.085223 ], [ -71.343986, -33.083718 ], [ -71.347009, -33.081954 ], [ -71.349812, -33.079949 ], [ -71.352368, -33.077723 ], [ -71.354652, -33.075296 ], [ -71.356643, -33.072692 ], [ -71.358321, -33.069937 ], [ -71.35967, -33.067057 ], [ -71.360152, -33.06563 ], [ -71.358311, -33.066551 ], [ -71.357941, -33.065973 ], [ -71.360176, -33.064882 ], [ -71.358941, -33.064056 ], [ -71.357026, -33.06508 ], [ -71.356944, -33.064887 ], [ -71.356413, -33.065113 ], [ -71.355969, -33.064798 ], [ -71.35833, -33.063539 ], [ -71.356939, -33.062354 ], [ -71.355684, -33.061622 ], [ -71.354669, -33.060857 ], [ -71.354223, -33.060683 ], [ -71.353733, -33.060643 ], [ -71.353039, -33.060782 ], [ -71.351109, -33.065343 ], [ -71.350539, -33.064895 ], [ -71.349451, -33.06387 ], [ -71.345246, -33.061599 ], [ -71.347664, -33.058609 ], [ -71.347984, -33.058027 ], [ -71.348259, -33.057364 ], [ -71.348365, -33.05661 ], [ -71.348644, -33.056064 ], [ -71.349208, -33.055502 ], [ -71.349177, -33.055347 ], [ -71.345222, -33.055958 ], [ -71.343128, -33.056191 ], [ -71.342994, -33.058521 ], [ -71.342988, -33.059872 ], [ -71.340338, -33.057307 ], [ -71.338491, -33.056061 ], [ -71.337493, -33.055514 ], [ -71.337071, -33.056332 ], [ -71.336944, -33.056727 ], [ -71.337266, -33.057437 ], [ -71.337363, -33.058164 ], [ -71.338205, -33.058148 ], [ -71.3384, -33.059388 ], [ -71.338712, -33.06032 ], [ -71.336431, -33.060666 ], [ -71.336297, -33.060358 ], [ -71.335931, -33.060417 ], [ -71.335523, -33.060388 ], [ -71.334624, -33.060127 ], [ -71.334073, -33.059791 ], [ -71.333637, -33.059353 ], [ -71.333566, -33.059255 ], [ -71.333695, -33.058544 ], [ -71.331823, -33.057011 ], [ -71.334247, -33.054814 ], [ -71.335802, -33.056116 ], [ -71.336544, -33.056933 ], [ -71.336651, -33.056933 ], [ -71.337335, -33.055428 ], [ -71.335346, -33.054275 ], [ -71.334993, -33.053966 ], [ -71.334322, -33.053571 ], [ -71.332919, -33.052275 ], [ -71.33205, -33.051281 ], [ -71.332379, -33.051052 ], [ -71.332633, -33.050711 ], [ -71.332718, -33.050693 ], [ -71.333631, -33.049841 ], [ -71.334157, -33.049173 ], [ -71.337947, -33.044912 ], [ -71.33823, -33.044971 ], [ -71.338567, -33.045159 ], [ -71.339042, -33.04571 ], [ -71.339461, -33.045745 ], [ -71.339236, -33.045182 ], [ -71.339072, -33.044257 ], [ -71.338896, -33.044108 ], [ -71.338857, -33.043901 ], [ -71.338985, -33.043899 ], [ -71.33929, -33.043757 ], [ -71.339227, -33.043746 ], [ -71.339391, -33.043652 ], [ -71.340715, -33.043615 ], [ -71.341322, -33.043345 ], [ -71.342531, -33.042623 ], [ -71.343605, -33.041569 ], [ -71.344567, -33.040493 ], [ -71.346272, -33.037881 ], [ -71.345763, -33.037508 ], [ -71.345901, -33.037262 ], [ -71.346617, -33.037488 ], [ -71.346991, -33.037606 ], [ -71.347183, -33.037065 ], [ -71.347466, -33.036672 ], [ -71.34767, -33.036468 ], [ -71.348055, -33.036261 ], [ -71.349627, -33.034516 ], [ -71.35, -33.034391 ], [ -71.350351, -33.034406 ], [ -71.348868, -33.033199 ], [ -71.345987, -33.031275 ], [ -71.328064, -33.020468 ], [ -71.326124, -33.022083 ], [ -71.324437, -33.023807 ] ] ] } }
]
}
